{
"type": "FeatureCollection",
"name": "education_facilities",
"crs": { "type": "name", "properties": { "name": "urn:ogc:def:crs:OGC:1.3:CRS84" } },
"features": [
{ "type": "Feature", "properties": { "id": "node/7940743986", "name": null, "name_en": "Shree Pioneer Secondary Boarding School", "name_ne": null, "status": "Standing", "amenity": "school", "building": null, "operator_type": null, "capacity_persons": null, "addr_full": null, "addr_city": null, "source": null, "adm0_pcode": "NPL", "adm0_name": "Nepal", "adm1_pcode": "NP03", "adm1_name": "Bagmati", "adm2_pcode": "NP0328", "adm2_name": "Nuwakot", "adm3_pcode": "NP0328301", "adm3_name": "Bidur", "adm4_pcode": null, "adm4_name": null, "name_latin": "Shree Pioneer Secondary Boarding School" }, "geometry": { "type": "Point", "coordinates": [ 85.1693966, 27.964749 ] } },
{ "type": "Feature", "properties": { "id": "node/5063613276", "name": "Shree Chetana Primary School", "name_en": null, "name_ne": null, "status": "Destroyed", "amenity": "school", "building": null, "operator_type": "government", "capacity_persons": null, "addr_full": null, "addr_city": null, "source": null, "adm0_pcode": "NPL", "adm0_name": "Nepal", "adm1_pcode": "NP03", "adm1_name": "Bagmati", "adm2_pcode": "NP0328", "adm2_name": "Nuwakot", "adm3_pcode": "NP0328301", "adm3_name": "Bidur", "adm4_pcode": null, "adm4_name": null, "name_latin": "Shree Chetana Primary School" }, "geometry": { "type": "Point", "coordinates": [ 85.1713652, 27.9618698 ] } },
{ "type": "Feature", "properties": { "id": "node/4967821159", "name": "Shree Haku Besi Ni.Ma.V", "name_en": null, "name_ne": null, "status": "Standing", "amenity": "school", "building": null, "operator_type": "government", "capacity_persons": null, "addr_full": null, "addr_city": null, "source": null, "adm0_pcode": "NPL", "adm0_name": "Nepal", "adm1_pcode": "NP03", "adm1_name": "Bagmati", "adm2_pcode": "NP0329", "adm2_name": "Rasuwa", "adm3_pcode": "NP0329401", "adm3_name": "Aamachhodingmo", "adm4_pcode": null, "adm4_name": null, "name_latin": "Shree Haku Besi Ni.Ma.V" }, "geometry": { "type": "Point", "coordinates": [ 85.2794174, 28.1146281 ] } },
{ "type": "Feature", "properties": { "id": "node/2857847363", "name": "Gosaikunda English Reading School", "name_en": null, "name_ne": null, "status": "Destroyed", "amenity": "school", "building": null, "operator_type": null, "capacity_persons": null, "addr_full": null, "addr_city": null, "source": "GPS", "adm0_pcode": "NPL", "adm0_name": "Nepal", "adm1_pcode": "NP03", "adm1_name": "Bagmati", "adm2_pcode": "NP0329", "adm2_name": "Rasuwa", "adm3_pcode": "NP0329402", "adm3_name": "Gosaikunda", "adm4_pcode": null, "adm4_name": null, "name_latin": "Gosaikunda English Reading School" }, "geometry": { "type": "Point", "coordinates": [ 85.3388638, 28.1643332 ] } },
{ "type": "Feature", "properties": { "id": "node/4936634947", "name": "Shri Belinitar Pra Vi", "name_en": null, "name_ne": null, "status": "Standing", "amenity": "school", "building": null, "operator_type": "government", "capacity_persons": null, "addr_full": null, "addr_city": null, "source": null, "adm0_pcode": "NPL", "adm0_name": "Nepal", "adm1_pcode": "NP03", "adm1_name": "Bagmati", "adm2_pcode": "NP0330", "adm2_name": "Dhading", "adm3_pcode": "NP0330410", "adm3_name": "Galchhi", "adm4_pcode": null, "adm4_name": null, "name_latin": "Shri Belinitar Pra Vi" }, "geometry": { "type": "Point", "coordinates": [ 84.9442606, 27.8147716 ] } },
{ "type": "Feature", "properties": { "id": "node/4941869402", "name": "Shri Aadarsha Bahumukhi Campus", "name_en": null, "name_ne": null, "status": "Standing", "amenity": "school", "building": null, "operator_type": "government", "capacity_persons": null, "addr_full": null, "addr_city": null, "source": null, "adm0_pcode": "NPL", "adm0_name": "Nepal", "adm1_pcode": "NP03", "adm1_name": "Bagmati", "adm2_pcode": "NP0330", "adm2_name": "Dhading", "adm3_pcode": "NP0330407", "adm3_name": "Siddhalek", "adm4_pcode": null, "adm4_name": null, "name_latin": "Shri Aadarsha Bahumukhi Campus" }, "geometry": { "type": "Point", "coordinates": [ 84.8773408, 27.8070838 ] } },
{ "type": "Feature", "properties": { "id": "node/4941743504", "name": "Shri Adarsha Uchha Ma V", "name_en": null, "name_ne": null, "status": "Standing", "amenity": "school", "building": null, "operator_type": "government", "capacity_persons": null, "addr_full": null, "addr_city": null, "source": null, "adm0_pcode": "NPL", "adm0_name": "Nepal", "adm1_pcode": "NP03", "adm1_name": "Bagmati", "adm2_pcode": "NP0330", "adm2_name": "Dhading", "adm3_pcode": "NP0330409", "adm3_name": "Gajuri", "adm4_pcode": null, "adm4_name": null, "name_latin": "Shri Adarsha Uchha Ma V" }, "geometry": { "type": "Point", "coordinates": [ 84.8793261, 27.807585 ] } },
{ "type": "Feature", "properties": { "id": "node/9794127019", "name": "Shree Bakulahari Rastriya Adharbhut School, Lewatar", "name_en": null, "name_ne": null, "status": "Standing", "amenity": "school", "building": null, "operator_type": null, "capacity_persons": null, "addr_full": null, "addr_city": null, "source": null, "adm0_pcode": "NPL", "adm0_name": "Nepal", "adm1_pcode": "NP03", "adm1_name": "Bagmati", "adm2_pcode": "NP0335", "adm2_name": "Chitawan", "adm3_pcode": "NP0335401", "adm3_name": "Ichchha Kamana", "adm4_pcode": null, "adm4_name": null, "name_latin": "Shree Bakulahari Rastriya Adharbhut School, Lewatar" }, "geometry": { "type": "Point", "coordinates": [ 84.6044235, 27.8703213 ] } },
{ "type": "Feature", "properties": { "id": "node/4878209122", "name": "Shri Janajagriti Primary School", "name_en": null, "name_ne": null, "status": "Standing", "amenity": "school", "building": null, "operator_type": "government", "capacity_persons": null, "addr_full": null, "addr_city": null, "source": null, "adm0_pcode": "NPL", "adm0_name": "Nepal", "adm1_pcode": "NP03", "adm1_name": "Bagmati", "adm2_pcode": "NP0335", "adm2_name": "Chitawan", "adm3_pcode": "NP0335401", "adm3_name": "Ichchha Kamana", "adm4_pcode": null, "adm4_name": null, "name_latin": "Shri Janajagriti Primary School" }, "geometry": { "type": "Point", "coordinates": [ 84.6409513, 27.8622423 ] } },
{ "type": "Feature", "properties": { "id": "node/9794127022", "name": "Kurin Boarding School", "name_en": null, "name_ne": null, "status": "Standing", "amenity": "school", "building": null, "operator_type": null, "capacity_persons": null, "addr_full": null, "addr_city": null, "source": null, "adm0_pcode": "NPL", "adm0_name": "Nepal", "adm1_pcode": "NP03", "adm1_name": "Bagmati", "adm2_pcode": "NP0335", "adm2_name": "Chitawan", "adm3_pcode": "NP0335401", "adm3_name": "Ichchha Kamana", "adm4_pcode": null, "adm4_name": null, "name_latin": "Kurin Boarding School" }, "geometry": { "type": "Point", "coordinates": [ 84.6251566, 27.8706443 ] } },
{ "type": "Feature", "properties": { "id": "node/4915942407", "name": "Shri Rainas Pra V", "name_en": null, "name_ne": null, "status": "Standing", "amenity": "school", "building": null, "operator_type": "government", "capacity_persons": null, "addr_full": null, "addr_city": null, "source": null, "adm0_pcode": "NPL", "adm0_name": "Nepal", "adm1_pcode": "NP04", "adm1_name": "Gandaki", "adm2_pcode": "NP0436", "adm2_name": "Gorkha", "adm3_pcode": "NP0436409", "adm3_name": "Gandaki", "adm4_pcode": null, "adm4_name": null, "name_latin": "Shri Rainas Pra V" }, "geometry": { "type": "Point", "coordinates": [ 84.6330946, 27.8716283 ] } },
{ "type": "Feature", "properties": { "id": "node/9794119187", "name": "Shree Rastriya Aardharbhut School, Fishling", "name_en": null, "name_ne": null, "status": "Standing", "amenity": "school", "building": null, "operator_type": null, "capacity_persons": null, "addr_full": null, "addr_city": null, "source": null, "adm0_pcode": "NPL", "adm0_name": "Nepal", "adm1_pcode": "NP03", "adm1_name": "Bagmati", "adm2_pcode": "NP0335", "adm2_name": "Chitawan", "adm3_pcode": "NP0335401", "adm3_name": "Ichchha Kamana", "adm4_pcode": null, "adm4_name": null, "name_latin": "Shree Rastriya Aardharbhut School, Fishling" }, "geometry": { "type": "Point", "coordinates": [ 84.6614838, 27.8424892 ] } },
{ "type": "Feature", "properties": { "id": "node/9794119213", "name": "Green Field Secondary English School, Muglin", "name_en": null, "name_ne": null, "status": "Standing", "amenity": "school", "building": null, "operator_type": null, "capacity_persons": null, "addr_full": null, "addr_city": null, "source": null, "adm0_pcode": "NPL", "adm0_name": "Nepal", "adm1_pcode": "NP03", "adm1_name": "Bagmati", "adm2_pcode": "NP0335", "adm2_name": "Chitawan", "adm3_pcode": "NP0335401", "adm3_name": "Ichchha Kamana", "adm4_pcode": null, "adm4_name": null, "name_latin": "Green Field Secondary English School, Muglin" }, "geometry": { "type": "Point", "coordinates": [ 84.5615298, 27.8576882 ] } },
{ "type": "Feature", "properties": { "id": "node/4939797039", "name": "Shri Chandrodaya Ma Vi", "name_en": null, "name_ne": null, "status": "Standing", "amenity": "school", "building": null, "operator_type": "government", "capacity_persons": null, "addr_full": null, "addr_city": null, "source": null, "adm0_pcode": "NPL", "adm0_name": "Nepal", "adm1_pcode": "NP03", "adm1_name": "Bagmati", "adm2_pcode": "NP0330", "adm2_name": "Dhading", "adm3_pcode": "NP0330407", "adm3_name": "Siddhalek", "adm4_pcode": null, "adm4_name": null, "name_latin": "Shri Chandrodaya Ma Vi" }, "geometry": { "type": "Point", "coordinates": [ 84.7816236, 27.8121655 ] } },
{ "type": "Feature", "properties": { "id": "node/4912228426", "name": "Shri Shilingtar Pra V", "name_en": null, "name_ne": null, "status": "Standing", "amenity": "school", "building": null, "operator_type": "government", "capacity_persons": null, "addr_full": null, "addr_city": null, "source": null, "adm0_pcode": "NPL", "adm0_name": "Nepal", "adm1_pcode": "NP04", "adm1_name": "Gandaki", "adm2_pcode": "NP0436", "adm2_name": "Gorkha", "adm3_pcode": "NP0436408", "adm3_name": "Shahid Lakhan", "adm4_pcode": null, "adm4_name": null, "name_latin": "Shri Shilingtar Pra V" }, "geometry": { "type": "Point", "coordinates": [ 84.5911485, 27.8816026 ] } },
{ "type": "Feature", "properties": { "id": "node/3494632842", "name": "Nepali, English", "name_en": "Rising Star English Boarding School", "name_ne": null, "status": "Standing", "amenity": "school", "building": null, "operator_type": null, "capacity_persons": null, "addr_full": null, "addr_city": null, "source": null, "adm0_pcode": "NPL", "adm0_name": "Nepal", "adm1_pcode": "NP04", "adm1_name": "Gandaki", "adm2_pcode": "NP0436", "adm2_name": "Gorkha", "adm3_pcode": "NP0436409", "adm3_name": "Gandaki", "adm4_pcode": null, "adm4_name": null, "name_latin": "Rising Star English Boarding School" }, "geometry": { "type": "Point", "coordinates": [ 84.7396508, 27.8013069 ] } },
{ "type": "Feature", "properties": { "id": "node/4941662039", "name": "Shri Buddhi Bikash Pra V", "name_en": null, "name_ne": null, "status": "Standing", "amenity": "school", "building": null, "operator_type": "government", "capacity_persons": null, "addr_full": null, "addr_city": null, "source": null, "adm0_pcode": "NPL", "adm0_name": "Nepal", "adm1_pcode": "NP03", "adm1_name": "Bagmati", "adm2_pcode": "NP0330", "adm2_name": "Dhading", "adm3_pcode": "NP0330408", "adm3_name": "Benighat Rorang", "adm4_pcode": null, "adm4_name": null, "name_latin": "Shri Buddhi Bikash Pra V" }, "geometry": { "type": "Point", "coordinates": [ 84.7486773, 27.8035007 ] } },
{ "type": "Feature", "properties": { "id": "node/4858981422", "name": "Shree Shankha Higher Secondary School", "name_en": null, "name_ne": null, "status": "Standing", "amenity": "school", "building": null, "operator_type": "government", "capacity_persons": null, "addr_full": null, "addr_city": null, "source": null, "adm0_pcode": "NPL", "adm0_name": "Nepal", "adm1_pcode": "NP03", "adm1_name": "Bagmati", "adm2_pcode": "NP0330", "adm2_name": "Dhading", "adm3_pcode": "NP0330408", "adm3_name": "Benighat Rorang", "adm4_pcode": null, "adm4_name": null, "name_latin": "Shree Shankha Higher Secondary School" }, "geometry": { "type": "Point", "coordinates": [ 84.7048938, 27.805525 ] } },
{ "type": "Feature", "properties": { "id": "node/5047244078", "name": "Shree Sulakshyana Ma Vi", "name_en": null, "name_ne": null, "status": "Standing", "amenity": "school", "building": null, "operator_type": "government", "capacity_persons": null, "addr_full": null, "addr_city": null, "source": null, "adm0_pcode": "NPL", "adm0_name": "Nepal", "adm1_pcode": "NP03", "adm1_name": "Bagmati", "adm2_pcode": "NP0328", "adm2_name": "Nuwakot", "adm3_pcode": "NP0328301", "adm3_name": "Bidur", "adm4_pcode": null, "adm4_name": null, "name_latin": "Shree Sulakshyana Ma Vi" }, "geometry": { "type": "Point", "coordinates": [ 85.1584666, 27.9475845 ] } },
{ "type": "Feature", "properties": { "id": "node/4563086889", "name": null, "name_en": "Dibyaratna boarding school", "name_ne": null, "status": "Standing", "amenity": "school", "building": null, "operator_type": null, "capacity_persons": null, "addr_full": null, "addr_city": null, "source": null, "adm0_pcode": "NPL", "adm0_name": "Nepal", "adm1_pcode": "NP03", "adm1_name": "Bagmati", "adm2_pcode": "NP0328", "adm2_name": "Nuwakot", "adm3_pcode": "NP0328301", "adm3_name": "Bidur", "adm4_pcode": null, "adm4_name": null, "name_latin": "Dibyaratna boarding school" }, "geometry": { "type": "Point", "coordinates": [ 85.1451878, 27.9178928 ] } },
{ "type": "Feature", "properties": { "id": "node/5057829568", "name": "Shree Mahadev Uchha Ma V", "name_en": null, "name_ne": null, "status": "Standing", "amenity": "school", "building": null, "operator_type": "government", "capacity_persons": null, "addr_full": null, "addr_city": null, "source": null, "adm0_pcode": "NPL", "adm0_name": "Nepal", "adm1_pcode": "NP03", "adm1_name": "Bagmati", "adm2_pcode": "NP0330", "adm2_name": "Dhading", "adm3_pcode": "NP0330410", "adm3_name": "Galchhi", "adm4_pcode": null, "adm4_name": null, "name_latin": "Shree Mahadev Uchha Ma V" }, "geometry": { "type": "Point", "coordinates": [ 85.014091, 27.8105267 ] } },
{ "type": "Feature", "properties": { "id": "node/5055527657", "name": "Shree Pimaltar Uchcha Ma.Vi.", "name_en": null, "name_ne": null, "status": "Standing", "amenity": "school", "building": null, "operator_type": "government", "capacity_persons": null, "addr_full": null, "addr_city": null, "source": null, "adm0_pcode": "NPL", "adm0_name": "Nepal", "adm1_pcode": "NP03", "adm1_name": "Bagmati", "adm2_pcode": "NP0328", "adm2_name": "Nuwakot", "adm3_pcode": "NP0328302", "adm3_name": "Belkotgadhi", "adm4_pcode": null, "adm4_name": null, "name_latin": "Shree Pimaltar Uchcha Ma.Vi." }, "geometry": { "type": "Point", "coordinates": [ 85.0192998, 27.8390414 ] } },
{ "type": "Feature", "properties": { "id": "node/5055224610", "name": "Shri Seti Devi Pra Bi", "name_en": null, "name_ne": null, "status": "Standing", "amenity": "school", "building": null, "operator_type": "government", "capacity_persons": null, "addr_full": null, "addr_city": null, "source": null, "adm0_pcode": "NPL", "adm0_name": "Nepal", "adm1_pcode": "NP03", "adm1_name": "Bagmati", "adm2_pcode": "NP0328", "adm2_name": "Nuwakot", "adm3_pcode": "NP0328301", "adm3_name": "Bidur", "adm4_pcode": null, "adm4_name": null, "name_latin": "Shri Seti Devi Pra Bi" }, "geometry": { "type": "Point", "coordinates": [ 85.0873968, 27.8625042 ] } },
{ "type": "Feature", "properties": { "id": "node/5055255859", "name": "Shri Janasewa Lower Secondary School", "name_en": null, "name_ne": null, "status": "Standing", "amenity": "school", "building": null, "operator_type": "government", "capacity_persons": null, "addr_full": null, "addr_city": null, "source": null, "adm0_pcode": "NPL", "adm0_name": "Nepal", "adm1_pcode": "NP03", "adm1_name": "Bagmati", "adm2_pcode": "NP0328", "adm2_name": "Nuwakot", "adm3_pcode": "NP0328302", "adm3_name": "Belkotgadhi", "adm4_pcode": null, "adm4_name": null, "name_latin": "Shri Janasewa Lower Secondary School" }, "geometry": { "type": "Point", "coordinates": [ 85.0897009, 27.8536836 ] } },
{ "type": "Feature", "properties": { "id": "node/5055300883", "name": "Shri Chandi Ni.Ma.Vi.", "name_en": null, "name_ne": null, "status": "Standing", "amenity": "school", "building": null, "operator_type": "government", "capacity_persons": null, "addr_full": null, "addr_city": null, "source": null, "adm0_pcode": "NPL", "adm0_name": "Nepal", "adm1_pcode": "NP03", "adm1_name": "Bagmati", "adm2_pcode": "NP0328", "adm2_name": "Nuwakot", "adm3_pcode": "NP0328301", "adm3_name": "Bidur", "adm4_pcode": null, "adm4_name": null, "name_latin": "Shri Chandi Ni.Ma.Vi." }, "geometry": { "type": "Point", "coordinates": [ 85.0806347, 27.8576473 ] } },
{ "type": "Feature", "properties": { "id": "node/5046072853", "name": "Shri Sila Devi Ma. Vi", "name_en": null, "name_ne": null, "status": "Standing", "amenity": "school", "building": null, "operator_type": "government", "capacity_persons": null, "addr_full": null, "addr_city": null, "source": null, "adm0_pcode": "NPL", "adm0_name": "Nepal", "adm1_pcode": "NP03", "adm1_name": "Bagmati", "adm2_pcode": "NP0328", "adm2_name": "Nuwakot", "adm3_pcode": "NP0328302", "adm3_name": "Belkotgadhi", "adm4_pcode": null, "adm4_name": null, "name_latin": "Shri Sila Devi Ma. Vi" }, "geometry": { "type": "Point", "coordinates": [ 85.0423178, 27.8514602 ] } },
{ "type": "Feature", "properties": { "id": "node/5055276919", "name": "Shri Ganeshman Singh Memorial Primary School", "name_en": null, "name_ne": null, "status": "Standing", "amenity": "school", "building": null, "operator_type": "government", "capacity_persons": null, "addr_full": null, "addr_city": null, "source": null, "adm0_pcode": "NPL", "adm0_name": "Nepal", "adm1_pcode": "NP03", "adm1_name": "Bagmati", "adm2_pcode": "NP0328", "adm2_name": "Nuwakot", "adm3_pcode": "NP0328302", "adm3_name": "Belkotgadhi", "adm4_pcode": null, "adm4_name": null, "name_latin": "Shri Ganeshman Singh Memorial Primary School" }, "geometry": { "type": "Point", "coordinates": [ 85.0276701, 27.8491356 ] } },
{ "type": "Feature", "properties": { "id": "node/4969579345", "name": "Shree Chipleti Pra Vi", "name_en": null, "name_ne": null, "status": "Standing", "amenity": "school", "building": null, "operator_type": "government", "capacity_persons": null, "addr_full": null, "addr_city": null, "source": null, "adm0_pcode": "NPL", "adm0_name": "Nepal", "adm1_pcode": "NP03", "adm1_name": "Bagmati", "adm2_pcode": "NP0329", "adm2_name": "Rasuwa", "adm3_pcode": "NP0329404", "adm3_name": "Kalika", "adm4_pcode": null, "adm4_name": null, "name_latin": "Shree Chipleti Pra Vi" }, "geometry": { "type": "Point", "coordinates": [ 85.2081762, 28.0563867 ] } },
{ "type": "Feature", "properties": { "id": "node/4969595164", "name": "Shree Simle Pra Vi", "name_en": null, "name_ne": null, "status": "Standing", "amenity": "school", "building": null, "operator_type": "government", "capacity_persons": null, "addr_full": null, "addr_city": null, "source": null, "adm0_pcode": "NPL", "adm0_name": "Nepal", "adm1_pcode": "NP03", "adm1_name": "Bagmati", "adm2_pcode": "NP0329", "adm2_name": "Rasuwa", "adm3_pcode": "NP0329403", "adm3_name": "Uttargaya", "adm4_pcode": null, "adm4_name": null, "name_latin": "Shree Simle Pra Vi" }, "geometry": { "type": "Point", "coordinates": [ 85.1907891, 28.0297555 ] } },
{ "type": "Feature", "properties": { "id": "node/4706138525", "name": "Shree Neelkanta Higher Sec School", "name_en": null, "name_ne": null, "status": "Standing", "amenity": "school", "building": null, "operator_type": null, "capacity_persons": null, "addr_full": null, "addr_city": null, "source": null, "adm0_pcode": "NPL", "adm0_name": "Nepal", "adm1_pcode": "NP03", "adm1_name": "Bagmati", "adm2_pcode": "NP0328", "adm2_name": "Nuwakot", "adm3_pcode": "NP0328402", "adm3_name": "Kispang", "adm4_pcode": null, "adm4_name": null, "name_latin": "Shree Neelkanta Higher Sec School" }, "geometry": { "type": "Point", "coordinates": [ 85.1840744, 27.9785677 ] } },
{ "type": "Feature", "properties": { "id": "node/5063398787", "name": "Shri Mahalaxmi Pra.Vi.", "name_en": null, "name_ne": null, "status": "Standing", "amenity": "school", "building": null, "operator_type": "government", "capacity_persons": null, "addr_full": null, "addr_city": null, "source": null, "adm0_pcode": "NPL", "adm0_name": "Nepal", "adm1_pcode": "NP03", "adm1_name": "Bagmati", "adm2_pcode": "NP0328", "adm2_name": "Nuwakot", "adm3_pcode": "NP0328301", "adm3_name": "Bidur", "adm4_pcode": null, "adm4_name": null, "name_latin": "Shri Mahalaxmi Pra.Vi." }, "geometry": { "type": "Point", "coordinates": [ 85.1367303, 27.8863114 ] } },
{ "type": "Feature", "properties": { "id": "node/5055871471", "name": "Shree Mandredhunga Pra V", "name_en": null, "name_ne": null, "status": "Standing", "amenity": "school", "building": null, "operator_type": "government", "capacity_persons": null, "addr_full": null, "addr_city": null, "source": null, "adm0_pcode": "NPL", "adm0_name": "Nepal", "adm1_pcode": "NP03", "adm1_name": "Bagmati", "adm2_pcode": "NP0328", "adm2_name": "Nuwakot", "adm3_pcode": "NP0328301", "adm3_name": "Bidur", "adm4_pcode": null, "adm4_name": null, "name_latin": "Shree Mandredhunga Pra V" }, "geometry": { "type": "Point", "coordinates": [ 85.1298955, 27.8864849 ] } },
{ "type": "Feature", "properties": { "id": "way/854385619", "name": null, "name_en": null, "name_ne": null, "status": "Destroyed", "amenity": null, "building": "school", "operator_type": null, "capacity_persons": null, "addr_full": null, "addr_city": null, "source": null, "adm0_pcode": "NPL", "adm0_name": "Nepal", "adm1_pcode": "NP03", "adm1_name": "Bagmati", "adm2_pcode": "NP0329", "adm2_name": "Rasuwa", "adm3_pcode": "NP0329402", "adm3_name": "Gosaikunda", "adm4_pcode": null, "adm4_name": null, "name_latin": null }, "geometry": { "type": "LineString", "coordinates": [ [ 85.3387325, 28.1642819 ], [ 85.3388143, 28.1643233 ], [ 85.3388328, 28.1642949 ], [ 85.338751, 28.1642535 ], [ 85.3387325, 28.1642819 ] ] } },
{ "type": "Feature", "properties": { "id": "way/1552643524", "name": "Uttargaya Secondary School", "name_en": null, "name_ne": null, "status": "Destroyed", "amenity": null, "building": "school", "operator_type": null, "capacity_persons": null, "addr_full": null, "addr_city": null, "source": null, "adm0_pcode": "NPL", "adm0_name": "Nepal", "adm1_pcode": "NP03", "adm1_name": "Bagmati", "adm2_pcode": "NP0328", "adm2_name": "Nuwakot", "adm3_pcode": "NP0328301", "adm3_name": "Bidur", "adm4_pcode": null, "adm4_name": null, "name_latin": "Uttargaya Secondary School" }, "geometry": { "type": "LineString", "coordinates": [ [ 85.1806787, 27.967697 ], [ 85.1807699, 27.9676805 ], [ 85.1808427, 27.9679946 ], [ 85.1807514, 27.9680111 ], [ 85.1806787, 27.967697 ] ] } },
{ "type": "Feature", "properties": { "id": "way/258871200", "name": "Tribhuwan Trishuli Higher School", "name_en": null, "name_ne": null, "status": "Destroyed", "amenity": "school", "building": null, "operator_type": "government", "capacity_persons": null, "addr_full": null, "addr_city": null, "source": null, "adm0_pcode": "NPL", "adm0_name": "Nepal", "adm1_pcode": "NP03", "adm1_name": "Bagmati", "adm2_pcode": "NP0328", "adm2_name": "Nuwakot", "adm3_pcode": "NP0328301", "adm3_name": "Bidur", "adm4_pcode": null, "adm4_name": null, "name_latin": "Tribhuwan Trishuli Higher School" }, "geometry": { "type": "LineString", "coordinates": [ [ 85.1498557, 27.9240979 ], [ 85.1498074, 27.9238325 ], [ 85.1497672, 27.9235718 ], [ 85.1498442, 27.9235718 ], [ 85.149871, 27.9235295 ], [ 85.1498879, 27.9234012 ], [ 85.1501722, 27.9233822 ], [ 85.1502084, 27.9236372 ], [ 85.1500434, 27.9236524 ], [ 85.1500515, 27.9237472 ], [ 85.150055, 27.9238331 ], [ 85.14999, 27.9239328 ], [ 85.1500005, 27.9240885 ], [ 85.1498557, 27.9240979 ] ] } },
{ "type": "Feature", "properties": { "id": "way/853760522", "name": "Gosaikunda English School", "name_en": null, "name_ne": null, "status": "Destroyed", "amenity": null, "building": "school", "operator_type": null, "capacity_persons": null, "addr_full": null, "addr_city": null, "source": null, "adm0_pcode": "NPL", "adm0_name": "Nepal", "adm1_pcode": "NP03", "adm1_name": "Bagmati", "adm2_pcode": "NP0329", "adm2_name": "Rasuwa", "adm3_pcode": "NP0329402", "adm3_name": "Gosaikunda", "adm4_pcode": null, "adm4_name": null, "name_latin": "Gosaikunda English School" }, "geometry": { "type": "LineString", "coordinates": [ [ 85.3412524, 28.165287 ], [ 85.341361, 28.1653484 ], [ 85.3413965, 28.1652998 ], [ 85.3412879, 28.1652383 ], [ 85.3412524, 28.165287 ] ] } },
{ "type": "Feature", "properties": { "id": "way/639113707", "name": "shree satyawati higher secondary school", "name_en": null, "name_ne": null, "status": "Standing", "amenity": "school", "building": null, "operator_type": null, "capacity_persons": null, "addr_full": null, "addr_city": "Adamtar", "source": null, "adm0_pcode": "NPL", "adm0_name": "Nepal", "adm1_pcode": "NP03", "adm1_name": "Bagmati", "adm2_pcode": "NP0330", "adm2_name": "Dhading", "adm3_pcode": "NP0330407", "adm3_name": "Siddhalek", "adm4_pcode": null, "adm4_name": null, "name_latin": "shree satyawati higher secondary school" }, "geometry": { "type": "Polygon", "coordinates": [ [ [ 84.9400111, 27.8085047 ], [ 84.9401991, 27.8083885 ], [ 84.9403785, 27.808638 ], [ 84.940456, 27.8089469 ], [ 84.9404136, 27.8090045 ], [ 84.9402148, 27.809 ], [ 84.9401306, 27.8089146 ], [ 84.9401007, 27.8088016 ], [ 84.9400111, 27.8085047 ] ] ] } },
{ "type": "Feature", "properties": { "id": "way/590141153", "name": "Shree Aadarsha HS School", "name_en": null, "name_ne": null, "status": "Standing", "amenity": "school", "building": null, "operator_type": null, "capacity_persons": null, "addr_full": null, "addr_city": null, "source": null, "adm0_pcode": "NPL", "adm0_name": "Nepal", "adm1_pcode": "NP03", "adm1_name": "Bagmati", "adm2_pcode": "NP0330", "adm2_name": "Dhading", "adm3_pcode": "NP0330409", "adm3_name": "Gajuri", "adm4_pcode": null, "adm4_name": null, "name_latin": "Shree Aadarsha HS School" }, "geometry": { "type": "Polygon", "coordinates": [ [ [ 84.8788368, 27.8076217 ], [ 84.8788771, 27.8072493 ], [ 84.8789817, 27.8070524 ], [ 84.8791507, 27.8069148 ], [ 84.8793411, 27.806865 ], [ 84.879443, 27.8069361 ], [ 84.879494, 27.8070381 ], [ 84.879547, 27.8071212 ], [ 84.8795751, 27.8071793 ], [ 84.8796174, 27.8072487 ], [ 84.8796737, 27.8073347 ], [ 84.8798065, 27.8073442 ], [ 84.8798655, 27.8073679 ], [ 84.8799258, 27.8074332 ], [ 84.8800305, 27.8076657 ], [ 84.8800948, 27.8077333 ], [ 84.8799259, 27.8079302 ], [ 84.8797488, 27.8079871 ], [ 84.8795879, 27.8080631 ], [ 84.8793948, 27.8081461 ], [ 84.8792178, 27.8081413 ], [ 84.8789683, 27.8079824 ], [ 84.8788717, 27.8079278 ], [ 84.8788368, 27.8076217 ] ] ] } },
{ "type": "Feature", "properties": { "id": "way/512730541", "name": "Tribhuwan Trisuli Multiple Campus", "name_en": null, "name_ne": null, "status": "Standing", "amenity": "college", "building": null, "operator_type": "government", "capacity_persons": null, "addr_full": null, "addr_city": null, "source": null, "adm0_pcode": "NPL", "adm0_name": "Nepal", "adm1_pcode": "NP03", "adm1_name": "Bagmati", "adm2_pcode": "NP0328", "adm2_name": "Nuwakot", "adm3_pcode": "NP0328301", "adm3_name": "Bidur", "adm4_pcode": null, "adm4_name": null, "name_latin": "Tribhuwan Trisuli Multiple Campus" }, "geometry": { "type": "Polygon", "coordinates": [ [ [ 85.1490721, 27.9250829 ], [ 85.1496555, 27.9250296 ], [ 85.1497172, 27.9257512 ], [ 85.1492411, 27.9258224 ], [ 85.1490721, 27.9250829 ] ] ] } },
{ "type": "Feature", "properties": { "id": "way/341439784", "name": "Shri Rana Bhuwaneswari Uccha Madhyamik Prabidhik Bidyalaya", "name_en": null, "name_ne": null, "status": "Standing", "amenity": "school", "building": null, "operator_type": "government", "capacity_persons": null, "addr_full": null, "addr_city": null, "source": null, "adm0_pcode": "NPL", "adm0_name": "Nepal", "adm1_pcode": "NP03", "adm1_name": "Bagmati", "adm2_pcode": "NP0328", "adm2_name": "Nuwakot", "adm3_pcode": "NP0328301", "adm3_name": "Bidur", "adm4_pcode": null, "adm4_name": null, "name_latin": "Shri Rana Bhuwaneswari Uccha Madhyamik Prabidhik Bidyalaya" }, "geometry": { "type": "Polygon", "coordinates": [ [ [ 85.1072833, 27.862083 ], [ 85.107483, 27.8617798 ], [ 85.1078026, 27.8620152 ], [ 85.1079577, 27.862125 ], [ 85.108029, 27.8622214 ], [ 85.1080548, 27.8623303 ], [ 85.1081844, 27.8625657 ], [ 85.1080817, 27.8626314 ], [ 85.1081664, 27.8627527 ], [ 85.1080959, 27.8628078 ], [ 85.1076683, 27.8625797 ], [ 85.1074284, 27.8624709 ], [ 85.1075373, 27.8622757 ], [ 85.1072833, 27.862083 ] ] ] } },
{ "type": "Feature", "properties": { "id": "relation/21288273", "name": "Trishuli Medical Institute", "name_en": null, "name_ne": null, "status": "Standing", "amenity": null, "building": "school", "operator_type": null, "capacity_persons": null, "addr_full": null, "addr_city": "Nuwakot", "source": null, "adm0_pcode": "NPL", "adm0_name": "Nepal", "adm1_pcode": "NP03", "adm1_name": "Bagmati", "adm2_pcode": "NP0328", "adm2_name": "Nuwakot", "adm3_pcode": "NP0328301", "adm3_name": "Bidur", "adm4_pcode": null, "adm4_name": null, "name_latin": "Trishuli Medical Institute" }, "geometry": { "type": "Polygon", "coordinates": [ [ [ 85.1399948, 27.9127012 ], [ 85.1403171, 27.9122052 ], [ 85.1404752, 27.9123079 ], [ 85.1401528, 27.9128039 ], [ 85.1399948, 27.9127012 ] ], [ [ 85.1400855, 27.9126731 ], [ 85.1401423, 27.91271 ], [ 85.1403826, 27.9123399 ], [ 85.1403258, 27.9123031 ], [ 85.1400855, 27.9126731 ] ] ] } },
{ "type": "Feature", "properties": { "id": "way/503534896", "name": "Shree Barahi Pra Vi", "name_en": null, "name_ne": null, "status": "Standing", "amenity": "school", "building": null, "operator_type": "government", "capacity_persons": null, "addr_full": null, "addr_city": null, "source": null, "adm0_pcode": "NPL", "adm0_name": "Nepal", "adm1_pcode": "NP03", "adm1_name": "Bagmati", "adm2_pcode": "NP0330", "adm2_name": "Dhading", "adm3_pcode": "NP0330410", "adm3_name": "Galchhi", "adm4_pcode": null, "adm4_name": null, "name_latin": "Shree Barahi Pra Vi" }, "geometry": { "type": "Polygon", "coordinates": [ [ [ 85.0034661, 27.805423 ], [ 85.0035264, 27.8053071 ], [ 85.0035916, 27.8052709 ], [ 85.0037561, 27.805321 ], [ 85.0038097, 27.805356 ], [ 85.0038808, 27.8053898 ], [ 85.0039713, 27.805458 ], [ 85.0039184, 27.8055417 ], [ 85.0037521, 27.8056888 ], [ 85.0036615, 27.8056312 ], [ 85.0036287, 27.8055933 ], [ 85.0035831, 27.8055239 ], [ 85.0034661, 27.805423 ] ] ] } },
{ "type": "Feature", "properties": { "id": "way/474658300", "name": null, "name_en": null, "name_ne": null, "status": "Standing", "amenity": null, "building": "school", "operator_type": null, "capacity_persons": null, "addr_full": null, "addr_city": null, "source": null, "adm0_pcode": "NPL", "adm0_name": "Nepal", "adm1_pcode": "NP03", "adm1_name": "Bagmati", "adm2_pcode": "NP0329", "adm2_name": "Rasuwa", "adm3_pcode": "NP0329402", "adm3_name": "Gosaikunda", "adm4_pcode": null, "adm4_name": null, "name_latin": null }, "geometry": { "type": "Polygon", "coordinates": [ [ [ 85.33901, 28.1650064 ], [ 85.3390366, 28.1649072 ], [ 85.3394471, 28.1649925 ], [ 85.3394205, 28.1650917 ], [ 85.33901, 28.1650064 ] ] ] } },
{ "type": "Feature", "properties": { "id": "way/342139897", "name": "Samudayik Bidhya Mandir", "name_en": null, "name_ne": null, "status": "Standing", "amenity": null, "building": "school", "operator_type": null, "capacity_persons": null, "addr_full": null, "addr_city": null, "source": null, "adm0_pcode": "NPL", "adm0_name": "Nepal", "adm1_pcode": "NP03", "adm1_name": "Bagmati", "adm2_pcode": "NP0328", "adm2_name": "Nuwakot", "adm3_pcode": "NP0328301", "adm3_name": "Bidur", "adm4_pcode": null, "adm4_name": null, "name_latin": "Samudayik Bidhya Mandir" }, "geometry": { "type": "Polygon", "coordinates": [ [ [ 85.1076575, 27.8646243 ], [ 85.1076682, 27.864563 ], [ 85.1077519, 27.8645745 ], [ 85.1077411, 27.8646358 ], [ 85.1076575, 27.8646243 ] ] ] } },
{ "type": "Feature", "properties": { "id": "way/1553896687", "name": null, "name_en": null, "name_ne": null, "status": "Standing", "amenity": null, "building": "school", "operator_type": null, "capacity_persons": null, "addr_full": null, "addr_city": null, "source": null, "adm0_pcode": "NPL", "adm0_name": "Nepal", "adm1_pcode": "NP03", "adm1_name": "Bagmati", "adm2_pcode": "NP0328", "adm2_name": "Nuwakot", "adm3_pcode": "NP0328301", "adm3_name": "Bidur", "adm4_pcode": null, "adm4_name": null, "name_latin": null }, "geometry": { "type": "Polygon", "coordinates": [ [ [ 85.1392487, 27.8961611 ], [ 85.1392718, 27.8959096 ], [ 85.139376, 27.8959171 ], [ 85.1393529, 27.8961686 ], [ 85.1392487, 27.8961611 ] ] ] } },
{ "type": "Feature", "properties": { "id": "way/594084567", "name": "Shree Bhadrakali Gurukul Saskriti Bidhyalaya", "name_en": null, "name_ne": null, "status": "Standing", "amenity": "school", "building": null, "operator_type": "government", "capacity_persons": null, "addr_full": null, "addr_city": null, "source": null, "adm0_pcode": "NPL", "adm0_name": "Nepal", "adm1_pcode": "NP03", "adm1_name": "Bagmati", "adm2_pcode": "NP0330", "adm2_name": "Dhading", "adm3_pcode": "NP0330407", "adm3_name": "Siddhalek", "adm4_pcode": null, "adm4_name": null, "name_latin": "Shree Bhadrakali Gurukul Saskriti Bidhyalaya" }, "geometry": { "type": "Polygon", "coordinates": [ [ [ 84.8355125, 27.8068934 ], [ 84.8355634, 27.8068365 ], [ 84.8356144, 27.8068792 ], [ 84.8356687, 27.8068733 ], [ 84.8358031, 27.8069359 ], [ 84.8358578, 27.8069017 ], [ 84.835943, 27.8068655 ], [ 84.8360661, 27.8067468 ], [ 84.8362119, 27.8067101 ], [ 84.8362599, 27.8067206 ], [ 84.83627, 27.8070852 ], [ 84.8362043, 27.8072279 ], [ 84.83602, 27.8073985 ], [ 84.835958, 27.8073443 ], [ 84.8355624, 27.806948 ], [ 84.8355125, 27.8068934 ] ] ] } },
{ "type": "Feature", "properties": { "id": "way/1553896686", "name": null, "name_en": null, "name_ne": null, "status": "Standing", "amenity": null, "building": "school", "operator_type": null, "capacity_persons": null, "addr_full": null, "addr_city": null, "source": null, "adm0_pcode": "NPL", "adm0_name": "Nepal", "adm1_pcode": "NP03", "adm1_name": "Bagmati", "adm2_pcode": "NP0328", "adm2_name": "Nuwakot", "adm3_pcode": "NP0328301", "adm3_name": "Bidur", "adm4_pcode": null, "adm4_name": null, "name_latin": null }, "geometry": { "type": "Polygon", "coordinates": [ [ [ 85.1390435, 27.8955046 ], [ 85.1390518, 27.8954324 ], [ 85.1394509, 27.8954683 ], [ 85.1394426, 27.8955405 ], [ 85.1390435, 27.8955046 ] ] ] } },
{ "type": "Feature", "properties": { "id": "way/341442325", "name": "Shri Chhetrapal Lower Secondary School", "name_en": null, "name_ne": null, "status": "Standing", "amenity": "school", "building": null, "operator_type": "government", "capacity_persons": null, "addr_full": null, "addr_city": null, "source": null, "adm0_pcode": "NPL", "adm0_name": "Nepal", "adm1_pcode": "NP03", "adm1_name": "Bagmati", "adm2_pcode": "NP0328", "adm2_name": "Nuwakot", "adm3_pcode": "NP0328301", "adm3_name": "Bidur", "adm4_pcode": null, "adm4_name": null, "name_latin": "Shri Chhetrapal Lower Secondary School" }, "geometry": { "type": "Polygon", "coordinates": [ [ [ 85.0946623, 27.8633931 ], [ 85.0947417, 27.8632012 ], [ 85.094882, 27.8631268 ], [ 85.0951061, 27.8630812 ], [ 85.0953113, 27.8631229 ], [ 85.0953425, 27.8632085 ], [ 85.0954802, 27.863367 ], [ 85.095459, 27.8634146 ], [ 85.0952027, 27.8635468 ], [ 85.0949205, 27.8635491 ], [ 85.0946865, 27.8635079 ], [ 85.0946623, 27.8633931 ] ] ] } },
{ "type": "Feature", "properties": { "id": "way/503947539", "name": "Shree Bageshwori Pra V", "name_en": null, "name_ne": null, "status": "Standing", "amenity": "school", "building": null, "operator_type": "government", "capacity_persons": null, "addr_full": null, "addr_city": null, "source": null, "adm0_pcode": "NPL", "adm0_name": "Nepal", "adm1_pcode": "NP03", "adm1_name": "Bagmati", "adm2_pcode": "NP0330", "adm2_name": "Dhading", "adm3_pcode": "NP0330407", "adm3_name": "Siddhalek", "adm4_pcode": null, "adm4_name": null, "name_latin": "Shree Bageshwori Pra V" }, "geometry": { "type": "Polygon", "coordinates": [ [ [ 84.8669042, 27.8004666 ], [ 84.8669187, 27.8003844 ], [ 84.8669963, 27.8003357 ], [ 84.8670181, 27.8002901 ], [ 84.8670984, 27.8002795 ], [ 84.8672786, 27.8002868 ], [ 84.8674052, 27.8003087 ], [ 84.8674954, 27.8003153 ], [ 84.8674677, 27.8003725 ], [ 84.8674167, 27.8005136 ], [ 84.8672806, 27.8005551 ], [ 84.8671371, 27.8005563 ], [ 84.8670379, 27.8005373 ], [ 84.8669042, 27.8004666 ] ] ] } },
{ "type": "Feature", "properties": { "id": "way/341125947", "name": "Marsyangdi Shikshya Sadan English Boarding School", "name_en": null, "name_ne": null, "status": "Standing", "amenity": "school", "building": null, "operator_type": null, "capacity_persons": null, "addr_full": null, "addr_city": "Mugling", "source": null, "adm0_pcode": "NPL", "adm0_name": "Nepal", "adm1_pcode": "NP03", "adm1_name": "Bagmati", "adm2_pcode": "NP0335", "adm2_name": "Chitawan", "adm3_pcode": "NP0335401", "adm3_name": "Ichchha Kamana", "adm4_pcode": null, "adm4_name": null, "name_latin": "Marsyangdi Shikshya Sadan English Boarding School" }, "geometry": { "type": "Polygon", "coordinates": [ [ [ 84.5593052, 27.856473 ], [ 84.5593705, 27.8564424 ], [ 84.5594659, 27.8566017 ], [ 84.5594007, 27.8566322 ], [ 84.5593052, 27.856473 ] ] ] } },
{ "type": "Feature", "properties": { "id": "way/414462859", "name": "shree jd boarding school", "name_en": null, "name_ne": null, "status": "Standing", "amenity": "school", "building": null, "operator_type": null, "capacity_persons": null, "addr_full": null, "addr_city": null, "source": null, "adm0_pcode": "NPL", "adm0_name": "Nepal", "adm1_pcode": "NP03", "adm1_name": "Bagmati", "adm2_pcode": "NP0328", "adm2_name": "Nuwakot", "adm3_pcode": "NP0328301", "adm3_name": "Bidur", "adm4_pcode": null, "adm4_name": null, "name_latin": "shree jd boarding school" }, "geometry": { "type": "Polygon", "coordinates": [ [ [ 85.1386272, 27.8965089 ], [ 85.1388389, 27.8951875 ], [ 85.1392695, 27.8949468 ], [ 85.1394914, 27.8948973 ], [ 85.1396686, 27.8950768 ], [ 85.1396506, 27.8952182 ], [ 85.1396297, 27.8953823 ], [ 85.1394655, 27.8960697 ], [ 85.1393834, 27.8962263 ], [ 85.1393791, 27.8964707 ], [ 85.1386272, 27.8965089 ] ] ] } },
{ "type": "Feature", "properties": { "id": "way/278201422", "name": "Shri Sahid J P Jang Shah Sanskrit Ma V", "name_en": null, "name_ne": null, "status": "Standing", "amenity": "school", "building": null, "operator_type": "government", "capacity_persons": null, "addr_full": null, "addr_city": "nuwakot", "source": null, "adm0_pcode": "NPL", "adm0_name": "Nepal", "adm1_pcode": "NP03", "adm1_name": "Bagmati", "adm2_pcode": "NP0328", "adm2_name": "Nuwakot", "adm3_pcode": "NP0328301", "adm3_name": "Bidur", "adm4_pcode": null, "adm4_name": null, "name_latin": "Shri Sahid J P Jang Shah Sanskrit Ma V" }, "geometry": { "type": "Polygon", "coordinates": [ [ [ 85.112707, 27.8635251 ], [ 85.1132931, 27.8630586 ], [ 85.1139999, 27.863662 ], [ 85.1133481, 27.8641362 ], [ 85.112707, 27.8635251 ] ] ] } },
{ "type": "Feature", "properties": { "id": "way/341440354", "name": "Samudayik Bidhya Mandir", "name_en": null, "name_ne": null, "status": "Standing", "amenity": null, "building": "school", "operator_type": null, "capacity_persons": null, "addr_full": null, "addr_city": null, "source": null, "adm0_pcode": "NPL", "adm0_name": "Nepal", "adm1_pcode": "NP03", "adm1_name": "Bagmati", "adm2_pcode": "NP0328", "adm2_name": "Nuwakot", "adm3_pcode": "NP0328301", "adm3_name": "Bidur", "adm4_pcode": null, "adm4_name": null, "name_latin": "Samudayik Bidhya Mandir" }, "geometry": { "type": "Polygon", "coordinates": [ [ [ 85.1078663, 27.864461 ], [ 85.1078855, 27.8643951 ], [ 85.1080704, 27.8644374 ], [ 85.1080511, 27.8645033 ], [ 85.1078663, 27.864461 ] ] ] } },
{ "type": "Feature", "properties": { "id": "way/503155978", "name": "Shree Mahakali Ma V", "name_en": null, "name_ne": null, "status": "Standing", "amenity": "school", "building": null, "operator_type": "government", "capacity_persons": null, "addr_full": null, "addr_city": null, "source": null, "adm0_pcode": "NPL", "adm0_name": "Nepal", "adm1_pcode": "NP03", "adm1_name": "Bagmati", "adm2_pcode": "NP0330", "adm2_name": "Dhading", "adm3_pcode": "NP0330407", "adm3_name": "Siddhalek", "adm4_pcode": null, "adm4_name": null, "name_latin": "Shree Mahakali Ma V" }, "geometry": { "type": "Polygon", "coordinates": [ [ [ 84.9109872, 27.8074415 ], [ 84.9109979, 27.8071355 ], [ 84.9111333, 27.8070911 ], [ 84.9113259, 27.8070629 ], [ 84.9113354, 27.8070739 ], [ 84.9117114, 27.8071591 ], [ 84.9117718, 27.8073489 ], [ 84.9116752, 27.8074818 ], [ 84.9115773, 27.8076585 ], [ 84.91147, 27.8077167 ], [ 84.9112286, 27.8078329 ], [ 84.9111481, 27.8077855 ], [ 84.9110543, 27.8076064 ], [ 84.9109872, 27.8074415 ] ] ] } },
{ "type": "Feature", "properties": { "id": "way/911153231", "name": null, "name_en": null, "name_ne": null, "status": "Standing", "amenity": null, "building": "school", "operator_type": null, "capacity_persons": null, "addr_full": null, "addr_city": null, "source": null, "adm0_pcode": "NPL", "adm0_name": "Nepal", "adm1_pcode": "NP03", "adm1_name": "Bagmati", "adm2_pcode": "NP0330", "adm2_name": "Dhading", "adm3_pcode": "NP0330407", "adm3_name": "Siddhalek", "adm4_pcode": null, "adm4_name": null, "name_latin": null }, "geometry": { "type": "Polygon", "coordinates": [ [ [ 84.9110126, 27.8071424 ], [ 84.9111232, 27.8071247 ], [ 84.9111398, 27.8072052 ], [ 84.9110292, 27.8072229 ], [ 84.9110126, 27.8071424 ] ] ] } },
{ "type": "Feature", "properties": { "id": "way/911153232", "name": null, "name_en": null, "name_ne": null, "status": "Standing", "amenity": null, "building": "school", "operator_type": null, "capacity_persons": null, "addr_full": null, "addr_city": null, "source": null, "adm0_pcode": "NPL", "adm0_name": "Nepal", "adm1_pcode": "NP03", "adm1_name": "Bagmati", "adm2_pcode": "NP0330", "adm2_name": "Dhading", "adm3_pcode": "NP0330407", "adm3_name": "Siddhalek", "adm4_pcode": null, "adm4_name": null, "name_latin": null }, "geometry": { "type": "Polygon", "coordinates": [ [ [ 84.9111956, 27.8071022 ], [ 84.9113354, 27.8070739 ], [ 84.9113582, 27.8071623 ], [ 84.9112184, 27.8071906 ], [ 84.9111956, 27.8071022 ] ] ] } },
{ "type": "Feature", "properties": { "id": "way/448813338", "name": "Shree Rakta Bachchhala Ni Ma Vi", "name_en": null, "name_ne": null, "status": "Standing", "amenity": "school", "building": null, "operator_type": "government", "capacity_persons": null, "addr_full": null, "addr_city": null, "source": null, "adm0_pcode": "NPL", "adm0_name": "Nepal", "adm1_pcode": "NP03", "adm1_name": "Bagmati", "adm2_pcode": "NP0330", "adm2_name": "Dhading", "adm3_pcode": "NP0330410", "adm3_name": "Galchhi", "adm4_pcode": null, "adm4_name": null, "name_latin": "Shree Rakta Bachchhala Ni Ma Vi" }, "geometry": { "type": "Polygon", "coordinates": [ [ [ 84.9669424, 27.812898 ], [ 84.9675296, 27.8127472 ], [ 84.9676973, 27.8131502 ], [ 84.967085, 27.8131738 ], [ 84.9669424, 27.812898 ] ] ] } },
{ "type": "Feature", "properties": { "id": "way/497989248", "name": "Madrassa Islamiyafaijul Ulum", "name_en": null, "name_ne": null, "status": "Standing", "amenity": "school", "building": null, "operator_type": "government", "capacity_persons": null, "addr_full": null, "addr_city": null, "source": null, "adm0_pcode": "NPL", "adm0_name": "Nepal", "adm1_pcode": "NP03", "adm1_name": "Bagmati", "adm2_pcode": "NP0330", "adm2_name": "Dhading", "adm3_pcode": "NP0330408", "adm3_name": "Benighat Rorang", "adm4_pcode": null, "adm4_name": null, "name_latin": "Madrassa Islamiyafaijul Ulum" }, "geometry": { "type": "Polygon", "coordinates": [ [ [ 84.7744819, 27.8095883 ], [ 84.7746055, 27.8095411 ], [ 84.7747109, 27.8095517 ], [ 84.7748785, 27.8096045 ], [ 84.7750199, 27.8096656 ], [ 84.7749824, 27.8097641 ], [ 84.7749408, 27.8099953 ], [ 84.7745273, 27.8098674 ], [ 84.7744819, 27.8095883 ] ] ] } },
{ "type": "Feature", "properties": { "id": "way/341049859", "name": "Shree Chandeswori Uchha Ma.Vi.", "name_en": null, "name_ne": null, "status": "Standing", "amenity": "school", "building": null, "operator_type": "government", "capacity_persons": null, "addr_full": null, "addr_city": null, "source": null, "adm0_pcode": "NPL", "adm0_name": "Nepal", "adm1_pcode": "NP03", "adm1_name": "Bagmati", "adm2_pcode": "NP0328", "adm2_name": "Nuwakot", "adm3_pcode": "NP0328301", "adm3_name": "Bidur", "adm4_pcode": null, "adm4_name": null, "name_latin": "Shree Chandeswori Uchha Ma.Vi." }, "geometry": { "type": "Polygon", "coordinates": [ [ [ 85.1682113, 27.9644586 ], [ 85.1683414, 27.964168 ], [ 85.1684847, 27.9640683 ], [ 85.1692523, 27.9642708 ], [ 85.1689084, 27.964898 ], [ 85.1684563, 27.964662 ], [ 85.1682113, 27.9644586 ] ] ] } },
{ "type": "Feature", "properties": { "id": "way/516998502", "name": "Shree Ramchandra Ni Ma Vi", "name_en": null, "name_ne": null, "status": "Standing", "amenity": "school", "building": null, "operator_type": "government", "capacity_persons": null, "addr_full": null, "addr_city": null, "source": null, "adm0_pcode": "NPL", "adm0_name": "Nepal", "adm1_pcode": "NP03", "adm1_name": "Bagmati", "adm2_pcode": "NP0328", "adm2_name": "Nuwakot", "adm3_pcode": "NP0328301", "adm3_name": "Bidur", "adm4_pcode": null, "adm4_name": null, "name_latin": "Shree Ramchandra Ni Ma Vi" }, "geometry": { "type": "Polygon", "coordinates": [ [ [ 85.1843371, 27.9708074 ], [ 85.1843512, 27.9707293 ], [ 85.1844612, 27.9707411 ], [ 85.1846295, 27.9706795 ], [ 85.1848481, 27.9711095 ], [ 85.1847998, 27.9711427 ], [ 85.1847153, 27.9710337 ], [ 85.1845691, 27.9711035 ], [ 85.1843371, 27.9708074 ] ] ] } }
]
}
