{
"type": "FeatureCollection",
"name": "education_facilities",
"crs": { "type": "name", "properties": { "name": "urn:ogc:def:crs:OGC:1.3:CRS84" } },
"features": [
{ "type": "Feature", "properties": { "id": "71410af7-420b-4af0-adbe-85ab07ad1f5a", "name": "Bright Future English Boarding School", "name_en": null, "category": "school", "address": "Malekhu,", "phone": null, "website": null, "confidence": 0.8641020655632019, "source": "meta", "adm0_pcode": "NPL", "adm0_name": "Nepal", "adm1_pcode": "NP03", "adm1_name": "Bagmati", "adm2_pcode": "NP0330", "adm2_name": "Dhading", "adm3_pcode": "NP0330407", "adm3_name": "Siddhalek", "adm4_pcode": null, "adm4_name": null, "name_latin": "Bright Future English Boarding School" }, "geometry": { "type": "Point", "coordinates": [ 84.8343277, 27.8090096 ] } },
{ "type": "Feature", "properties": { "id": "47f9c06c-f2d1-4358-b1b7-383c17e1d89d", "name": "Bageshworee Secondary School", "name_en": null, "category": "high_school", "address": "Richoktar, Benighat Rorang-3", "phone": null, "website": null, "confidence": 0.97629857063293457, "source": "meta", "adm0_pcode": "NPL", "adm0_name": "Nepal", "adm1_pcode": "NP03", "adm1_name": "Bagmati", "adm2_pcode": "NP0330", "adm2_name": "Dhading", "adm3_pcode": "NP0330407", "adm3_name": "Siddhalek", "adm4_pcode": null, "adm4_name": null, "name_latin": "Bageshworee Secondary School" }, "geometry": { "type": "Point", "coordinates": [ 84.833522333350885, 27.810451740009398 ] } },
{ "type": "Feature", "properties": { "id": "36812e0c-2f2f-43c2-ae14-a92be33dd4d7", "name": "चन्द्रोदय शैक्षिक सहायता कोष", "name_en": null, "category": "college_university", "address": "Benighat, Dhading", "phone": "+9779808699487", "website": "http://www.cdmcedu.wordpress.com/", "confidence": 0.89083409309387207, "source": "meta", "adm0_pcode": "NPL", "adm0_name": "Nepal", "adm1_pcode": "NP04", "adm1_name": "Gandaki", "adm2_pcode": "NP0436", "adm2_name": "Gorkha", "adm3_pcode": "NP0436409", "adm3_name": "Gandaki", "adm4_pcode": null, "adm4_name": null, "name_latin": "cndrody shaikssik shaaytaa koss" }, "geometry": { "type": "Point", "coordinates": [ 84.759843349457, 27.813742556074999 ] } },
{ "type": "Feature", "properties": { "id": "1a82856d-3fa9-407e-9055-47bf4809035d", "name": "HIMA AUS Education Consultancy - Dhading", "name_en": null, "category": "educational_services", "address": "Shantabazar Dhading Besi & Benighat Prithivi Highway", "phone": "+9779810203435", "website": "https://himaaus.com/", "confidence": 0.87187379598617554, "source": "meta", "adm0_pcode": "NPL", "adm0_name": "Nepal", "adm1_pcode": "NP03", "adm1_name": "Bagmati", "adm2_pcode": "NP0330", "adm2_name": "Dhading", "adm3_pcode": "NP0330408", "adm3_name": "Benighat Rorang", "adm4_pcode": null, "adm4_name": null, "name_latin": "HIMA AUS Education Consultancy - Dhading" }, "geometry": { "type": "Point", "coordinates": [ 84.780838012695, 27.811296472291001 ] } },
{ "type": "Feature", "properties": { "id": "8403ba43-8baa-41b6-b28b-6768acea8fd1", "name": "Beni Shiksha Sadan Basic School Benighat Rorang-5, Dhading", "name_en": null, "category": "school", "address": "Benighat", "phone": "+9779841032042", "website": null, "confidence": 0.9146190881729126, "source": "meta", "adm0_pcode": "NPL", "adm0_name": "Nepal", "adm1_pcode": "NP03", "adm1_name": "Bagmati", "adm2_pcode": "NP0330", "adm2_name": "Dhading", "adm3_pcode": "NP0330408", "adm3_name": "Benighat Rorang", "adm4_pcode": null, "adm4_name": null, "name_latin": "Beni Shiksha Sadan Basic School Benighat Rorang-5, Dhading" }, "geometry": { "type": "Point", "coordinates": [ 84.78127131091604, 27.811576366748834 ] } },
{ "type": "Feature", "properties": { "id": "b3a4d344-c09f-47a1-93f6-7967faa68e8e", "name": "शिलादेबी मा.बि -प्राबिधिक शिक्षा", "name_en": null, "category": "high_school", "address": "Belkotgadhi-7, Ratmate ", "phone": null, "website": null, "confidence": 0.82412856817245483, "source": "meta", "adm0_pcode": "NPL", "adm0_name": "Nepal", "adm1_pcode": "NP03", "adm1_name": "Bagmati", "adm2_pcode": "NP0328", "adm2_name": "Nuwakot", "adm3_pcode": "NP0328302", "adm3_name": "Belkotgadhi", "adm4_pcode": null, "adm4_name": null, "name_latin": "shilaadebii maa.bi -praabidhik shikssaa" }, "geometry": { "type": "Point", "coordinates": [ 85.032776, 27.849070572612 ] } },
{ "type": "Feature", "properties": { "id": "ef947f87-3205-4be7-b994-7817868039a5", "name": "Kolputar,nuwakot", "name_en": null, "category": "school", "address": "Kolputar", "phone": null, "website": null, "confidence": 0.82620996236801147, "source": "meta", "adm0_pcode": "NPL", "adm0_name": "Nepal", "adm1_pcode": "NP03", "adm1_name": "Bagmati", "adm2_pcode": "NP0328", "adm2_name": "Nuwakot", "adm3_pcode": "NP0328302", "adm3_name": "Belkotgadhi", "adm4_pcode": null, "adm4_name": null, "name_latin": "Kolputar,nuwakot" }, "geometry": { "type": "Point", "coordinates": [ 85.014291946604288, 27.813282408289169 ] } },
{ "type": "Feature", "properties": { "id": "b9a42dd5-dd79-41a0-8152-5ef9ec05fa73", "name": "श्री महादेव मा.वि. कोल्पुटार,नुवाकोट", "name_en": null, "category": "education", "address": "Belkotgadhi-5,Kolputar,Nuwakot", "phone": "+9779860082460", "website": null, "confidence": 0.94995200634002686, "source": "meta", "adm0_pcode": "NPL", "adm0_name": "Nepal", "adm1_pcode": "NP03", "adm1_name": "Bagmati", "adm2_pcode": "NP0328", "adm2_name": "Nuwakot", "adm3_pcode": "NP0328302", "adm3_name": "Belkotgadhi", "adm4_pcode": null, "adm4_name": null, "name_latin": "shrii mhaadev maa.vi. kolputtaar,nuvaakott" }, "geometry": { "type": "Point", "coordinates": [ 85.014324208292436, 27.811840890043005 ] } },
{ "type": "Feature", "properties": { "id": "fa56064e-8acc-457f-8e30-4a3589c5c23e", "name": "Atniranjana Higher Secondary School", "name_en": null, "category": "high_school", "address": "Belkot Gadi municipality", "phone": null, "website": null, "confidence": 0.82453340291976929, "source": "meta", "adm0_pcode": "NPL", "adm0_name": "Nepal", "adm1_pcode": "NP03", "adm1_name": "Bagmati", "adm2_pcode": "NP0328", "adm2_name": "Nuwakot", "adm3_pcode": "NP0328301", "adm3_name": "Bidur", "adm4_pcode": null, "adm4_name": null, "name_latin": "Atniranjana Higher Secondary School" }, "geometry": { "type": "Point", "coordinates": [ 85.1085809, 27.8595827 ] } },
{ "type": "Feature", "properties": { "id": "82f94f09-5bad-401f-9597-a998f951b4c2", "name": "Dram 0128 Qk11", "name_en": null, "category": "school", "address": "Bidur 7, Devighat", "phone": "+442076368636", "website": "http://www.satyamacademy.org/", "confidence": 0.6420058012008667, "source": "meta", "adm0_pcode": "NPL", "adm0_name": "Nepal", "adm1_pcode": "NP03", "adm1_name": "Bagmati", "adm2_pcode": "NP0328", "adm2_name": "Nuwakot", "adm3_pcode": "NP0328301", "adm3_name": "Bidur", "adm4_pcode": null, "adm4_name": null, "name_latin": "Dram 0128 Qk11" }, "geometry": { "type": "Point", "coordinates": [ 85.11219, 27.86121 ] } },
{ "type": "Feature", "properties": { "id": "8bccedc7-9572-41aa-b99d-9df44be5a36f", "name": "Trishuli Samudayik Boarding School", "name_en": null, "category": "preschool", "address": "Nuwakot District", "phone": "+97710560975", "website": "http://gmail.com/", "confidence": 0.84574747085571289, "source": "meta", "adm0_pcode": "NPL", "adm0_name": "Nepal", "adm1_pcode": "NP03", "adm1_name": "Bagmati", "adm2_pcode": "NP0328", "adm2_name": "Nuwakot", "adm3_pcode": "NP0328301", "adm3_name": "Bidur", "adm4_pcode": null, "adm4_name": null, "name_latin": "Trishuli Samudayik Boarding School" }, "geometry": { "type": "Point", "coordinates": [ 85.149330454600687, 27.922362793663112 ] } },
{ "type": "Feature", "properties": { "id": "84a572a9-8cec-44d4-877d-7c2cbc60fcfa", "name": "Om Mane Public School,nuwakot", "name_en": null, "category": "school", "address": null, "phone": null, "website": null, "confidence": 0.75949031114578247, "source": "meta", "adm0_pcode": "NPL", "adm0_name": "Nepal", "adm1_pcode": "NP03", "adm1_name": "Bagmati", "adm2_pcode": "NP0328", "adm2_name": "Nuwakot", "adm3_pcode": "NP0328301", "adm3_name": "Bidur", "adm4_pcode": null, "adm4_name": null, "name_latin": "Om Mane Public School,nuwakot" }, "geometry": { "type": "Point", "coordinates": [ 85.158749284616391, 27.935093346154218 ] } },
{ "type": "Feature", "properties": { "id": "bb2734d2-89aa-42b0-8d46-72518c20c715", "name": "Shree Sulakshana Secondary School", "name_en": null, "category": "college_university", "address": "Aangaputar, Bidur Municipality-9, Nuwakot, Nepal.", "phone": "+9779841518259", "website": "http://www.sulakshana.edu.np/", "confidence": 0.96266824007034302, "source": "meta", "adm0_pcode": "NPL", "adm0_name": "Nepal", "adm1_pcode": "NP03", "adm1_name": "Bagmati", "adm2_pcode": "NP0328", "adm2_name": "Nuwakot", "adm3_pcode": "NP0328301", "adm3_name": "Bidur", "adm4_pcode": null, "adm4_name": null, "name_latin": "Shree Sulakshana Secondary School" }, "geometry": { "type": "Point", "coordinates": [ 85.159446716309006, 27.948055267333999 ] } }
]
}
