{
"type": "FeatureCollection",
"name": "financial_services",
"crs": { "type": "name", "properties": { "name": "urn:ogc:def:crs:OGC:1.3:CRS84" } },
"features": [
{ "type": "Feature", "properties": { "id": "node/9802458041", "name": "Mega BANK Bidur Branch", "name_en": null, "name_ne": null, "status": "Standing", "amenity": "bank", "operator": null, "network": null, "addr_full": null, "addr_city": null, "source": null, "adm0_pcode": "NPL", "adm0_name": "Nepal", "adm1_pcode": "NP03", "adm1_name": "Bagmati", "adm2_pcode": "NP0328", "adm2_name": "Nuwakot", "adm3_pcode": "NP0328301", "adm3_name": "Bidur", "adm4_pcode": null, "adm4_name": null, "name_latin": "Mega BANK Bidur Branch" }, "geometry": { "type": "Point", "coordinates": [ 85.1416839, 27.9051551 ] } },
{ "type": "Feature", "properties": { "id": "node/9802458065", "name": "Mirmire BANK Kalyanpur Branch", "name_en": null, "name_ne": null, "status": "Destroyed", "amenity": "bank", "operator": null, "network": null, "addr_full": null, "addr_city": null, "source": null, "adm0_pcode": "NPL", "adm0_name": "Nepal", "adm1_pcode": "NP03", "adm1_name": "Bagmati", "adm2_pcode": "NP0328", "adm2_name": "Nuwakot", "adm3_pcode": "NP0328301", "adm3_name": "Bidur", "adm4_pcode": null, "adm4_name": null, "name_latin": "Mirmire BANK Kalyanpur Branch" }, "geometry": { "type": "Point", "coordinates": [ 85.1108014, 27.8607801 ] } },
{ "type": "Feature", "properties": { "id": "node/6045745885", "name": "Rastriya Banijya Bank", "name_en": null, "name_ne": null, "status": "Standing", "amenity": "bank", "operator": null, "network": null, "addr_full": null, "addr_city": null, "source": null, "adm0_pcode": "NPL", "adm0_name": "Nepal", "adm1_pcode": "NP03", "adm1_name": "Bagmati", "adm2_pcode": "NP0330", "adm2_name": "Dhading", "adm3_pcode": "NP0330408", "adm3_name": "Benighat Rorang", "adm4_pcode": null, "adm4_name": null, "name_latin": "Rastriya Banijya Bank" }, "geometry": { "type": "Point", "coordinates": [ 84.8281888, 27.8136496 ] } },
{ "type": "Feature", "properties": { "id": "node/3408491509", "name": "ndep development bank", "name_en": null, "name_ne": null, "status": "Standing", "amenity": "bank", "operator": null, "network": null, "addr_full": null, "addr_city": null, "source": null, "adm0_pcode": "NPL", "adm0_name": "Nepal", "adm1_pcode": "NP03", "adm1_name": "Bagmati", "adm2_pcode": "NP0330", "adm2_name": "Dhading", "adm3_pcode": "NP0330408", "adm3_name": "Benighat Rorang", "adm4_pcode": null, "adm4_name": null, "name_latin": "ndep development bank" }, "geometry": { "type": "Point", "coordinates": [ 84.8285506, 27.8134918 ] } },
{ "type": "Feature", "properties": { "id": "node/4316610438", "name": null, "name_en": null, "name_ne": null, "status": "Standing", "amenity": "atm", "operator": "Gandaki Bikas Bank Ltd.", "network": null, "addr_full": null, "addr_city": null, "source": null, "adm0_pcode": "NPL", "adm0_name": "Nepal", "adm1_pcode": "NP03", "adm1_name": "Bagmati", "adm2_pcode": "NP0335", "adm2_name": "Chitawan", "adm3_pcode": "NP0335401", "adm3_name": "Ichchha Kamana", "adm4_pcode": null, "adm4_name": null, "name_latin": null }, "geometry": { "type": "Point", "coordinates": [ 84.5608644, 27.8563608 ] } },
{ "type": "Feature", "properties": { "id": "node/5083387624", "name": "Gandaki Bikash Bank Limited", "name_en": null, "name_ne": null, "status": "Standing", "amenity": "bank", "operator": null, "network": null, "addr_full": null, "addr_city": null, "source": null, "adm0_pcode": "NPL", "adm0_name": "Nepal", "adm1_pcode": "NP03", "adm1_name": "Bagmati", "adm2_pcode": "NP0335", "adm2_name": "Chitawan", "adm3_pcode": "NP0335401", "adm3_name": "Ichchha Kamana", "adm4_pcode": null, "adm4_name": null, "name_latin": "Gandaki Bikash Bank Limited" }, "geometry": { "type": "Point", "coordinates": [ 84.5610697, 27.856475 ] } },
{ "type": "Feature", "properties": { "id": "node/3408491300", "name": "Deva Development Bank", "name_en": null, "name_ne": null, "status": "Standing", "amenity": "bank", "operator": null, "network": null, "addr_full": null, "addr_city": null, "source": null, "adm0_pcode": "NPL", "adm0_name": "Nepal", "adm1_pcode": "NP03", "adm1_name": "Bagmati", "adm2_pcode": "NP0330", "adm2_name": "Dhading", "adm3_pcode": "NP0330408", "adm3_name": "Benighat Rorang", "adm4_pcode": null, "adm4_name": null, "name_latin": "Deva Development Bank" }, "geometry": { "type": "Point", "coordinates": [ 84.7511503, 27.8032728 ] } },
{ "type": "Feature", "properties": { "id": "node/9802458024", "name": "NMBMF BANK Gangate", "name_en": null, "name_ne": null, "status": "Standing", "amenity": "bank", "operator": null, "network": null, "addr_full": null, "addr_city": null, "source": null, "adm0_pcode": "NPL", "adm0_name": "Nepal", "adm1_pcode": "NP03", "adm1_name": "Bagmati", "adm2_pcode": "NP0328", "adm2_name": "Nuwakot", "adm3_pcode": "NP0328301", "adm3_name": "Bidur", "adm4_pcode": null, "adm4_name": null, "name_latin": "NMBMF BANK Gangate" }, "geometry": { "type": "Point", "coordinates": [ 85.1494425, 27.9191134 ] } },
{ "type": "Feature", "properties": { "id": "node/9802458078", "name": "ICFC ATM", "name_en": null, "name_ne": null, "status": "Standing", "amenity": "bank", "operator": null, "network": null, "addr_full": null, "addr_city": null, "source": null, "adm0_pcode": "NPL", "adm0_name": "Nepal", "adm1_pcode": "NP03", "adm1_name": "Bagmati", "adm2_pcode": "NP0328", "adm2_name": "Nuwakot", "adm3_pcode": "NP0328301", "adm3_name": "Bidur", "adm4_pcode": null, "adm4_name": null, "name_latin": "ICFC ATM" }, "geometry": { "type": "Point", "coordinates": [ 85.1481491, 27.92193 ] } },
{ "type": "Feature", "properties": { "id": "node/9802458020", "name": "ICFC BANK Trishuli", "name_en": null, "name_ne": null, "status": "Standing", "amenity": "bank", "operator": null, "network": null, "addr_full": null, "addr_city": null, "source": null, "adm0_pcode": "NPL", "adm0_name": "Nepal", "adm1_pcode": "NP03", "adm1_name": "Bagmati", "adm2_pcode": "NP0328", "adm2_name": "Nuwakot", "adm3_pcode": "NP0328301", "adm3_name": "Bidur", "adm4_pcode": null, "adm4_name": null, "name_latin": "ICFC BANK Trishuli" }, "geometry": { "type": "Point", "coordinates": [ 85.148129, 27.9219715 ] } },
{ "type": "Feature", "properties": { "id": "node/9802458021", "name": "Jyoti BANK Trishuli", "name_en": null, "name_ne": null, "status": "Standing", "amenity": "bank", "operator": null, "network": null, "addr_full": null, "addr_city": null, "source": null, "adm0_pcode": "NPL", "adm0_name": "Nepal", "adm1_pcode": "NP03", "adm1_name": "Bagmati", "adm2_pcode": "NP0328", "adm2_name": "Nuwakot", "adm3_pcode": "NP0328301", "adm3_name": "Bidur", "adm4_pcode": null, "adm4_name": null, "name_latin": "Jyoti BANK Trishuli" }, "geometry": { "type": "Point", "coordinates": [ 85.1483107, 27.9219627 ] } },
{ "type": "Feature", "properties": { "id": "node/11806454969", "name": null, "name_en": "NIC Asia Bank", "name_ne": null, "status": "Standing", "amenity": "bank", "operator": null, "network": null, "addr_full": null, "addr_city": null, "source": null, "adm0_pcode": "NPL", "adm0_name": "Nepal", "adm1_pcode": "NP03", "adm1_name": "Bagmati", "adm2_pcode": "NP0328", "adm2_name": "Nuwakot", "adm3_pcode": "NP0328301", "adm3_name": "Bidur", "adm4_pcode": null, "adm4_name": null, "name_latin": "NIC Asia Bank" }, "geometry": { "type": "Point", "coordinates": [ 85.1856148, 27.9733029 ] } },
{ "type": "Feature", "properties": { "id": "node/9802458033", "name": "NIC BANK Battar", "name_en": null, "name_ne": null, "status": "Standing", "amenity": "bank", "operator": null, "network": null, "addr_full": null, "addr_city": null, "source": null, "adm0_pcode": "NPL", "adm0_name": "Nepal", "adm1_pcode": "NP03", "adm1_name": "Bagmati", "adm2_pcode": "NP0328", "adm2_name": "Nuwakot", "adm3_pcode": "NP0328301", "adm3_name": "Bidur", "adm4_pcode": null, "adm4_name": null, "name_latin": "NIC BANK Battar" }, "geometry": { "type": "Point", "coordinates": [ 85.1415938, 27.9109239 ] } },
{ "type": "Feature", "properties": { "id": "node/9802458082", "name": "NIC ATM", "name_en": null, "name_ne": null, "status": "Standing", "amenity": "bank", "operator": null, "network": null, "addr_full": null, "addr_city": null, "source": null, "adm0_pcode": "NPL", "adm0_name": "Nepal", "adm1_pcode": "NP03", "adm1_name": "Bagmati", "adm2_pcode": "NP0328", "adm2_name": "Nuwakot", "adm3_pcode": "NP0328301", "adm3_name": "Bidur", "adm4_pcode": null, "adm4_name": null, "name_latin": "NIC ATM" }, "geometry": { "type": "Point", "coordinates": [ 85.1416219, 27.9108421 ] } },
{ "type": "Feature", "properties": { "id": "node/9802458025", "name": "NBL BANK Trisuli", "name_en": null, "name_ne": null, "status": "Standing", "amenity": "bank", "operator": null, "network": null, "addr_full": null, "addr_city": null, "source": null, "adm0_pcode": "NPL", "adm0_name": "Nepal", "adm1_pcode": "NP03", "adm1_name": "Bagmati", "adm2_pcode": "NP0328", "adm2_name": "Nuwakot", "adm3_pcode": "NP0328301", "adm3_name": "Bidur", "adm4_pcode": null, "adm4_name": null, "name_latin": "NBL BANK Trisuli" }, "geometry": { "type": "Point", "coordinates": [ 85.1417222, 27.9158921 ] } },
{ "type": "Feature", "properties": { "id": "node/9802458079", "name": "NBL ATM", "name_en": null, "name_ne": null, "status": "Standing", "amenity": "bank", "operator": null, "network": null, "addr_full": null, "addr_city": null, "source": null, "adm0_pcode": "NPL", "adm0_name": "Nepal", "adm1_pcode": "NP03", "adm1_name": "Bagmati", "adm2_pcode": "NP0328", "adm2_name": "Nuwakot", "adm3_pcode": "NP0328301", "adm3_name": "Bidur", "adm4_pcode": null, "adm4_name": null, "name_latin": "NBL ATM" }, "geometry": { "type": "Point", "coordinates": [ 85.1416726, 27.9158317 ] } },
{ "type": "Feature", "properties": { "id": "node/4367705093", "name": null, "name_en": "hamro Bikash bank", "name_ne": null, "status": "Standing", "amenity": "bank", "operator": null, "network": null, "addr_full": null, "addr_city": null, "source": null, "adm0_pcode": "NPL", "adm0_name": "Nepal", "adm1_pcode": "NP03", "adm1_name": "Bagmati", "adm2_pcode": "NP0328", "adm2_name": "Nuwakot", "adm3_pcode": "NP0328301", "adm3_name": "Bidur", "adm4_pcode": null, "adm4_name": null, "name_latin": "hamro Bikash bank" }, "geometry": { "type": "Point", "coordinates": [ 85.1417354, 27.9158483 ] } },
{ "type": "Feature", "properties": { "id": "node/9802458077", "name": "NIC ATM", "name_en": null, "name_ne": null, "status": "Standing", "amenity": "bank", "operator": null, "network": null, "addr_full": null, "addr_city": null, "source": null, "adm0_pcode": "NPL", "adm0_name": "Nepal", "adm1_pcode": "NP03", "adm1_name": "Bagmati", "adm2_pcode": "NP0328", "adm2_name": "Nuwakot", "adm3_pcode": "NP0328301", "adm3_name": "Bidur", "adm4_pcode": null, "adm4_name": null, "name_latin": "NIC ATM" }, "geometry": { "type": "Point", "coordinates": [ 85.1468928, 27.9341817 ] } },
{ "type": "Feature", "properties": { "id": "node/9802458019", "name": "NIC BANK Trishuli", "name_en": null, "name_ne": null, "status": "Standing", "amenity": "bank", "operator": null, "network": null, "addr_full": null, "addr_city": null, "source": null, "adm0_pcode": "NPL", "adm0_name": "Nepal", "adm1_pcode": "NP03", "adm1_name": "Bagmati", "adm2_pcode": "NP0328", "adm2_name": "Nuwakot", "adm3_pcode": "NP0328301", "adm3_name": "Bidur", "adm4_pcode": null, "adm4_name": null, "name_latin": "NIC BANK Trishuli" }, "geometry": { "type": "Point", "coordinates": [ 85.14676, 27.9341829 ] } },
{ "type": "Feature", "properties": { "id": "node/9802458064", "name": "CivilMF BANK KHADGABHANJYANG", "name_en": null, "name_ne": null, "status": "Standing", "amenity": "bank", "operator": null, "network": null, "addr_full": null, "addr_city": null, "source": null, "adm0_pcode": "NPL", "adm0_name": "Nepal", "adm1_pcode": "NP03", "adm1_name": "Bagmati", "adm2_pcode": "NP0328", "adm2_name": "Nuwakot", "adm3_pcode": "NP0328301", "adm3_name": "Bidur", "adm4_pcode": null, "adm4_name": null, "name_latin": "CivilMF BANK KHADGABHANJYANG" }, "geometry": { "type": "Point", "coordinates": [ 85.1075893, 27.8607959 ] } },
{ "type": "Feature", "properties": { "id": "node/9802458066", "name": "Asha BANK Devighat Branch", "name_en": null, "name_ne": null, "status": "Standing", "amenity": "bank", "operator": null, "network": null, "addr_full": null, "addr_city": null, "source": null, "adm0_pcode": "NPL", "adm0_name": "Nepal", "adm1_pcode": "NP03", "adm1_name": "Bagmati", "adm2_pcode": "NP0328", "adm2_name": "Nuwakot", "adm3_pcode": "NP0328301", "adm3_name": "Bidur", "adm4_pcode": null, "adm4_name": null, "name_latin": "Asha BANK Devighat Branch" }, "geometry": { "type": "Point", "coordinates": [ 85.1106551, 27.8599148 ] } },
{ "type": "Feature", "properties": { "id": "node/9802458067", "name": "LumbiniDB BANK Devighat", "name_en": null, "name_ne": null, "status": "Standing", "amenity": "bank", "operator": null, "network": null, "addr_full": null, "addr_city": null, "source": null, "adm0_pcode": "NPL", "adm0_name": "Nepal", "adm1_pcode": "NP03", "adm1_name": "Bagmati", "adm2_pcode": "NP0328", "adm2_name": "Nuwakot", "adm3_pcode": "NP0328301", "adm3_name": "Bidur", "adm4_pcode": null, "adm4_name": null, "name_latin": "LumbiniDB BANK Devighat" }, "geometry": { "type": "Point", "coordinates": [ 85.1089467, 27.8590766 ] } },
{ "type": "Feature", "properties": { "id": "node/2857819512", "name": null, "name_en": null, "name_ne": null, "status": "Destroyed", "amenity": "atm", "operator": "Mega Bank Nepal Limited", "network": null, "addr_full": null, "addr_city": null, "source": "GPS", "adm0_pcode": "NPL", "adm0_name": "Nepal", "adm1_pcode": "NP03", "adm1_name": "Bagmati", "adm2_pcode": "NP0329", "adm2_name": "Rasuwa", "adm3_pcode": "NP0329402", "adm3_name": "Gosaikunda", "adm4_pcode": null, "adm4_name": null, "name_latin": null }, "geometry": { "type": "Point", "coordinates": [ 85.3362947, 28.1611718 ] } },
{ "type": "Feature", "properties": { "id": "node/6117774385", "name": null, "name_en": "Bank", "name_ne": null, "status": "Destroyed", "amenity": "bank", "operator": null, "network": null, "addr_full": null, "addr_city": null, "source": null, "adm0_pcode": "NPL", "adm0_name": "Nepal", "adm1_pcode": "NP03", "adm1_name": "Bagmati", "adm2_pcode": "NP0329", "adm2_name": "Rasuwa", "adm3_pcode": "NP0329402", "adm3_name": "Gosaikunda", "adm4_pcode": null, "adm4_name": null, "name_latin": "Bank" }, "geometry": { "type": "Point", "coordinates": [ 85.336233, 28.1607094 ] } },
{ "type": "Feature", "properties": { "id": "node/12672929246", "name": null, "name_en": null, "name_ne": null, "status": "Destroyed", "amenity": "atm", "operator": "NIC ASIA BANK", "network": null, "addr_full": null, "addr_city": null, "source": null, "adm0_pcode": "NPL", "adm0_name": "Nepal", "adm1_pcode": "NP03", "adm1_name": "Bagmati", "adm2_pcode": "NP0329", "adm2_name": "Rasuwa", "adm3_pcode": "NP0329402", "adm3_name": "Gosaikunda", "adm4_pcode": null, "adm4_name": null, "name_latin": null }, "geometry": { "type": "Point", "coordinates": [ 85.3364072, 28.1607872 ] } },
{ "type": "Feature", "properties": { "id": "node/9802458039", "name": "NMB BANK Battar", "name_en": null, "name_ne": null, "status": "Standing", "amenity": "bank", "operator": null, "network": null, "addr_full": null, "addr_city": null, "source": null, "adm0_pcode": "NPL", "adm0_name": "Nepal", "adm1_pcode": "NP03", "adm1_name": "Bagmati", "adm2_pcode": "NP0328", "adm2_name": "Nuwakot", "adm3_pcode": "NP0328301", "adm3_name": "Bidur", "adm4_pcode": null, "adm4_name": null, "name_latin": "NMB BANK Battar" }, "geometry": { "type": "Point", "coordinates": [ 85.1431927, 27.9030336 ] } },
{ "type": "Feature", "properties": { "id": "node/9802458042", "name": "Sunrise BANK Battar Branch", "name_en": null, "name_ne": null, "status": "Standing", "amenity": "bank", "operator": null, "network": null, "addr_full": null, "addr_city": null, "source": null, "adm0_pcode": "NPL", "adm0_name": "Nepal", "adm1_pcode": "NP03", "adm1_name": "Bagmati", "adm2_pcode": "NP0328", "adm2_name": "Nuwakot", "adm3_pcode": "NP0328301", "adm3_name": "Bidur", "adm4_pcode": null, "adm4_name": null, "name_latin": "Sunrise BANK Battar Branch" }, "geometry": { "type": "Point", "coordinates": [ 85.1419602, 27.9021861 ] } },
{ "type": "Feature", "properties": { "id": "node/9802458085", "name": "Sunrise ATM", "name_en": null, "name_ne": null, "status": "Standing", "amenity": "bank", "operator": null, "network": null, "addr_full": null, "addr_city": null, "source": null, "adm0_pcode": "NPL", "adm0_name": "Nepal", "adm1_pcode": "NP03", "adm1_name": "Bagmati", "adm2_pcode": "NP0328", "adm2_name": "Nuwakot", "adm3_pcode": "NP0328301", "adm3_name": "Bidur", "adm4_pcode": null, "adm4_name": null, "name_latin": "Sunrise ATM" }, "geometry": { "type": "Point", "coordinates": [ 85.1420434, 27.9020545 ] } },
{ "type": "Feature", "properties": { "id": "node/9802458044", "name": "AChautari BANK Battar Branch", "name_en": null, "name_ne": null, "status": "Standing", "amenity": "bank", "operator": null, "network": null, "addr_full": null, "addr_city": null, "source": null, "adm0_pcode": "NPL", "adm0_name": "Nepal", "adm1_pcode": "NP03", "adm1_name": "Bagmati", "adm2_pcode": "NP0328", "adm2_name": "Nuwakot", "adm3_pcode": "NP0328301", "adm3_name": "Bidur", "adm4_pcode": null, "adm4_name": null, "name_latin": "AChautari BANK Battar Branch" }, "geometry": { "type": "Point", "coordinates": [ 85.1409891, 27.9000574 ] } }
]
}
