{
"type": "FeatureCollection",
"name": "health_facilities",
"crs": { "type": "name", "properties": { "name": "urn:ogc:def:crs:OGC:1.3:CRS84" } },
"features": [
{ "type": "Feature", "properties": { "id": "node/5562281921", "name": null, "name_en": "Highway Healthcare Pharma", "name_ne": null, "status": "Standing", "amenity": "pharmacy", "building": null, "healthcare": null, "healthcare_speciality": null, "operator_type": null, "capacity_persons": null, "addr_full": null, "addr_city": null, "source": null, "adm0_pcode": "NPL", "adm0_name": "Nepal", "adm1_pcode": "NP03", "adm1_name": "Bagmati", "adm2_pcode": "NP0330", "adm2_name": "Dhading", "adm3_pcode": "NP0330408", "adm3_name": "Benighat Rorang", "adm4_pcode": null, "adm4_name": null, "name_latin": "Highway Healthcare Pharma" }, "geometry": { "type": "Point", "coordinates": [ 84.8278453, 27.8136943 ] } },
{ "type": "Feature", "properties": { "id": "node/3408490712", "name": "Rajmarga Samudayak Hospital", "name_en": "Highway Community Hospital", "name_ne": null, "status": "Standing", "amenity": "hospital", "building": null, "healthcare": null, "healthcare_speciality": null, "operator_type": null, "capacity_persons": null, "addr_full": null, "addr_city": null, "source": null, "adm0_pcode": "NPL", "adm0_name": "Nepal", "adm1_pcode": "NP03", "adm1_name": "Bagmati", "adm2_pcode": "NP0330", "adm2_name": "Dhading", "adm3_pcode": "NP0330408", "adm3_name": "Benighat Rorang", "adm4_pcode": null, "adm4_name": null, "name_latin": "Highway Community Hospital" }, "geometry": { "type": "Point", "coordinates": [ 84.8334747, 27.8111146 ] } },
{ "type": "Feature", "properties": { "id": "node/9510297618", "name": "Benighat Health Cllinic", "name_en": null, "name_ne": null, "status": "Standing", "amenity": "clinic", "building": null, "healthcare": null, "healthcare_speciality": null, "operator_type": null, "capacity_persons": null, "addr_full": null, "addr_city": null, "source": null, "adm0_pcode": "NPL", "adm0_name": "Nepal", "adm1_pcode": "NP03", "adm1_name": "Bagmati", "adm2_pcode": "NP0330", "adm2_name": "Dhading", "adm3_pcode": "NP0330408", "adm3_name": "Benighat Rorang", "adm4_pcode": null, "adm4_name": null, "name_latin": "Benighat Health Cllinic" }, "geometry": { "type": "Point", "coordinates": [ 84.7800149, 27.8106241 ] } },
{ "type": "Feature", "properties": { "id": "node/3408491299", "name": "Bihani Pharmacy", "name_en": null, "name_ne": null, "status": "Standing", "amenity": "pharmacy", "building": null, "healthcare": null, "healthcare_speciality": null, "operator_type": null, "capacity_persons": null, "addr_full": null, "addr_city": null, "source": null, "adm0_pcode": "NPL", "adm0_name": "Nepal", "adm1_pcode": "NP03", "adm1_name": "Bagmati", "adm2_pcode": "NP0330", "adm2_name": "Dhading", "adm3_pcode": "NP0330408", "adm3_name": "Benighat Rorang", "adm4_pcode": null, "adm4_name": null, "name_latin": "Bihani Pharmacy" }, "geometry": { "type": "Point", "coordinates": [ 84.7043051, 27.8056745 ] } },
{ "type": "Feature", "properties": { "id": "way/589973190", "name": null, "name_en": null, "name_ne": "प्राथमिक स्वस्थ केन्द्र, गजुरी", "status": "Standing", "amenity": "hospital", "building": null, "healthcare": null, "healthcare_speciality": null, "operator_type": null, "capacity_persons": null, "addr_full": null, "addr_city": null, "source": null, "adm0_pcode": "NPL", "adm0_name": "Nepal", "adm1_pcode": "NP03", "adm1_name": "Bagmati", "adm2_pcode": "NP0330", "adm2_name": "Dhading", "adm3_pcode": "NP0330409", "adm3_name": "Gajuri", "adm4_pcode": null, "adm4_name": null, "name_latin": null }, "geometry": { "type": "Polygon", "coordinates": [ [ [ 84.8798078, 27.8065696 ], [ 84.8798347, 27.8065245 ], [ 84.8799312, 27.8063383 ], [ 84.8799902, 27.8062529 ], [ 84.8800345, 27.8062398 ], [ 84.880119, 27.806241 ], [ 84.8802209, 27.8062386 ], [ 84.8802531, 27.806254 ], [ 84.8802383, 27.8062956 ], [ 84.8802102, 27.8063371 ], [ 84.8801444, 27.8064948 ], [ 84.8800465, 27.8066728 ], [ 84.8798159, 27.8065874 ], [ 84.8798078, 27.8065696 ] ] ] } }
]
}
