{
"type": "FeatureCollection",
"name": "health_facilities",
"crs": { "type": "name", "properties": { "name": "urn:ogc:def:crs:OGC:1.3:CRS84" } },
"features": [
{ "type": "Feature", "properties": { "id": "92b07aae-f649-4236-bc2d-2a5f10189cf2", "name": "Trishuli Dental Care", "name_en": null, "category": "dentist", "address": "Trishuli Bazar, Bidur-1", "phone": "+97710560935", "website": "https://linktr.ee/shreeharibogati", "confidence": 0.83280664682388306, "source": "meta", "adm0_pcode": "NPL", "adm0_name": "Nepal", "adm1_pcode": "NP03", "adm1_name": "Bagmati", "adm2_pcode": "NP0328", "adm2_name": "Nuwakot", "adm3_pcode": "NP0328301", "adm3_name": "Bidur", "adm4_pcode": null, "adm4_name": null, "name_latin": "Trishuli Dental Care" }, "geometry": { "type": "Point", "coordinates": [ 85.147250890731996, 27.922665601388999 ] } },
{ "type": "Feature", "properties": { "id": "c13e24d4-8769-41c8-b6a0-a35b6d06e187", "name": "Malekhu Teaching Hospital/मलेखु टिचिङ हस्पिटल & Trauma Centre/ट्रमा सेन्टर", "name_en": null, "category": "hospital", "address": "Gajuri-02, Malekhu", "phone": "+9779861013109", "website": "http://malekhuhospital.com/", "confidence": 0.90015333890914917, "source": "meta", "adm0_pcode": "NPL", "adm0_name": "Nepal", "adm1_pcode": "NP03", "adm1_name": "Bagmati", "adm2_pcode": "NP0330", "adm2_name": "Dhading", "adm3_pcode": "NP0330407", "adm3_name": "Siddhalek", "adm4_pcode": null, "adm4_name": null, "name_latin": "Malekhu Teaching Hospital/mlekhu tticing hspittl & Trauma Centre/ttrmaa senttr" }, "geometry": { "type": "Point", "coordinates": [ 84.836614019354684, 27.805142790330574 ] } },
{ "type": "Feature", "properties": { "id": "12d4c182-4dcf-4da5-b390-bd2204656223", "name": "Khatiwada Medical", "name_en": null, "category": "pharmacy", "address": "Mahendra Marg", "phone": null, "website": null, "confidence": 0.57518965005874634, "source": "meta", "adm0_pcode": "NPL", "adm0_name": "Nepal", "adm1_pcode": "NP03", "adm1_name": "Bagmati", "adm2_pcode": "NP0330", "adm2_name": "Dhading", "adm3_pcode": "NP0330407", "adm3_name": "Siddhalek", "adm4_pcode": null, "adm4_name": null, "name_latin": "Khatiwada Medical" }, "geometry": { "type": "Point", "coordinates": [ 84.94385, 27.80784 ] } }
]
}
