{
"type": "FeatureCollection",
"name": "helipads",
"crs": { "type": "name", "properties": { "name": "urn:ogc:def:crs:OGC:1.3:CRS84" } },
"features": [
{ "type": "Feature", "properties": { "id": "node/3487183797", "name": "Kurintar Heliport", "name_en": null, "name_ne": null, "status": "Standing", "aeroway": "helipad", "emergency": null, "emergency_helipad": null, "amenity": null, "surface": null, "operator": null, "operator_type": null, "access": null, "source": null, "adm0_pcode": "NPL", "adm0_name": "Nepal", "adm1_pcode": "NP04", "adm1_name": "Gandaki", "adm2_pcode": "NP0436", "adm2_name": "Gorkha", "adm3_pcode": "NP0436408", "adm3_name": "Shahid Lakhan", "adm4_pcode": null, "adm4_name": null, "name_latin": "Kurintar Heliport" }, "geometry": { "type": "Point", "coordinates": [ 84.5897437, 27.8785206 ] } },
{ "type": "Feature", "properties": { "id": "node/3498339453", "name": null, "name_en": null, "name_ne": null, "status": "Standing", "aeroway": null, "emergency": null, "emergency_helipad": "potential", "amenity": null, "surface": null, "operator": null, "operator_type": null, "access": null, "source": null, "adm0_pcode": "NPL", "adm0_name": "Nepal", "adm1_pcode": "NP03", "adm1_name": "Bagmati", "adm2_pcode": "NP0329", "adm2_name": "Rasuwa", "adm3_pcode": "NP0329403", "adm3_name": "Uttargaya", "adm4_pcode": null, "adm4_name": null, "name_latin": null }, "geometry": { "type": "Point", "coordinates": [ 85.2065984, 28.0733647 ] } },
{ "type": "Feature", "properties": { "id": "way/342634654", "name": null, "name_en": null, "name_ne": null, "status": "Standing", "aeroway": null, "emergency": null, "emergency_helipad": "potential", "amenity": null, "surface": null, "operator": null, "operator_type": null, "access": null, "source": null, "adm0_pcode": "NPL", "adm0_name": "Nepal", "adm1_pcode": "NP03", "adm1_name": "Bagmati", "adm2_pcode": "NP0329", "adm2_name": "Rasuwa", "adm3_pcode": "NP0329402", "adm3_name": "Gosaikunda", "adm4_pcode": null, "adm4_name": null, "name_latin": null }, "geometry": { "type": "LineString", "coordinates": [ [ 85.3589973, 28.2408909 ], [ 85.3594811, 28.240873 ], [ 85.3594404, 28.2402605 ], [ 85.3590257, 28.2403143 ], [ 85.3589973, 28.2408909 ] ] } },
{ "type": "Feature", "properties": { "id": "way/341587236", "name": null, "name_en": null, "name_ne": null, "status": "Destroyed", "aeroway": "helipad", "emergency": null, "emergency_helipad": null, "amenity": null, "surface": null, "operator": null, "operator_type": null, "access": null, "source": null, "adm0_pcode": "NPL", "adm0_name": "Nepal", "adm1_pcode": "NP03", "adm1_name": "Bagmati", "adm2_pcode": "NP0328", "adm2_name": "Nuwakot", "adm3_pcode": "NP0328301", "adm3_name": "Bidur", "adm4_pcode": null, "adm4_name": null, "name_latin": null }, "geometry": { "type": "LineString", "coordinates": [ [ 85.171743, 27.9640346 ], [ 85.1717114, 27.9640273 ], [ 85.1716907, 27.9640049 ], [ 85.1716897, 27.9639891 ], [ 85.1716889, 27.9639761 ], [ 85.1717065, 27.9639518 ], [ 85.171737, 27.9639414 ], [ 85.1717686, 27.9639487 ], [ 85.1717892, 27.963971 ], [ 85.1717907, 27.9639929 ], [ 85.1717911, 27.9639998 ], [ 85.1717735, 27.9640241 ], [ 85.171743, 27.9640346 ] ] } },
{ "type": "Feature", "properties": { "id": "way/343706264", "name": null, "name_en": null, "name_ne": null, "status": "Standing", "aeroway": null, "emergency": null, "emergency_helipad": "potential", "amenity": null, "surface": null, "operator": null, "operator_type": null, "access": null, "source": null, "adm0_pcode": "NPL", "adm0_name": "Nepal", "adm1_pcode": "NP03", "adm1_name": "Bagmati", "adm2_pcode": "NP0328", "adm2_name": "Nuwakot", "adm3_pcode": "NP0328302", "adm3_name": "Belkotgadhi", "adm4_pcode": null, "adm4_name": null, "name_latin": null }, "geometry": { "type": "LineString", "coordinates": [ [ 85.0458542, 27.8566062 ], [ 85.0458507, 27.856387 ], [ 85.0457575, 27.8560886 ], [ 85.0458982, 27.8558398 ], [ 85.0463712, 27.8563404 ], [ 85.0461303, 27.8565689 ], [ 85.0458542, 27.8566062 ] ] } },
{ "type": "Feature", "properties": { "id": "way/1553349794", "name": null, "name_en": null, "name_ne": null, "status": "Damaged", "aeroway": "helipad", "emergency": null, "emergency_helipad": null, "amenity": null, "surface": null, "operator": null, "operator_type": null, "access": null, "source": null, "adm0_pcode": "NPL", "adm0_name": "Nepal", "adm1_pcode": "NP03", "adm1_name": "Bagmati", "adm2_pcode": "NP0329", "adm2_name": "Rasuwa", "adm3_pcode": "NP0329402", "adm3_name": "Gosaikunda", "adm4_pcode": null, "adm4_name": null, "name_latin": null }, "geometry": { "type": "LineString", "coordinates": [ [ 85.3417835, 28.1671025 ], [ 85.3417496, 28.1670905 ], [ 85.3417352, 28.1670609 ], [ 85.3417488, 28.167031 ], [ 85.3417824, 28.1670184 ], [ 85.3418163, 28.1670304 ], [ 85.3418307, 28.16706 ], [ 85.341817, 28.1670899 ], [ 85.3417835, 28.1671025 ] ] } },
{ "type": "Feature", "properties": { "id": "way/343706272", "name": null, "name_en": null, "name_ne": null, "status": "Standing", "aeroway": null, "emergency": null, "emergency_helipad": "potential", "amenity": null, "surface": null, "operator": null, "operator_type": null, "access": null, "source": null, "adm0_pcode": "NPL", "adm0_name": "Nepal", "adm1_pcode": "NP03", "adm1_name": "Bagmati", "adm2_pcode": "NP0328", "adm2_name": "Nuwakot", "adm3_pcode": "NP0328301", "adm3_name": "Bidur", "adm4_pcode": null, "adm4_name": null, "name_latin": null }, "geometry": { "type": "LineString", "coordinates": [ [ 85.067397, 27.8616479 ], [ 85.0675047, 27.8616443 ], [ 85.0676918, 27.8611645 ], [ 85.0677202, 27.8608698 ], [ 85.0675739, 27.8608374 ], [ 85.0672974, 27.8609255 ], [ 85.0672272, 27.861046 ], [ 85.0672564, 27.8612163 ], [ 85.0672821, 27.861459 ], [ 85.067397, 27.8616479 ] ] } },
{ "type": "Feature", "properties": { "id": "way/1553511515", "name": null, "name_en": null, "name_ne": null, "status": "Destroyed", "aeroway": "helipad", "emergency": null, "emergency_helipad": null, "amenity": null, "surface": null, "operator": null, "operator_type": null, "access": null, "source": null, "adm0_pcode": "NPL", "adm0_name": "Nepal", "adm1_pcode": "NP03", "adm1_name": "Bagmati", "adm2_pcode": "NP0329", "adm2_name": "Rasuwa", "adm3_pcode": "NP0329402", "adm3_name": "Gosaikunda", "adm4_pcode": null, "adm4_name": null, "name_latin": null }, "geometry": { "type": "LineString", "coordinates": [ [ 85.3769294, 28.2808848 ], [ 85.3769864, 28.2807292 ], [ 85.3771645, 28.2807797 ], [ 85.3771075, 28.2809353 ], [ 85.3769294, 28.2808848 ] ] } },
{ "type": "Feature", "properties": { "id": "way/344398837", "name": null, "name_en": null, "name_ne": null, "status": "Standing", "aeroway": null, "emergency": null, "emergency_helipad": "potential", "amenity": null, "surface": null, "operator": null, "operator_type": null, "access": null, "source": null, "adm0_pcode": "NPL", "adm0_name": "Nepal", "adm1_pcode": "NP03", "adm1_name": "Bagmati", "adm2_pcode": "NP0328", "adm2_name": "Nuwakot", "adm3_pcode": "NP0328403", "adm3_name": "Tarakeshwor", "adm4_pcode": null, "adm4_name": null, "name_latin": null }, "geometry": { "type": "LineString", "coordinates": [ [ 85.0584295, 27.8583162 ], [ 85.0590414, 27.8592334 ], [ 85.060114, 27.8598646 ], [ 85.0606984, 27.8597259 ], [ 85.0609967, 27.8591557 ], [ 85.0605184, 27.8585214 ], [ 85.0594142, 27.8581483 ], [ 85.0584295, 27.8583162 ] ] } },
{ "type": "Feature", "properties": { "id": "way/344341602", "name": null, "name_en": null, "name_ne": null, "status": "Standing", "aeroway": null, "emergency": null, "emergency_helipad": "potential", "amenity": null, "surface": null, "operator": null, "operator_type": null, "access": null, "source": null, "adm0_pcode": "NPL", "adm0_name": "Nepal", "adm1_pcode": "NP03", "adm1_name": "Bagmati", "adm2_pcode": "NP0328", "adm2_name": "Nuwakot", "adm3_pcode": "NP0328302", "adm3_name": "Belkotgadhi", "adm4_pcode": null, "adm4_name": null, "name_latin": null }, "geometry": { "type": "LineString", "coordinates": [ [ 85.0312424, 27.8505925 ], [ 85.0312177, 27.85133 ], [ 85.0317904, 27.8520599 ], [ 85.0323408, 27.8521388 ], [ 85.0327503, 27.8516872 ], [ 85.0323527, 27.851004 ], [ 85.0315275, 27.8501062 ], [ 85.0312424, 27.8505925 ] ] } },
{ "type": "Feature", "properties": { "id": "way/345143830", "name": null, "name_en": null, "name_ne": null, "status": "Standing", "aeroway": null, "emergency": null, "emergency_helipad": "potential", "amenity": null, "surface": null, "operator": null, "operator_type": null, "access": null, "source": null, "adm0_pcode": "NPL", "adm0_name": "Nepal", "adm1_pcode": "NP03", "adm1_name": "Bagmati", "adm2_pcode": "NP0328", "adm2_name": "Nuwakot", "adm3_pcode": "NP0328302", "adm3_name": "Belkotgadhi", "adm4_pcode": null, "adm4_name": null, "name_latin": null }, "geometry": { "type": "LineString", "coordinates": [ [ 85.0224203, 27.8402403 ], [ 85.0229737, 27.839795 ], [ 85.0229837, 27.8393717 ], [ 85.0224003, 27.839288 ], [ 85.0222009, 27.8397862 ], [ 85.0224203, 27.8402403 ] ] } },
{ "type": "Feature", "properties": { "id": "way/343706257", "name": null, "name_en": null, "name_ne": null, "status": "Standing", "aeroway": null, "emergency": null, "emergency_helipad": "potential", "amenity": null, "surface": null, "operator": null, "operator_type": null, "access": null, "source": null, "adm0_pcode": "NPL", "adm0_name": "Nepal", "adm1_pcode": "NP03", "adm1_name": "Bagmati", "adm2_pcode": "NP0328", "adm2_name": "Nuwakot", "adm3_pcode": "NP0328302", "adm3_name": "Belkotgadhi", "adm4_pcode": null, "adm4_name": null, "name_latin": null }, "geometry": { "type": "LineString", "coordinates": [ [ 85.0194524, 27.8369976 ], [ 85.0195285, 27.8369976 ], [ 85.0197409, 27.8369146 ], [ 85.0196666, 27.8367065 ], [ 85.0194117, 27.8368161 ], [ 85.0193852, 27.8369068 ], [ 85.0194524, 27.8369976 ] ] } },
{ "type": "Feature", "properties": { "id": "way/303017258", "name": null, "name_en": null, "name_ne": null, "status": "Standing", "aeroway": null, "emergency": null, "emergency_helipad": "potential", "amenity": null, "surface": null, "operator": null, "operator_type": null, "access": null, "source": null, "adm0_pcode": "NPL", "adm0_name": "Nepal", "adm1_pcode": "NP03", "adm1_name": "Bagmati", "adm2_pcode": "NP0330", "adm2_name": "Dhading", "adm3_pcode": "NP0330410", "adm3_name": "Galchhi", "adm4_pcode": null, "adm4_name": null, "name_latin": null }, "geometry": { "type": "Polygon", "coordinates": [ [ [ 85.0057375, 27.8060584 ], [ 85.0058019, 27.8058567 ], [ 85.0058046, 27.805746 ], [ 85.0057509, 27.8057131 ], [ 85.0057536, 27.8056076 ], [ 85.0058019, 27.8054439 ], [ 85.0058502, 27.8053941 ], [ 85.0059253, 27.8053988 ], [ 85.0061644, 27.8054771 ], [ 85.0062985, 27.8055388 ], [ 85.006387, 27.8055815 ], [ 85.0070271, 27.8057053 ], [ 85.0071917, 27.8057191 ], [ 85.0072449, 27.8057238 ], [ 85.0075139, 27.8057523 ], [ 85.0074568, 27.8058164 ], [ 85.0074032, 27.8060299 ], [ 85.007143, 27.805992 ], [ 85.0070491, 27.8060157 ], [ 85.0069905, 27.806298 ], [ 85.0068913, 27.8063787 ], [ 85.0068242, 27.8063455 ], [ 85.0068211, 27.8060774 ], [ 85.0068054, 27.8059208 ], [ 85.0067192, 27.8059469 ], [ 85.0066521, 27.8062553 ], [ 85.0065882, 27.8063051 ], [ 85.0064272, 27.8062672 ], [ 85.0061992, 27.8062007 ], [ 85.0057375, 27.8060584 ] ] ] } },
{ "type": "Feature", "properties": { "id": "way/298464454", "name": null, "name_en": null, "name_ne": null, "status": "Standing", "aeroway": "helipad", "emergency": null, "emergency_helipad": null, "amenity": null, "surface": null, "operator": null, "operator_type": null, "access": null, "source": null, "adm0_pcode": "NPL", "adm0_name": "Nepal", "adm1_pcode": "NP03", "adm1_name": "Bagmati", "adm2_pcode": "NP0328", "adm2_name": "Nuwakot", "adm3_pcode": "NP0328301", "adm3_name": "Bidur", "adm4_pcode": null, "adm4_name": null, "name_latin": null }, "geometry": { "type": "Polygon", "coordinates": [ [ [ 85.1331063, 27.8870288 ], [ 85.1331147, 27.8870009 ], [ 85.1331351, 27.8869783 ], [ 85.1331613, 27.8869656 ], [ 85.1331909, 27.8869624 ], [ 85.1332198, 27.886969 ], [ 85.1332438, 27.8869846 ], [ 85.1332597, 27.8870069 ], [ 85.1332652, 27.8870331 ], [ 85.1332592, 27.8870592 ], [ 85.1332427, 27.8870815 ], [ 85.1332179, 27.8870967 ], [ 85.1331885, 27.8871027 ], [ 85.1331563, 27.8870978 ], [ 85.133129, 27.8870818 ], [ 85.1331114, 27.8870574 ], [ 85.1331063, 27.8870288 ] ] ] } },
{ "type": "Feature", "properties": { "id": "way/342534624", "name": null, "name_en": null, "name_ne": null, "status": "Standing", "aeroway": "helipad", "emergency": null, "emergency_helipad": null, "amenity": null, "surface": null, "operator": null, "operator_type": null, "access": null, "source": "DigitalGlobe, 2015-04-27", "adm0_pcode": "NPL", "adm0_name": "Nepal", "adm1_pcode": "NP03", "adm1_name": "Bagmati", "adm2_pcode": "NP0330", "adm2_name": "Dhading", "adm3_pcode": "NP0330410", "adm3_name": "Galchhi", "adm4_pcode": null, "adm4_name": null, "name_latin": null }, "geometry": { "type": "Polygon", "coordinates": [ [ [ 84.9944708, 27.8016979 ], [ 84.9944798, 27.8016561 ], [ 84.9945062, 27.8016204 ], [ 84.994546, 27.8015964 ], [ 84.9945932, 27.8015878 ], [ 84.9946405, 27.8015957 ], [ 84.9946808, 27.8016191 ], [ 84.9947079, 27.8016543 ], [ 84.9947177, 27.801696 ], [ 84.9947087, 27.8017379 ], [ 84.9946823, 27.8017735 ], [ 84.9946425, 27.8017975 ], [ 84.9945953, 27.8018062 ], [ 84.994548, 27.8017982 ], [ 84.9945077, 27.8017749 ], [ 84.9944806, 27.8017397 ], [ 84.9944708, 27.8016979 ] ] ] } }
]
}
