{
"type": "FeatureCollection",
"name": "police_stations",
"crs": { "type": "name", "properties": { "name": "urn:ogc:def:crs:OGC:1.3:CRS84" } },
"features": [
{ "type": "Feature", "properties": { "id": "node/6511401786", "name": null, "name_en": null, "name_ne": null, "status": "Standing", "amenity": "police", "operator": null, "operator_type": null, "phone": null, "addr_full": null, "addr_city": null, "source": null, "adm0_pcode": "NPL", "adm0_name": "Nepal", "adm1_pcode": "NP03", "adm1_name": "Bagmati", "adm2_pcode": "NP0329", "adm2_name": "Rasuwa", "adm3_pcode": "NP0329401", "adm3_name": "Aamachhodingmo", "adm4_pcode": null, "adm4_name": null, "name_latin": null }, "geometry": { "type": "Point", "coordinates": [ 85.2828441, 28.1133491 ] } },
{ "type": "Feature", "properties": { "id": "node/14128585218", "name": "Police Post Syapru Besi", "name_en": null, "name_ne": null, "status": "Destroyed", "amenity": "police", "operator": "नेपाल प्रहरी", "operator_type": null, "phone": null, "addr_full": null, "addr_city": null, "source": null, "adm0_pcode": "NPL", "adm0_name": "Nepal", "adm1_pcode": "NP03", "adm1_name": "Bagmati", "adm2_pcode": "NP0329", "adm2_name": "Rasuwa", "adm3_pcode": "NP0329402", "adm3_name": "Gosaikunda", "adm4_pcode": null, "adm4_name": null, "name_latin": "Police Post Syapru Besi" }, "geometry": { "type": "Point", "coordinates": [ 85.3418735, 28.165547 ] } },
{ "type": "Feature", "properties": { "id": "node/2857847365", "name": "Tourist Police", "name_en": null, "name_ne": null, "status": "Destroyed", "amenity": "police", "operator": null, "operator_type": null, "phone": null, "addr_full": null, "addr_city": null, "source": "GPS", "adm0_pcode": "NPL", "adm0_name": "Nepal", "adm1_pcode": "NP03", "adm1_name": "Bagmati", "adm2_pcode": "NP0329", "adm2_name": "Rasuwa", "adm3_pcode": "NP0329402", "adm3_name": "Gosaikunda", "adm4_pcode": null, "adm4_name": null, "name_latin": "Tourist Police" }, "geometry": { "type": "Point", "coordinates": [ 85.337056, 28.1637681 ] } },
{ "type": "Feature", "properties": { "id": "node/9510265542", "name": "Area Police Office", "name_en": null, "name_ne": null, "status": "Standing", "amenity": "police", "operator": null, "operator_type": null, "phone": null, "addr_full": null, "addr_city": null, "source": null, "adm0_pcode": "NPL", "adm0_name": "Nepal", "adm1_pcode": "NP03", "adm1_name": "Bagmati", "adm2_pcode": "NP0330", "adm2_name": "Dhading", "adm3_pcode": "NP0330408", "adm3_name": "Benighat Rorang", "adm4_pcode": null, "adm4_name": null, "name_latin": "Area Police Office" }, "geometry": { "type": "Point", "coordinates": [ 84.781588, 27.8118103 ] } },
{ "type": "Feature", "properties": { "id": "node/6166941586", "name": null, "name_en": "Betrawati check post बेत्रावती सुरक्षा जाँच", "name_ne": null, "status": "Standing", "amenity": "police", "operator": null, "operator_type": null, "phone": null, "addr_full": null, "addr_city": null, "source": null, "adm0_pcode": "NPL", "adm0_name": "Nepal", "adm1_pcode": "NP03", "adm1_name": "Bagmati", "adm2_pcode": "NP0328", "adm2_name": "Nuwakot", "adm3_pcode": "NP0328301", "adm3_name": "Bidur", "adm4_pcode": null, "adm4_name": null, "name_latin": "Betrawati check post बेत्रावती सुरक्षा जाँच" }, "geometry": { "type": "Point", "coordinates": [ 85.1856149, 27.9747652 ] } },
{ "type": "Feature", "properties": { "id": "node/9519235220", "name": "Temporary Police Post Aadhamghat", "name_en": null, "name_ne": null, "status": "Standing", "amenity": "police", "operator": null, "operator_type": null, "phone": null, "addr_full": null, "addr_city": null, "source": null, "adm0_pcode": "NPL", "adm0_name": "Nepal", "adm1_pcode": "NP03", "adm1_name": "Bagmati", "adm2_pcode": "NP0330", "adm2_name": "Dhading", "adm3_pcode": "NP0330410", "adm3_name": "Galchhi", "adm4_pcode": null, "adm4_name": null, "name_latin": "Temporary Police Post Aadhamghat" }, "geometry": { "type": "Point", "coordinates": [ 84.9432067, 27.8063716 ] } },
{ "type": "Feature", "properties": { "id": "node/8947843318", "name": "Devighat Police Chowki", "name_en": null, "name_ne": null, "status": "Standing", "amenity": "police", "operator": null, "operator_type": null, "phone": null, "addr_full": null, "addr_city": null, "source": null, "adm0_pcode": "NPL", "adm0_name": "Nepal", "adm1_pcode": "NP03", "adm1_name": "Bagmati", "adm2_pcode": "NP0328", "adm2_name": "Nuwakot", "adm3_pcode": "NP0328301", "adm3_name": "Bidur", "adm4_pcode": null, "adm4_name": null, "name_latin": "Devighat Police Chowki" }, "geometry": { "type": "Point", "coordinates": [ 85.1127869, 27.8623197 ] } },
{ "type": "Feature", "properties": { "id": "node/9519237017", "name": "Traffic Police Office Muglin", "name_en": null, "name_ne": null, "status": "Standing", "amenity": "police", "operator": null, "operator_type": null, "phone": null, "addr_full": null, "addr_city": null, "source": null, "adm0_pcode": "NPL", "adm0_name": "Nepal", "adm1_pcode": "NP03", "adm1_name": "Bagmati", "adm2_pcode": "NP0335", "adm2_name": "Chitawan", "adm3_pcode": "NP0335401", "adm3_name": "Ichchha Kamana", "adm4_pcode": null, "adm4_name": null, "name_latin": "Traffic Police Office Muglin" }, "geometry": { "type": "Point", "coordinates": [ 84.563212, 27.8573336 ] } },
{ "type": "Feature", "properties": { "id": "way/342785548", "name": "Ilaka Prahari Karalaya, Mugling", "name_en": null, "name_ne": null, "status": "Standing", "amenity": "police", "operator": null, "operator_type": null, "phone": null, "addr_full": null, "addr_city": null, "source": null, "adm0_pcode": "NPL", "adm0_name": "Nepal", "adm1_pcode": "NP03", "adm1_name": "Bagmati", "adm2_pcode": "NP0335", "adm2_name": "Chitawan", "adm3_pcode": "NP0335401", "adm3_name": "Ichchha Kamana", "adm4_pcode": null, "adm4_name": null, "name_latin": "Ilaka Prahari Karalaya, Mugling" }, "geometry": { "type": "Polygon", "coordinates": [ [ [ 84.5588991, 27.8553126 ], [ 84.5589724, 27.8552448 ], [ 84.559014, 27.8552799 ], [ 84.5589734, 27.8553175 ], [ 84.5590545, 27.8553859 ], [ 84.5591036, 27.8553405 ], [ 84.5591464, 27.8553767 ], [ 84.5590647, 27.8554524 ], [ 84.5588991, 27.8553126 ] ] ] } }
]
}
