{
"type": "FeatureCollection",
"name": "populated_places",
"crs": { "type": "name", "properties": { "name": "urn:ogc:def:crs:OGC:1.3:CRS84" } },
"features": [
{ "type": "Feature", "properties": { "id": "node/4800345719", "name": "Silintar", "name_en": null, "name_ne": null, "status": "Standing", "place": "village", "population": null, "is_in": null, "source": null, "adm0_pcode": "NPL", "adm0_name": "Nepal", "adm1_pcode": "NP04", "adm1_name": "Gandaki", "adm2_pcode": "NP0436", "adm2_name": "Gorkha", "adm3_pcode": "NP0436408", "adm3_name": "Shahid Lakhan", "adm4_pcode": null, "adm4_name": null, "name_latin": "Silintar" }, "geometry": { "type": "Point", "coordinates": [ 84.590809, 27.8820254 ] } },
{ "type": "Feature", "properties": { "id": "node/992955542", "name": "रसुवागढी", "name_en": "Rasuwa Gadhi", "name_ne": "रसुवागढी", "status": "Standing", "place": "hamlet", "population": null, "is_in": null, "source": "www.geonames.org", "adm0_pcode": "NPL", "adm0_name": "Nepal", "adm1_pcode": "NP03", "adm1_name": "Bagmati", "adm2_pcode": "NP0329", "adm2_name": "Rasuwa", "adm3_pcode": "NP0329402", "adm3_name": "Gosaikunda", "adm4_pcode": null, "adm4_name": null, "name_latin": "Rasuwa Gadhi" }, "geometry": { "type": "Point", "coordinates": [ 85.3777789, 28.2777749 ] } },
{ "type": "Feature", "properties": { "id": "node/3415525225", "name": "सिम्ले", "name_en": "Simle", "name_ne": "सिम्ले", "status": "Standing", "place": "hamlet", "population": null, "is_in": null, "source": null, "adm0_pcode": "NPL", "adm0_name": "Nepal", "adm1_pcode": "NP03", "adm1_name": "Bagmati", "adm2_pcode": "NP0329", "adm2_name": "Rasuwa", "adm3_pcode": "NP0329403", "adm3_name": "Uttargaya", "adm4_pcode": null, "adm4_name": null, "name_latin": "Simle" }, "geometry": { "type": "Point", "coordinates": [ 85.1911972, 28.0292002 ] } },
{ "type": "Feature", "properties": { "id": "node/3478521340", "name": null, "name_en": null, "name_ne": null, "status": "Standing", "place": "hamlet", "population": null, "is_in": null, "source": null, "adm0_pcode": "NPL", "adm0_name": "Nepal", "adm1_pcode": "NP03", "adm1_name": "Bagmati", "adm2_pcode": "NP0328", "adm2_name": "Nuwakot", "adm3_pcode": "NP0328301", "adm3_name": "Bidur", "adm4_pcode": null, "adm4_name": null, "name_latin": null }, "geometry": { "type": "Point", "coordinates": [ 85.0947694, 27.8581113 ] } },
{ "type": "Feature", "properties": { "id": "node/3478521337", "name": null, "name_en": null, "name_ne": null, "status": "Standing", "place": "hamlet", "population": null, "is_in": null, "source": null, "adm0_pcode": "NPL", "adm0_name": "Nepal", "adm1_pcode": "NP03", "adm1_name": "Bagmati", "adm2_pcode": "NP0328", "adm2_name": "Nuwakot", "adm3_pcode": "NP0328301", "adm3_name": "Bidur", "adm4_pcode": null, "adm4_name": null, "name_latin": null }, "geometry": { "type": "Point", "coordinates": [ 85.0809059, 27.8542441 ] } },
{ "type": "Feature", "properties": { "id": "node/3478521339", "name": null, "name_en": null, "name_ne": null, "status": "Standing", "place": "hamlet", "population": null, "is_in": null, "source": null, "adm0_pcode": "NPL", "adm0_name": "Nepal", "adm1_pcode": "NP03", "adm1_name": "Bagmati", "adm2_pcode": "NP0328", "adm2_name": "Nuwakot", "adm3_pcode": "NP0328301", "adm3_name": "Bidur", "adm4_pcode": null, "adm4_name": null, "name_latin": null }, "geometry": { "type": "Point", "coordinates": [ 85.08496, 27.8579257 ] } },
{ "type": "Feature", "properties": { "id": "node/4156044161", "name": "देवीघाट", "name_en": "Devighat", "name_ne": "देवीघाट", "status": "Standing", "place": "hamlet", "population": null, "is_in": null, "source": null, "adm0_pcode": "NPL", "adm0_name": "Nepal", "adm1_pcode": "NP03", "adm1_name": "Bagmati", "adm2_pcode": "NP0328", "adm2_name": "Nuwakot", "adm3_pcode": "NP0328301", "adm3_name": "Bidur", "adm4_pcode": null, "adm4_name": null, "name_latin": "Devighat" }, "geometry": { "type": "Point", "coordinates": [ 85.1100635, 27.8600323 ] } },
{ "type": "Feature", "properties": { "id": "node/14144131034", "name": null, "name_en": null, "name_ne": null, "status": "Standing", "place": "village", "population": null, "is_in": null, "source": null, "adm0_pcode": "NPL", "adm0_name": "Nepal", "adm1_pcode": "NP03", "adm1_name": "Bagmati", "adm2_pcode": "NP0330", "adm2_name": "Dhading", "adm3_pcode": "NP0330410", "adm3_name": "Galchhi", "adm4_pcode": null, "adm4_name": null, "name_latin": null }, "geometry": { "type": "Point", "coordinates": [ 85.0009391, 27.8032018 ] } },
{ "type": "Feature", "properties": { "id": "node/14127413536", "name": "स्याफ्रु बेसी", "name_en": "Shyaphru Bensi", "name_ne": "स्याफ्रु बेसी", "status": "Standing", "place": "hamlet", "population": null, "is_in": null, "source": null, "adm0_pcode": "NPL", "adm0_name": "Nepal", "adm1_pcode": "NP03", "adm1_name": "Bagmati", "adm2_pcode": "NP0329", "adm2_name": "Rasuwa", "adm3_pcode": "NP0329402", "adm3_name": "Gosaikunda", "adm4_pcode": null, "adm4_name": null, "name_latin": "Shyaphru Bensi" }, "geometry": { "type": "Point", "coordinates": [ 85.3427433, 28.164569 ] } },
{ "type": "Feature", "properties": { "id": "node/3510164368", "name": null, "name_en": null, "name_ne": null, "status": "Standing", "place": "hamlet", "population": null, "is_in": null, "source": null, "adm0_pcode": "NPL", "adm0_name": "Nepal", "adm1_pcode": "NP03", "adm1_name": "Bagmati", "adm2_pcode": "NP0329", "adm2_name": "Rasuwa", "adm3_pcode": "NP0329402", "adm3_name": "Gosaikunda", "adm4_pcode": null, "adm4_name": null, "name_latin": null }, "geometry": { "type": "Point", "coordinates": [ 85.3458212, 28.1767222 ] } },
{ "type": "Feature", "properties": { "id": "node/267564991", "name": "स्याप्रु बेसी", "name_en": "Shyaphru", "name_ne": null, "status": "Standing", "place": "village", "population": null, "is_in": null, "source": null, "adm0_pcode": "NPL", "adm0_name": "Nepal", "adm1_pcode": "NP03", "adm1_name": "Bagmati", "adm2_pcode": "NP0329", "adm2_name": "Rasuwa", "adm3_pcode": "NP0329402", "adm3_name": "Gosaikunda", "adm4_pcode": null, "adm4_name": null, "name_latin": "Shyaphru" }, "geometry": { "type": "Point", "coordinates": [ 85.337252, 28.1636668 ] } },
{ "type": "Feature", "properties": { "id": "node/14139981839", "name": null, "name_en": null, "name_ne": null, "status": "Standing", "place": "hamlet", "population": null, "is_in": null, "source": null, "adm0_pcode": "NPL", "adm0_name": "Nepal", "adm1_pcode": "NP03", "adm1_name": "Bagmati", "adm2_pcode": "NP0329", "adm2_name": "Rasuwa", "adm3_pcode": "NP0329402", "adm3_name": "Gosaikunda", "adm4_pcode": null, "adm4_name": null, "name_latin": null }, "geometry": { "type": "Point", "coordinates": [ 85.3609613, 28.2257293 ] } },
{ "type": "Feature", "properties": { "id": "node/14139984646", "name": null, "name_en": null, "name_ne": null, "status": "Standing", "place": "village", "population": null, "is_in": null, "source": null, "adm0_pcode": "NPL", "adm0_name": "Nepal", "adm1_pcode": "NP03", "adm1_name": "Bagmati", "adm2_pcode": "NP0329", "adm2_name": "Rasuwa", "adm3_pcode": "NP0329402", "adm3_name": "Gosaikunda", "adm4_pcode": null, "adm4_name": null, "name_latin": null }, "geometry": { "type": "Point", "coordinates": [ 85.33647, 28.1624198 ] } },
{ "type": "Feature", "properties": { "id": "node/3013890964", "name": "पुराणो मलेखु", "name_en": "Purano Malekhu", "name_ne": "पुराणो मलेखु", "status": "Standing", "place": "hamlet", "population": null, "is_in": null, "source": null, "adm0_pcode": "NPL", "adm0_name": "Nepal", "adm1_pcode": "NP03", "adm1_name": "Bagmati", "adm2_pcode": "NP0330", "adm2_name": "Dhading", "adm3_pcode": "NP0330407", "adm3_name": "Siddhalek", "adm4_pcode": null, "adm4_name": null, "name_latin": "Purano Malekhu" }, "geometry": { "type": "Point", "coordinates": [ 84.836209, 27.8062193 ] } },
{ "type": "Feature", "properties": { "id": "node/4894808470", "name": "Ghyalchok", "name_en": null, "name_ne": null, "status": "Standing", "place": "village", "population": null, "is_in": null, "source": null, "adm0_pcode": "NPL", "adm0_name": "Nepal", "adm1_pcode": "NP03", "adm1_name": "Bagmati", "adm2_pcode": "NP0330", "adm2_name": "Dhading", "adm3_pcode": "NP0330408", "adm3_name": "Benighat Rorang", "adm4_pcode": null, "adm4_name": null, "name_latin": "Ghyalchok" }, "geometry": { "type": "Point", "coordinates": [ 84.7724679, 27.8106448 ] } },
{ "type": "Feature", "properties": { "id": "node/13235260367", "name": "बेनीघाट रोराङ", "name_en": "Benighat Rorang", "name_ne": "बेनीघाट रोराङ", "status": "Standing", "place": "village", "population": null, "is_in": null, "source": null, "adm0_pcode": "NPL", "adm0_name": "Nepal", "adm1_pcode": "NP03", "adm1_name": "Bagmati", "adm2_pcode": "NP0330", "adm2_name": "Dhading", "adm3_pcode": "NP0330408", "adm3_name": "Benighat Rorang", "adm4_pcode": null, "adm4_name": null, "name_latin": "Benighat Rorang" }, "geometry": { "type": "Point", "coordinates": [ 84.769707, 27.8074205 ] } },
{ "type": "Feature", "properties": { "id": "node/4941661567", "name": "Dhussa", "name_en": null, "name_ne": "धुस्सा", "status": "Standing", "place": "village", "population": null, "is_in": null, "source": null, "adm0_pcode": "NPL", "adm0_name": "Nepal", "adm1_pcode": "NP03", "adm1_name": "Bagmati", "adm2_pcode": "NP0330", "adm2_name": "Dhading", "adm3_pcode": "NP0330408", "adm3_name": "Benighat Rorang", "adm4_pcode": null, "adm4_name": null, "name_latin": "Dhussa" }, "geometry": { "type": "Point", "coordinates": [ 84.7516264, 27.8038614 ] } },
{ "type": "Feature", "properties": { "id": "node/14144169223", "name": null, "name_en": null, "name_ne": null, "status": "Standing", "place": "hamlet", "population": null, "is_in": null, "source": null, "adm0_pcode": "NPL", "adm0_name": "Nepal", "adm1_pcode": "NP04", "adm1_name": "Gandaki", "adm2_pcode": "NP0436", "adm2_name": "Gorkha", "adm3_pcode": "NP0436409", "adm3_name": "Gandaki", "adm4_pcode": null, "adm4_name": null, "name_latin": null }, "geometry": { "type": "Point", "coordinates": [ 84.6989465, 27.8093964 ] } },
{ "type": "Feature", "properties": { "id": "node/2857852085", "name": "भैंसे", "name_en": "Bhainse", "name_ne": "भैंसे", "status": "Standing", "place": "hamlet", "population": null, "is_in": null, "source": null, "adm0_pcode": "NPL", "adm0_name": "Nepal", "adm1_pcode": "NP03", "adm1_name": "Bagmati", "adm2_pcode": "NP0328", "adm2_name": "Nuwakot", "adm3_pcode": "NP0328301", "adm3_name": "Bidur", "adm4_pcode": null, "adm4_name": null, "name_latin": "Bhainse" }, "geometry": { "type": "Point", "coordinates": [ 85.1703311, 27.9603671 ] } },
{ "type": "Feature", "properties": { "id": "node/10603537479", "name": "नौविसे फाँट", "name_en": "Naubisephat", "name_ne": "नौविसे फाँट", "status": "Standing", "place": "hamlet", "population": null, "is_in": null, "source": null, "adm0_pcode": "NPL", "adm0_name": "Nepal", "adm1_pcode": "NP03", "adm1_name": "Bagmati", "adm2_pcode": "NP0328", "adm2_name": "Nuwakot", "adm3_pcode": "NP0328402", "adm3_name": "Kispang", "adm4_pcode": null, "adm4_name": null, "name_latin": "Naubisephat" }, "geometry": { "type": "Point", "coordinates": [ 85.1825623, 27.984691 ] } },
{ "type": "Feature", "properties": { "id": "node/268864226", "name": "बेत्रावती", "name_en": "Betrawati", "name_ne": "बेत्रावती", "status": "Standing", "place": "hamlet", "population": null, "is_in": null, "source": null, "adm0_pcode": "NPL", "adm0_name": "Nepal", "adm1_pcode": "NP03", "adm1_name": "Bagmati", "adm2_pcode": "NP0328", "adm2_name": "Nuwakot", "adm3_pcode": "NP0328301", "adm3_name": "Bidur", "adm4_pcode": null, "adm4_name": null, "name_latin": "Betrawati" }, "geometry": { "type": "Point", "coordinates": [ 85.1859528, 27.9731085 ] } },
{ "type": "Feature", "properties": { "id": "node/14137246821", "name": null, "name_en": "Trishuli", "name_ne": null, "status": "Standing", "place": "town", "population": null, "is_in": null, "source": null, "adm0_pcode": "NPL", "adm0_name": "Nepal", "adm1_pcode": "NP03", "adm1_name": "Bagmati", "adm2_pcode": "NP0328", "adm2_name": "Nuwakot", "adm3_pcode": "NP0328301", "adm3_name": "Bidur", "adm4_pcode": null, "adm4_name": null, "name_latin": "Trishuli" }, "geometry": { "type": "Point", "coordinates": [ 85.1479929, 27.9231601 ] } },
{ "type": "Feature", "properties": { "id": "node/279374585", "name": "आदमघाट", "name_en": "Adamghat", "name_ne": "आदमघाट", "status": "Standing", "place": "hamlet", "population": null, "is_in": null, "source": null, "adm0_pcode": "NPL", "adm0_name": "Nepal", "adm1_pcode": "NP03", "adm1_name": "Bagmati", "adm2_pcode": "NP0330", "adm2_name": "Dhading", "adm3_pcode": "NP0330407", "adm3_name": "Siddhalek", "adm4_pcode": null, "adm4_name": null, "name_latin": "Adamghat" }, "geometry": { "type": "Point", "coordinates": [ 84.942947, 27.8069683 ] } },
{ "type": "Feature", "properties": { "id": "node/11765507564", "name": "महेश-दोभान", "name_en": "MaheshDovan", "name_ne": "महेश-दोभान", "status": "Standing", "place": "hamlet", "population": null, "is_in": null, "source": null, "adm0_pcode": "NPL", "adm0_name": "Nepal", "adm1_pcode": "NP03", "adm1_name": "Bagmati", "adm2_pcode": "NP0330", "adm2_name": "Dhading", "adm3_pcode": "NP0330410", "adm3_name": "Galchhi", "adm4_pcode": null, "adm4_name": null, "name_latin": "MaheshDovan" }, "geometry": { "type": "Point", "coordinates": [ 84.980042, 27.8010451 ] } },
{ "type": "Feature", "properties": { "id": "node/2862517103", "name": "घाटबेंसी", "name_en": "Ghatbesi", "name_ne": "घाटबेंसी", "status": "Standing", "place": "hamlet", "population": null, "is_in": null, "source": null, "adm0_pcode": "NPL", "adm0_name": "Nepal", "adm1_pcode": "NP03", "adm1_name": "Bagmati", "adm2_pcode": "NP0330", "adm2_name": "Dhading", "adm3_pcode": "NP0330407", "adm3_name": "Siddhalek", "adm4_pcode": null, "adm4_name": null, "name_latin": "Ghatbesi" }, "geometry": { "type": "Point", "coordinates": [ 84.9052684, 27.8044981 ] } },
{ "type": "Feature", "properties": { "id": "node/14144148610", "name": null, "name_en": null, "name_ne": null, "status": "Standing", "place": "hamlet", "population": null, "is_in": null, "source": null, "adm0_pcode": "NPL", "adm0_name": "Nepal", "adm1_pcode": "NP03", "adm1_name": "Bagmati", "adm2_pcode": "NP0330", "adm2_name": "Dhading", "adm3_pcode": "NP0330410", "adm3_name": "Galchhi", "adm4_pcode": null, "adm4_name": null, "name_latin": null }, "geometry": { "type": "Point", "coordinates": [ 84.9953788, 27.8057997 ] } },
{ "type": "Feature", "properties": { "id": "node/3415533959", "name": "मैलुङ", "name_en": "Mailung", "name_ne": "मैलुङ", "status": "Standing", "place": "hamlet", "population": null, "is_in": null, "source": null, "adm0_pcode": "NPL", "adm0_name": "Nepal", "adm1_pcode": "NP03", "adm1_name": "Bagmati", "adm2_pcode": "NP0329", "adm2_name": "Rasuwa", "adm3_pcode": "NP0329403", "adm3_name": "Uttargaya", "adm4_pcode": null, "adm4_name": null, "name_latin": "Mailung" }, "geometry": { "type": "Point", "coordinates": [ 85.2070031, 28.0717737 ] } },
{ "type": "Feature", "properties": { "id": "node/1537553866", "name": "सलाङघाट", "name_en": "Salanghat", "name_ne": "सलाङघाट", "status": "Standing", "place": "hamlet", "population": null, "is_in": null, "source": null, "adm0_pcode": "NPL", "adm0_name": "Nepal", "adm1_pcode": "NP03", "adm1_name": "Bagmati", "adm2_pcode": "NP0330", "adm2_name": "Dhading", "adm3_pcode": "NP0330408", "adm3_name": "Benighat Rorang", "adm4_pcode": null, "adm4_name": null, "name_latin": "Salanghat" }, "geometry": { "type": "Point", "coordinates": [ 84.8083472, 27.8163594 ] } },
{ "type": "Feature", "properties": { "id": "node/2862498799", "name": "फिस्लिङ", "name_en": "Phishling", "name_ne": "फिस्लिङ", "status": "Standing", "place": "hamlet", "population": null, "is_in": null, "source": null, "adm0_pcode": "NPL", "adm0_name": "Nepal", "adm1_pcode": "NP03", "adm1_name": "Bagmati", "adm2_pcode": "NP0335", "adm2_name": "Chitawan", "adm3_pcode": "NP0335401", "adm3_name": "Ichchha Kamana", "adm4_pcode": null, "adm4_name": null, "name_latin": "Phishling" }, "geometry": { "type": "Point", "coordinates": [ 84.661724, 27.8428051 ] } },
{ "type": "Feature", "properties": { "id": "node/567088223", "name": "मुग्लिङ", "name_en": "Mugling", "name_ne": "मुग्लिङ", "status": "Standing", "place": "hamlet", "population": "1500", "is_in": null, "source": null, "adm0_pcode": "NPL", "adm0_name": "Nepal", "adm1_pcode": "NP03", "adm1_name": "Bagmati", "adm2_pcode": "NP0335", "adm2_name": "Chitawan", "adm3_pcode": "NP0335401", "adm3_name": "Ichchha Kamana", "adm4_pcode": null, "adm4_name": null, "name_latin": "Mugling" }, "geometry": { "type": "Point", "coordinates": [ 84.560951, 27.8561616 ] } },
{ "type": "Feature", "properties": { "id": "node/14144159286", "name": null, "name_en": null, "name_ne": null, "status": "Standing", "place": "hamlet", "population": null, "is_in": null, "source": null, "adm0_pcode": "NPL", "adm0_name": "Nepal", "adm1_pcode": "NP04", "adm1_name": "Gandaki", "adm2_pcode": "NP0436", "adm2_name": "Gorkha", "adm3_pcode": "NP0436409", "adm3_name": "Gandaki", "adm4_pcode": null, "adm4_name": null, "name_latin": null }, "geometry": { "type": "Point", "coordinates": [ 84.6964869, 27.8104135 ] } },
{ "type": "Feature", "properties": { "id": "node/14144159289", "name": null, "name_en": null, "name_ne": null, "status": "Standing", "place": "hamlet", "population": null, "is_in": null, "source": null, "adm0_pcode": "NPL", "adm0_name": "Nepal", "adm1_pcode": "NP04", "adm1_name": "Gandaki", "adm2_pcode": "NP0436", "adm2_name": "Gorkha", "adm3_pcode": "NP0436409", "adm3_name": "Gandaki", "adm4_pcode": null, "adm4_name": null, "name_latin": null }, "geometry": { "type": "Point", "coordinates": [ 84.6978381, 27.8058638 ] } },
{ "type": "Feature", "properties": { "id": "node/14144169212", "name": null, "name_en": null, "name_ne": null, "status": "Standing", "place": "hamlet", "population": null, "is_in": null, "source": null, "adm0_pcode": "NPL", "adm0_name": "Nepal", "adm1_pcode": "NP03", "adm1_name": "Bagmati", "adm2_pcode": "NP0330", "adm2_name": "Dhading", "adm3_pcode": "NP0330408", "adm3_name": "Benighat Rorang", "adm4_pcode": null, "adm4_name": null, "name_latin": null }, "geometry": { "type": "Point", "coordinates": [ 84.7010091, 27.8063311 ] } },
{ "type": "Feature", "properties": { "id": "node/14144169213", "name": null, "name_en": null, "name_ne": null, "status": "Standing", "place": "hamlet", "population": null, "is_in": null, "source": null, "adm0_pcode": "NPL", "adm0_name": "Nepal", "adm1_pcode": "NP03", "adm1_name": "Bagmati", "adm2_pcode": "NP0330", "adm2_name": "Dhading", "adm3_pcode": "NP0330408", "adm3_name": "Benighat Rorang", "adm4_pcode": null, "adm4_name": null, "name_latin": null }, "geometry": { "type": "Point", "coordinates": [ 84.7034606, 27.8058258 ] } },
{ "type": "Feature", "properties": { "id": "node/14144169214", "name": null, "name_en": null, "name_ne": null, "status": "Standing", "place": "hamlet", "population": null, "is_in": null, "source": null, "adm0_pcode": "NPL", "adm0_name": "Nepal", "adm1_pcode": "NP03", "adm1_name": "Bagmati", "adm2_pcode": "NP0330", "adm2_name": "Dhading", "adm3_pcode": "NP0330408", "adm3_name": "Benighat Rorang", "adm4_pcode": null, "adm4_name": null, "name_latin": null }, "geometry": { "type": "Point", "coordinates": [ 84.7021651, 27.8088365 ] } },
{ "type": "Feature", "properties": { "id": "node/14144169222", "name": null, "name_en": null, "name_ne": null, "status": "Standing", "place": "hamlet", "population": null, "is_in": null, "source": null, "adm0_pcode": "NPL", "adm0_name": "Nepal", "adm1_pcode": "NP04", "adm1_name": "Gandaki", "adm2_pcode": "NP0436", "adm2_name": "Gorkha", "adm3_pcode": "NP0436409", "adm3_name": "Gandaki", "adm4_pcode": null, "adm4_name": null, "name_latin": null }, "geometry": { "type": "Point", "coordinates": [ 84.6907604, 27.8111709 ] } },
{ "type": "Feature", "properties": { "id": "node/3013890962", "name": "मलेखु", "name_en": "Malekhu", "name_ne": "मलेखु", "status": "Standing", "place": "hamlet", "population": null, "is_in": null, "source": null, "adm0_pcode": "NPL", "adm0_name": "Nepal", "adm1_pcode": "NP03", "adm1_name": "Bagmati", "adm2_pcode": "NP0330", "adm2_name": "Dhading", "adm3_pcode": "NP0330408", "adm3_name": "Benighat Rorang", "adm4_pcode": null, "adm4_name": null, "name_latin": "Malekhu" }, "geometry": { "type": "Point", "coordinates": [ 84.82724, 27.813705 ] } },
{ "type": "Feature", "properties": { "id": "way/1554720847", "name": null, "name_en": null, "name_ne": null, "status": "Standing", "place": "village", "population": null, "is_in": null, "source": null, "adm0_pcode": "NPL", "adm0_name": "Nepal", "adm1_pcode": "NP03", "adm1_name": "Bagmati", "adm2_pcode": "NP0335", "adm2_name": "Chitawan", "adm3_pcode": "NP0335401", "adm3_name": "Ichchha Kamana", "adm4_pcode": null, "adm4_name": null, "name_latin": null }, "geometry": { "type": "Polygon", "coordinates": [ [ [ 84.6388757, 27.8592154 ], [ 84.6391761, 27.8586178 ], [ 84.6400452, 27.8583427 ], [ 84.6398842, 27.8577356 ], [ 84.6404099, 27.8573847 ], [ 84.6413004, 27.8576408 ], [ 84.6419442, 27.8572519 ], [ 84.6432316, 27.8572993 ], [ 84.6431994, 27.8577546 ], [ 84.6444547, 27.8575744 ], [ 84.645549, 27.8575459 ], [ 84.6461606, 27.857821 ], [ 84.6459138, 27.8570242 ], [ 84.6464074, 27.8566922 ], [ 84.6472227, 27.8577926 ], [ 84.647491, 27.8571855 ], [ 84.6485746, 27.857802 ], [ 84.6487462, 27.858779 ], [ 84.6478879, 27.8592343 ], [ 84.6466005, 27.8598129 ], [ 84.6458387, 27.8600216 ], [ 84.6445513, 27.859775 ], [ 84.6422124, 27.8592533 ], [ 84.6411073, 27.8592343 ], [ 84.6402275, 27.8593102 ], [ 84.6396428, 27.859315 ], [ 84.6392392, 27.8593908 ], [ 84.6388757, 27.8592154 ] ] ] } },
{ "type": "Feature", "properties": { "id": "way/594033473", "name": null, "name_en": null, "name_ne": null, "status": "Standing", "place": "village", "population": null, "is_in": null, "source": null, "adm0_pcode": "NPL", "adm0_name": "Nepal", "adm1_pcode": "NP03", "adm1_name": "Bagmati", "adm2_pcode": "NP0330", "adm2_name": "Dhading", "adm3_pcode": "NP0330410", "adm3_name": "Galchhi", "adm4_pcode": null, "adm4_name": null, "name_latin": null }, "geometry": { "type": "Polygon", "coordinates": [ [ [ 85.0025151, 27.8051335 ], [ 85.0026582, 27.8045945 ], [ 85.002666, 27.8042714 ], [ 85.002601, 27.8040629 ], [ 85.0025877, 27.8039397 ], [ 85.0026533, 27.8036034 ], [ 85.0028193, 27.8036249 ], [ 85.0028388, 27.8039689 ], [ 85.002782, 27.8040759 ], [ 85.0026858, 27.8040738 ], [ 85.0027783, 27.8043049 ], [ 85.0029337, 27.8043637 ], [ 85.0028835, 27.8045328 ], [ 85.0027527, 27.8046685 ], [ 85.0027173, 27.8050379 ], [ 85.0030311, 27.8051073 ], [ 85.0031417, 27.8047094 ], [ 85.0036478, 27.8048605 ], [ 85.0036057, 27.8052056 ], [ 85.0036256, 27.8053568 ], [ 85.0039946, 27.8054105 ], [ 85.0037471, 27.805774 ], [ 85.003635, 27.8058608 ], [ 85.0037517, 27.8059723 ], [ 85.0036583, 27.8061747 ], [ 85.0038218, 27.8062119 ], [ 85.0039199, 27.8061169 ], [ 85.0040693, 27.8061953 ], [ 85.0044382, 27.8063358 ], [ 85.0045215, 27.8064645 ], [ 85.0042808, 27.8067369 ], [ 85.0041703, 27.8067043 ], [ 85.0041025, 27.8066008 ], [ 85.0043613, 27.8065899 ], [ 85.0044232, 27.806499 ], [ 85.0042566, 27.8063936 ], [ 85.0043777, 27.8063447 ], [ 85.0039959, 27.8062223 ], [ 85.0038725, 27.806488 ], [ 85.0037143, 27.8064481 ], [ 85.0037921, 27.806279 ], [ 85.0033384, 27.8062301 ], [ 85.0034538, 27.8060862 ], [ 85.0034938, 27.805866 ], [ 85.0033449, 27.8056195 ], [ 85.0030673, 27.8055379 ], [ 85.0032537, 27.80533 ], [ 85.0028023, 27.8051836 ], [ 85.0025151, 27.8051335 ] ] ] } },
{ "type": "Feature", "properties": { "id": "way/594031994", "name": null, "name_en": null, "name_ne": null, "status": "Standing", "place": "village", "population": null, "is_in": null, "source": null, "adm0_pcode": "NPL", "adm0_name": "Nepal", "adm1_pcode": "NP03", "adm1_name": "Bagmati", "adm2_pcode": "NP0330", "adm2_name": "Dhading", "adm3_pcode": "NP0330410", "adm3_name": "Galchhi", "adm4_pcode": null, "adm4_name": null, "name_latin": null }, "geometry": { "type": "Polygon", "coordinates": [ [ [ 84.9763634, 27.8032709 ], [ 84.9764708, 27.8031061 ], [ 84.9767015, 27.8030312 ], [ 84.9770769, 27.8032166 ], [ 84.9773216, 27.8032446 ], [ 84.9774809, 27.8032634 ], [ 84.9776402, 27.8032446 ], [ 84.9776032, 27.802979 ], [ 84.9783646, 27.8029092 ], [ 84.9783621, 27.8030592 ], [ 84.977876, 27.8031056 ], [ 84.9778495, 27.8032046 ], [ 84.9776968, 27.8032477 ], [ 84.9776685, 27.8034011 ], [ 84.9773853, 27.8033949 ], [ 84.9773361, 27.8033945 ], [ 84.9773628, 27.8035919 ], [ 84.9771234, 27.8036328 ], [ 84.977081, 27.803495 ], [ 84.9772579, 27.8034293 ], [ 84.9772615, 27.8033792 ], [ 84.9770385, 27.8034074 ], [ 84.9770279, 27.8032947 ], [ 84.9768464, 27.8032401 ], [ 84.9766269, 27.8032082 ], [ 84.9764258, 27.8033465 ], [ 84.9763634, 27.8032709 ] ] ] } },
{ "type": "Feature", "properties": { "id": "way/594010906", "name": null, "name_en": null, "name_ne": null, "status": "Standing", "place": "village", "population": null, "is_in": null, "source": null, "adm0_pcode": "NPL", "adm0_name": "Nepal", "adm1_pcode": "NP03", "adm1_name": "Bagmati", "adm2_pcode": "NP0330", "adm2_name": "Dhading", "adm3_pcode": "NP0330409", "adm3_name": "Gajuri", "adm4_pcode": null, "adm4_name": null, "name_latin": null }, "geometry": { "type": "Polygon", "coordinates": [ [ [ 84.9320666, 27.8001582 ], [ 84.9323341, 27.7998687 ], [ 84.9327428, 27.799753 ], [ 84.9328752, 27.7997026 ], [ 84.9332794, 27.7999353 ], [ 84.9335857, 27.8001055 ], [ 84.9334289, 27.8005995 ], [ 84.9328574, 27.8007227 ], [ 84.9320666, 27.8001582 ] ] ] } },
{ "type": "Feature", "properties": { "id": "way/594029427", "name": null, "name_en": null, "name_ne": null, "status": "Standing", "place": "village", "population": null, "is_in": null, "source": null, "adm0_pcode": "NPL", "adm0_name": "Nepal", "adm1_pcode": "NP03", "adm1_name": "Bagmati", "adm2_pcode": "NP0330", "adm2_name": "Dhading", "adm3_pcode": "NP0330410", "adm3_name": "Galchhi", "adm4_pcode": null, "adm4_name": null, "name_latin": null }, "geometry": { "type": "Polygon", "coordinates": [ [ [ 84.9727409, 27.8068082 ], [ 84.9730202, 27.8065602 ], [ 84.9731585, 27.8067184 ], [ 84.973256, 27.8067831 ], [ 84.9733211, 27.8068982 ], [ 84.9733211, 27.807078 ], [ 84.9733536, 27.8072865 ], [ 84.9732796, 27.8074324 ], [ 84.9730435, 27.8073821 ], [ 84.9731059, 27.8071933 ], [ 84.9730609, 27.8070276 ], [ 84.9727409, 27.8068082 ] ] ] } },
{ "type": "Feature", "properties": { "id": "way/594029433", "name": null, "name_en": null, "name_ne": null, "status": "Standing", "place": "village", "population": null, "is_in": null, "source": null, "adm0_pcode": "NPL", "adm0_name": "Nepal", "adm1_pcode": "NP03", "adm1_name": "Bagmati", "adm2_pcode": "NP0330", "adm2_name": "Dhading", "adm3_pcode": "NP0330410", "adm3_name": "Galchhi", "adm4_pcode": null, "adm4_name": null, "name_latin": null }, "geometry": { "type": "Polygon", "coordinates": [ [ [ 84.9741372, 27.8031352 ], [ 84.9743639, 27.8029861 ], [ 84.9744846, 27.8030597 ], [ 84.9742888, 27.803259 ], [ 84.9741896, 27.8032044 ], [ 84.9741372, 27.8031352 ] ] ] } },
{ "type": "Feature", "properties": { "id": "way/340489102", "name": "Keurintar Village Area", "name_en": null, "name_ne": null, "status": "Standing", "place": "village", "population": null, "is_in": null, "source": null, "adm0_pcode": "NPL", "adm0_name": "Nepal", "adm1_pcode": "NP03", "adm1_name": "Bagmati", "adm2_pcode": "NP0330", "adm2_name": "Dhading", "adm3_pcode": "NP0330410", "adm3_name": "Galchhi", "adm4_pcode": null, "adm4_name": null, "name_latin": "Keurintar Village Area" }, "geometry": { "type": "Polygon", "coordinates": [ [ [ 84.9638265, 27.8180936 ], [ 84.9639481, 27.8177686 ], [ 84.9644537, 27.8177487 ], [ 84.9647492, 27.8175535 ], [ 84.9648898, 27.8175844 ], [ 84.9650378, 27.8177671 ], [ 84.9653351, 27.8179031 ], [ 84.9654359, 27.8179893 ], [ 84.9650183, 27.8181574 ], [ 84.964985, 27.8182128 ], [ 84.9651197, 27.8185289 ], [ 84.9648666, 27.8185947 ], [ 84.9646013, 27.8184131 ], [ 84.9645708, 27.8182151 ], [ 84.964539, 27.8181332 ], [ 84.9638265, 27.8180936 ] ] ] } },
{ "type": "Feature", "properties": { "id": "way/594029432", "name": null, "name_en": null, "name_ne": null, "status": "Standing", "place": "village", "population": null, "is_in": null, "source": null, "adm0_pcode": "NPL", "adm0_name": "Nepal", "adm1_pcode": "NP03", "adm1_name": "Bagmati", "adm2_pcode": "NP0330", "adm2_name": "Dhading", "adm3_pcode": "NP0330410", "adm3_name": "Galchhi", "adm4_pcode": null, "adm4_name": null, "name_latin": null }, "geometry": { "type": "Polygon", "coordinates": [ [ [ 84.9740554, 27.8045284 ], [ 84.9741399, 27.8044573 ], [ 84.9742124, 27.8043802 ], [ 84.9742915, 27.8043861 ], [ 84.9743612, 27.8043328 ], [ 84.9744524, 27.8043007 ], [ 84.9744319, 27.8044018 ], [ 84.9745539, 27.804276 ], [ 84.9746558, 27.8043045 ], [ 84.9748967, 27.8040263 ], [ 84.9748775, 27.80391 ], [ 84.9749728, 27.8038019 ], [ 84.975153, 27.8039008 ], [ 84.9752039, 27.8039404 ], [ 84.9753319, 27.8040824 ], [ 84.9753888, 27.8040537 ], [ 84.9755942, 27.8038792 ], [ 84.9754701, 27.8038086 ], [ 84.9757781, 27.8034076 ], [ 84.9759022, 27.8034931 ], [ 84.9758096, 27.8036958 ], [ 84.9757004, 27.8038136 ], [ 84.9757532, 27.8038658 ], [ 84.9756902, 27.8040096 ], [ 84.9756282, 27.8040758 ], [ 84.9755372, 27.8041383 ], [ 84.9754524, 27.8040959 ], [ 84.9753975, 27.8041643 ], [ 84.9753589, 27.8042506 ], [ 84.9754727, 27.8042614 ], [ 84.9755398, 27.8042793 ], [ 84.9755698, 27.8043407 ], [ 84.9754971, 27.804425 ], [ 84.9753203, 27.8044304 ], [ 84.975243, 27.8043818 ], [ 84.9752898, 27.8042775 ], [ 84.9752654, 27.8042524 ], [ 84.9751685, 27.80436 ], [ 84.97508, 27.8043291 ], [ 84.9750881, 27.8041809 ], [ 84.9749459, 27.8040527 ], [ 84.9746965, 27.8043386 ], [ 84.9746482, 27.8044312 ], [ 84.9746254, 27.8044744 ], [ 84.9744738, 27.8044976 ], [ 84.9743934, 27.8046257 ], [ 84.9741815, 27.804621 ], [ 84.9740554, 27.8045284 ] ] ] } },
{ "type": "Feature", "properties": { "id": "way/594029436", "name": null, "name_en": null, "name_ne": null, "status": "Standing", "place": "village", "population": null, "is_in": null, "source": null, "adm0_pcode": "NPL", "adm0_name": "Nepal", "adm1_pcode": "NP03", "adm1_name": "Bagmati", "adm2_pcode": "NP0330", "adm2_name": "Dhading", "adm3_pcode": "NP0330410", "adm3_name": "Galchhi", "adm4_pcode": null, "adm4_name": null, "name_latin": null }, "geometry": { "type": "Polygon", "coordinates": [ [ [ 84.9758437, 27.80377 ], [ 84.9759944, 27.8036122 ], [ 84.9760991, 27.8034979 ], [ 84.9760696, 27.8033212 ], [ 84.9762493, 27.8032251 ], [ 84.9764934, 27.8035038 ], [ 84.9762466, 27.8035833 ], [ 84.9763164, 27.8037636 ], [ 84.9765095, 27.8037945 ], [ 84.976531, 27.8039914 ], [ 84.9761742, 27.8039896 ], [ 84.976252, 27.8037541 ], [ 84.9759161, 27.8038561 ], [ 84.9758437, 27.80377 ] ] ] } },
{ "type": "Feature", "properties": { "id": "way/594031999", "name": null, "name_en": null, "name_ne": null, "status": "Standing", "place": "village", "population": null, "is_in": null, "source": null, "adm0_pcode": "NPL", "adm0_name": "Nepal", "adm1_pcode": "NP03", "adm1_name": "Bagmati", "adm2_pcode": "NP0330", "adm2_name": "Dhading", "adm3_pcode": "NP0330410", "adm3_name": "Galchhi", "adm4_pcode": null, "adm4_name": null, "name_latin": null }, "geometry": { "type": "Polygon", "coordinates": [ [ [ 84.9888223, 27.8065977 ], [ 84.9892232, 27.8061488 ], [ 84.9895219, 27.8062858 ], [ 84.989578, 27.8064772 ], [ 84.989441, 27.8065468 ], [ 84.9891784, 27.8063908 ], [ 84.9890243, 27.8065416 ], [ 84.9898405, 27.807249 ], [ 84.9897272, 27.8073988 ], [ 84.9895036, 27.807219 ], [ 84.9891215, 27.8069026 ], [ 84.9888223, 27.8065977 ] ] ] } },
{ "type": "Feature", "properties": { "id": "way/594010908", "name": null, "name_en": null, "name_ne": null, "status": "Standing", "place": "village", "population": null, "is_in": null, "source": null, "adm0_pcode": "NPL", "adm0_name": "Nepal", "adm1_pcode": "NP03", "adm1_name": "Bagmati", "adm2_pcode": "NP0330", "adm2_name": "Dhading", "adm3_pcode": "NP0330407", "adm3_name": "Siddhalek", "adm4_pcode": null, "adm4_name": null, "name_latin": null }, "geometry": { "type": "Polygon", "coordinates": [ [ [ 84.9332657, 27.8015999 ], [ 84.9338638, 27.8009805 ], [ 84.9351987, 27.8018351 ], [ 84.934927, 27.802271 ], [ 84.9332657, 27.8015999 ] ] ] } },
{ "type": "Feature", "properties": { "id": "way/594010907", "name": null, "name_en": null, "name_ne": null, "status": "Standing", "place": "village", "population": null, "is_in": null, "source": null, "adm0_pcode": "NPL", "adm0_name": "Nepal", "adm1_pcode": "NP03", "adm1_name": "Bagmati", "adm2_pcode": "NP0330", "adm2_name": "Dhading", "adm3_pcode": "NP0330407", "adm3_name": "Siddhalek", "adm4_pcode": null, "adm4_name": null, "name_latin": null }, "geometry": { "type": "Polygon", "coordinates": [ [ [ 84.9335169, 27.8022105 ], [ 84.9336898, 27.8019218 ], [ 84.934859, 27.8023821 ], [ 84.9346386, 27.802679 ], [ 84.9335169, 27.8022105 ] ] ] } },
{ "type": "Feature", "properties": { "id": "way/311549069", "name": "Adamghat", "name_en": null, "name_ne": null, "status": "Standing", "place": "village", "population": null, "is_in": null, "source": "Bing", "adm0_pcode": "NPL", "adm0_name": "Nepal", "adm1_pcode": "NP03", "adm1_name": "Bagmati", "adm2_pcode": "NP0330", "adm2_name": "Dhading", "adm3_pcode": "NP0330407", "adm3_name": "Siddhalek", "adm4_pcode": null, "adm4_name": null, "name_latin": "Adamghat" }, "geometry": { "type": "Polygon", "coordinates": [ [ [ 84.941474, 27.8052085 ], [ 84.9415713, 27.80513 ], [ 84.9420254, 27.8054867 ], [ 84.9423597, 27.805791 ], [ 84.9425423, 27.8056552 ], [ 84.9427954, 27.8058395 ], [ 84.943245, 27.8060729 ], [ 84.9431705, 27.8062629 ], [ 84.9434584, 27.8065057 ], [ 84.943669, 27.8068793 ], [ 84.9440392, 27.8068816 ], [ 84.9442704, 27.8071072 ], [ 84.9444787, 27.8077527 ], [ 84.9445021, 27.8079521 ], [ 84.9444665, 27.8080935 ], [ 84.9446449, 27.8080346 ], [ 84.9448031, 27.8079421 ], [ 84.9450794, 27.8078946 ], [ 84.945471, 27.8079254 ], [ 84.9455763, 27.808265 ], [ 84.9456868, 27.8084783 ], [ 84.945829, 27.8085182 ], [ 84.9460623, 27.8087079 ], [ 84.9463171, 27.808689 ], [ 84.9464293, 27.8091376 ], [ 84.9475359, 27.8091467 ], [ 84.9479317, 27.8098652 ], [ 84.9473632, 27.8100405 ], [ 84.9470468, 27.8099829 ], [ 84.947146, 27.8100911 ], [ 84.9474249, 27.8104422 ], [ 84.9474249, 27.8104517 ], [ 84.9472808, 27.8105977 ], [ 84.9472, 27.8106662 ], [ 84.9469743, 27.8108028 ], [ 84.9469389, 27.8107947 ], [ 84.9465988, 27.8107174 ], [ 84.9464164, 27.8106035 ], [ 84.9462541, 27.8105317 ], [ 84.9460945, 27.8104612 ], [ 84.9457619, 27.8104707 ], [ 84.9456428, 27.8108152 ], [ 84.9453174, 27.81095 ], [ 84.9449546, 27.8114434 ], [ 84.944217, 27.81104 ], [ 84.9441419, 27.8106794 ], [ 84.9441956, 27.8106106 ], [ 84.9441116, 27.810316 ], [ 84.9440252, 27.8100394 ], [ 84.9440099, 27.8099561 ], [ 84.9439582, 27.809636 ], [ 84.9438161, 27.8093347 ], [ 84.9439689, 27.8092398 ], [ 84.9437825, 27.8087483 ], [ 84.943639, 27.8081983 ], [ 84.9433751, 27.8082435 ], [ 84.9432704, 27.8080264 ], [ 84.9427147, 27.807521 ], [ 84.942156, 27.8072084 ], [ 84.9419892, 27.8070576 ], [ 84.9419818, 27.8066313 ], [ 84.9419225, 27.8061001 ], [ 84.9418024, 27.8058832 ], [ 84.941474, 27.8052085 ] ] ] } },
{ "type": "Feature", "properties": { "id": "way/594027680", "name": null, "name_en": null, "name_ne": null, "status": "Standing", "place": "village", "population": null, "is_in": null, "source": null, "adm0_pcode": "NPL", "adm0_name": "Nepal", "adm1_pcode": "NP03", "adm1_name": "Bagmati", "adm2_pcode": "NP0330", "adm2_name": "Dhading", "adm3_pcode": "NP0330410", "adm3_name": "Galchhi", "adm4_pcode": null, "adm4_name": null, "name_latin": null }, "geometry": { "type": "Polygon", "coordinates": [ [ [ 84.9690627, 27.8037474 ], [ 84.9691367, 27.8036329 ], [ 84.9694571, 27.803791 ], [ 84.9695232, 27.8036975 ], [ 84.9697062, 27.8037242 ], [ 84.9698659, 27.8036353 ], [ 84.9705087, 27.8035132 ], [ 84.9708091, 27.8036153 ], [ 84.9711204, 27.8037841 ], [ 84.9710565, 27.8039201 ], [ 84.9707771, 27.8039716 ], [ 84.970586, 27.803954 ], [ 84.9705534, 27.8037468 ], [ 84.970446, 27.8037007 ], [ 84.9701986, 27.803749 ], [ 84.9698835, 27.8039129 ], [ 84.9696465, 27.8038771 ], [ 84.9695637, 27.8040148 ], [ 84.9693955, 27.8040635 ], [ 84.9693893, 27.8038782 ], [ 84.9690627, 27.8037474 ] ] ] } },
{ "type": "Feature", "properties": { "id": "way/594084569", "name": null, "name_en": null, "name_ne": null, "status": "Standing", "place": "village", "population": null, "is_in": null, "source": null, "adm0_pcode": "NPL", "adm0_name": "Nepal", "adm1_pcode": "NP03", "adm1_name": "Bagmati", "adm2_pcode": "NP0330", "adm2_name": "Dhading", "adm3_pcode": "NP0330407", "adm3_name": "Siddhalek", "adm4_pcode": null, "adm4_name": null, "name_latin": null }, "geometry": { "type": "Polygon", "coordinates": [ [ [ 84.8378152, 27.8003555 ], [ 84.8378563, 27.8002926 ], [ 84.8379069, 27.8002959 ], [ 84.8379162, 27.800329 ], [ 84.8378601, 27.8003935 ], [ 84.8378152, 27.8003555 ] ] ] } },
{ "type": "Feature", "properties": { "id": "way/340415958", "name": null, "name_en": null, "name_ne": null, "status": "Standing", "place": "village", "population": null, "is_in": null, "source": null, "adm0_pcode": "NPL", "adm0_name": "Nepal", "adm1_pcode": "NP03", "adm1_name": "Bagmati", "adm2_pcode": "NP0328", "adm2_name": "Nuwakot", "adm3_pcode": "NP0328302", "adm3_name": "Belkotgadhi", "adm4_pcode": null, "adm4_name": null, "name_latin": null }, "geometry": { "type": "Polygon", "coordinates": [ [ [ 85.0459306, 27.8577795 ], [ 85.046155, 27.8568506 ], [ 85.0468966, 27.8569625 ], [ 85.0468449, 27.8573456 ], [ 85.0470384, 27.8573344 ], [ 85.0473878, 27.857257 ], [ 85.0479344, 27.8574842 ], [ 85.0483402, 27.8581454 ], [ 85.0487592, 27.8578974 ], [ 85.049094, 27.8580258 ], [ 85.0492437, 27.8584616 ], [ 85.0497976, 27.8586716 ], [ 85.0500094, 27.8584802 ], [ 85.0505117, 27.8587402 ], [ 85.0499123, 27.8589788 ], [ 85.0486261, 27.858476 ], [ 85.0480356, 27.858235 ], [ 85.0459306, 27.8577795 ] ] ] } },
{ "type": "Feature", "properties": { "id": "way/341426044", "name": null, "name_en": null, "name_ne": null, "status": "Standing", "place": "village", "population": null, "is_in": null, "source": null, "adm0_pcode": "NPL", "adm0_name": "Nepal", "adm1_pcode": "NP03", "adm1_name": "Bagmati", "adm2_pcode": "NP0335", "adm2_name": "Chitawan", "adm3_pcode": "NP0335401", "adm3_name": "Ichchha Kamana", "adm4_pcode": null, "adm4_name": null, "name_latin": null }, "geometry": { "type": "Polygon", "coordinates": [ [ [ 84.634316, 27.8655941 ], [ 84.6347588, 27.8646602 ], [ 84.6353003, 27.8630663 ], [ 84.6351367, 27.862943 ], [ 84.6354264, 27.8626158 ], [ 84.6353084, 27.8623645 ], [ 84.63467, 27.862151 ], [ 84.6347076, 27.8617005 ], [ 84.6350133, 27.8612262 ], [ 84.6357876, 27.8608326 ], [ 84.6361452, 27.8614729 ], [ 84.6363813, 27.8613163 ], [ 84.6366553, 27.8610888 ], [ 84.6372342, 27.8608041 ], [ 84.6375775, 27.8604982 ], [ 84.638232, 27.8604413 ], [ 84.6384358, 27.8608611 ], [ 84.6388516, 27.8607164 ], [ 84.6390891, 27.860931 ], [ 84.6393542, 27.8607383 ], [ 84.6395591, 27.8607029 ], [ 84.6397662, 27.8608041 ], [ 84.6399426, 27.8609293 ], [ 84.6403418, 27.8609477 ], [ 84.6411449, 27.8605765 ], [ 84.6420568, 27.8608611 ], [ 84.6422017, 27.8612784 ], [ 84.6438879, 27.8615682 ], [ 84.6489716, 27.8609393 ], [ 84.6491338, 27.861262 ], [ 84.6494168, 27.8611622 ], [ 84.6499693, 27.8603251 ], [ 84.6504199, 27.8596991 ], [ 84.650774, 27.8589024 ], [ 84.6521342, 27.8589805 ], [ 84.6526408, 27.8594146 ], [ 84.6531129, 27.860401 ], [ 84.653424, 27.8607852 ], [ 84.6540141, 27.8607188 ], [ 84.654395, 27.8608468 ], [ 84.6546525, 27.861193 ], [ 84.6544969, 27.8621178 ], [ 84.6534857, 27.861755 ], [ 84.6527347, 27.8615203 ], [ 84.6524799, 27.8613021 ], [ 84.6530324, 27.8608966 ], [ 84.6528983, 27.8607117 ], [ 84.6522734, 27.8609227 ], [ 84.6511468, 27.8612452 ], [ 84.6495187, 27.862355 ], [ 84.6488188, 27.8615999 ], [ 84.6466917, 27.8618191 ], [ 84.6442079, 27.8629952 ], [ 84.6443796, 27.86346 ], [ 84.6447873, 27.8641097 ], [ 84.6439934, 27.8638394 ], [ 84.6427035, 27.8631159 ], [ 84.6414354, 27.862367 ], [ 84.6411139, 27.8623668 ], [ 84.6416881, 27.8635495 ], [ 84.6413755, 27.864048 ], [ 84.6408958, 27.8632204 ], [ 84.6400881, 27.86346 ], [ 84.6395748, 27.8635352 ], [ 84.6392452, 27.8634514 ], [ 84.6390179, 27.8635833 ], [ 84.6387843, 27.86353 ], [ 84.6384781, 27.8642087 ], [ 84.6388435, 27.8655087 ], [ 84.6383232, 27.8663576 ], [ 84.6371698, 27.8660446 ], [ 84.6369874, 27.8653238 ], [ 84.6375883, 27.8650297 ], [ 84.638114, 27.8645792 ], [ 84.6383071, 27.8642662 ], [ 84.6381354, 27.8639437 ], [ 84.6376795, 27.8641192 ], [ 84.6367246, 27.8646646 ], [ 84.6361774, 27.8647333 ], [ 84.6358207, 27.8666326 ], [ 84.6352225, 27.8679178 ], [ 84.6347827, 27.8674626 ], [ 84.634552, 27.867069 ], [ 84.6350133, 27.8663955 ], [ 84.6350562, 27.8659592 ], [ 84.634316, 27.8655941 ] ] ] } },
{ "type": "Feature", "properties": { "id": "way/340415956", "name": null, "name_en": null, "name_ne": null, "status": "Standing", "place": "village", "population": null, "is_in": null, "source": null, "adm0_pcode": "NPL", "adm0_name": "Nepal", "adm1_pcode": "NP03", "adm1_name": "Bagmati", "adm2_pcode": "NP0328", "adm2_name": "Nuwakot", "adm3_pcode": "NP0328403", "adm3_name": "Tarakeshwor", "adm4_pcode": null, "adm4_name": null, "name_latin": null }, "geometry": { "type": "Polygon", "coordinates": [ [ [ 85.0514461, 27.8595058 ], [ 85.0521357, 27.8592419 ], [ 85.0519282, 27.8589214 ], [ 85.0515336, 27.8589136 ], [ 85.0521588, 27.858164 ], [ 85.0532552, 27.8587942 ], [ 85.0532703, 27.8588998 ], [ 85.0540226, 27.8594645 ], [ 85.0551256, 27.8598404 ], [ 85.0551564, 27.8600529 ], [ 85.0551814, 27.8600911 ], [ 85.0560687, 27.8601418 ], [ 85.0561486, 27.8604731 ], [ 85.0558827, 27.8613742 ], [ 85.0558529, 27.8614316 ], [ 85.0541614, 27.8608585 ], [ 85.0531413, 27.8605133 ], [ 85.052778, 27.8601229 ], [ 85.0514461, 27.8595058 ] ] ] } }
]
}
