{
"type": "FeatureCollection",
"name": "education_facilities",
"crs": { "type": "name", "properties": { "name": "urn:ogc:def:crs:OGC:1.3:CRS84" } },
"features": [
{ "type": "Feature", "properties": { "id": "fa56064e-8acc-457f-8e30-4a3589c5c23e", "name": "Atniranjana Higher Secondary School", "name_en": null, "category": "high_school", "address": "Belkot Gadi municipality", "phone": null, "website": null, "confidence": 0.82453340291976929, "source": "meta", "adm0_pcode": "NPL", "adm0_name": "Nepal", "adm1_pcode": "NP03", "adm1_name": "Bagmati", "adm2_pcode": "NP0328", "adm2_name": "Nuwakot", "adm3_pcode": "NP0328301", "adm3_name": "Bidur", "adm4_pcode": null, "adm4_name": null, "name_latin": "Atniranjana Higher Secondary School" }, "geometry": { "type": "Point", "coordinates": [ 85.1085809, 27.8595827 ] } },
{ "type": "Feature", "properties": { "id": "82f94f09-5bad-401f-9597-a998f951b4c2", "name": "Dram 0128 Qk11", "name_en": null, "category": "school", "address": "Bidur 7, Devighat", "phone": "+442076368636", "website": "http://www.satyamacademy.org/", "confidence": 0.6420058012008667, "source": "meta", "adm0_pcode": "NPL", "adm0_name": "Nepal", "adm1_pcode": "NP03", "adm1_name": "Bagmati", "adm2_pcode": "NP0328", "adm2_name": "Nuwakot", "adm3_pcode": "NP0328301", "adm3_name": "Bidur", "adm4_pcode": null, "adm4_name": null, "name_latin": "Dram 0128 Qk11" }, "geometry": { "type": "Point", "coordinates": [ 85.11219, 27.86121 ] } },
{ "type": "Feature", "properties": { "id": "b5d6f117-42fb-4aad-b7f8-17cb557555aa", "name": "Gyankunj Vidhyalaya", "name_en": null, "category": "elementary_school", "address": "Bidur-9, Bagtar", "phone": "+9779865459905", "website": null, "confidence": 0.89146023988723755, "source": "meta", "adm0_pcode": "NPL", "adm0_name": "Nepal", "adm1_pcode": "NP03", "adm1_name": "Bagmati", "adm2_pcode": "NP0328", "adm2_name": "Nuwakot", "adm3_pcode": "NP0328301", "adm3_name": "Bidur", "adm4_pcode": null, "adm4_name": null, "name_latin": "Gyankunj Vidhyalaya" }, "geometry": { "type": "Point", "coordinates": [ 85.1400259, 27.9232567 ] } },
{ "type": "Feature", "properties": { "id": "0c61f23d-1ca7-4e2a-b41d-718a837a6064", "name": "Sparkle International School", "name_en": null, "category": "school", "address": "Bidur-9, Hospital Road, Nuwakot", "phone": "+97710561174", "website": "http://sparkle.edu.np/", "confidence": 0.9780234694480896, "source": "meta", "adm0_pcode": "NPL", "adm0_name": "Nepal", "adm1_pcode": "NP03", "adm1_name": "Bagmati", "adm2_pcode": "NP0328", "adm2_name": "Nuwakot", "adm3_pcode": "NP0328301", "adm3_name": "Bidur", "adm4_pcode": null, "adm4_name": null, "name_latin": "Sparkle International School" }, "geometry": { "type": "Point", "coordinates": [ 85.141453781230993, 27.925820837137643 ] } },
{ "type": "Feature", "properties": { "id": "d40a3813-ac6c-4cc3-b770-138c81f6d08b", "name": "Orchid Academy Nuwakot", "name_en": null, "category": "school", "address": "Nuwakot", "phone": "+97710560361", "website": "https://www.youtube.com/user/orchidacademynuwakot", "confidence": 0.96772140264511108, "source": "meta", "adm0_pcode": "NPL", "adm0_name": "Nepal", "adm1_pcode": "NP03", "adm1_name": "Bagmati", "adm2_pcode": "NP0328", "adm2_name": "Nuwakot", "adm3_pcode": "NP0328301", "adm3_name": "Bidur", "adm4_pcode": null, "adm4_name": null, "name_latin": "Orchid Academy Nuwakot" }, "geometry": { "type": "Point", "coordinates": [ 85.145366051739998, 27.895117187105001 ] } },
{ "type": "Feature", "properties": { "id": "a53ba6b1-4937-4bbc-8aee-448eb1dde884", "name": "KVM", "name_en": null, "category": "school", "address": "Bidur-2, Bidur", "phone": "+97710560796", "website": null, "confidence": 0.71804499626159668, "source": "meta", "adm0_pcode": "NPL", "adm0_name": "Nepal", "adm1_pcode": "NP03", "adm1_name": "Bagmati", "adm2_pcode": "NP0328", "adm2_name": "Nuwakot", "adm3_pcode": "NP0328301", "adm3_name": "Bidur", "adm4_pcode": null, "adm4_name": null, "name_latin": "KVM" }, "geometry": { "type": "Point", "coordinates": [ 85.143747924449002, 27.912509307650001 ] } },
{ "type": "Feature", "properties": { "id": "34d88329-6907-46bf-b9bb-0d44f4c4bd5a", "name": "Tribhuvan Trishuli Secondary School", "name_en": null, "category": "school", "address": "Bidur-1", "phone": "+9779841455861", "website": "https://ttss.edu.np/", "confidence": 0.97109705209732056, "source": "meta", "adm0_pcode": "NPL", "adm0_name": "Nepal", "adm1_pcode": "NP03", "adm1_name": "Bagmati", "adm2_pcode": "NP0328", "adm2_name": "Nuwakot", "adm3_pcode": "NP0328301", "adm3_name": "Bidur", "adm4_pcode": null, "adm4_name": null, "name_latin": "Tribhuvan Trishuli Secondary School" }, "geometry": { "type": "Point", "coordinates": [ 85.146553268148352, 27.905180681349606 ] } },
{ "type": "Feature", "properties": { "id": "8bccedc7-9572-41aa-b99d-9df44be5a36f", "name": "Trishuli Samudayik Boarding School", "name_en": null, "category": "preschool", "address": "Nuwakot District", "phone": "+97710560975", "website": "http://gmail.com/", "confidence": 0.84574747085571289, "source": "meta", "adm0_pcode": "NPL", "adm0_name": "Nepal", "adm1_pcode": "NP03", "adm1_name": "Bagmati", "adm2_pcode": "NP0328", "adm2_name": "Nuwakot", "adm3_pcode": "NP0328301", "adm3_name": "Bidur", "adm4_pcode": null, "adm4_name": null, "name_latin": "Trishuli Samudayik Boarding School" }, "geometry": { "type": "Point", "coordinates": [ 85.149330454600687, 27.922362793663112 ] } },
{ "type": "Feature", "properties": { "id": "84a572a9-8cec-44d4-877d-7c2cbc60fcfa", "name": "Om Mane Public School,nuwakot", "name_en": null, "category": "school", "address": null, "phone": null, "website": null, "confidence": 0.75949031114578247, "source": "meta", "adm0_pcode": "NPL", "adm0_name": "Nepal", "adm1_pcode": "NP03", "adm1_name": "Bagmati", "adm2_pcode": "NP0328", "adm2_name": "Nuwakot", "adm3_pcode": "NP0328301", "adm3_name": "Bidur", "adm4_pcode": null, "adm4_name": null, "name_latin": "Om Mane Public School,nuwakot" }, "geometry": { "type": "Point", "coordinates": [ 85.158749284616391, 27.935093346154218 ] } },
{ "type": "Feature", "properties": { "id": "bb2734d2-89aa-42b0-8d46-72518c20c715", "name": "Shree Sulakshana Secondary School", "name_en": null, "category": "college_university", "address": "Aangaputar, Bidur Municipality-9, Nuwakot, Nepal.", "phone": "+9779841518259", "website": "http://www.sulakshana.edu.np/", "confidence": 0.96266824007034302, "source": "meta", "adm0_pcode": "NPL", "adm0_name": "Nepal", "adm1_pcode": "NP03", "adm1_name": "Bagmati", "adm2_pcode": "NP0328", "adm2_name": "Nuwakot", "adm3_pcode": "NP0328301", "adm3_name": "Bidur", "adm4_pcode": null, "adm4_name": null, "name_latin": "Shree Sulakshana Secondary School" }, "geometry": { "type": "Point", "coordinates": [ 85.159446716309006, 27.948055267333999 ] } },
{ "type": "Feature", "properties": { "id": "f6fe5c0b-3ad4-4441-951d-c8364c848a94", "name": "Munal Academy", "name_en": null, "category": "school", "address": "Gajuri", "phone": "+9779851047145", "website": "https://munalacademy.edu.np/", "confidence": 0.76742267608642578, "source": "meta", "adm0_pcode": "NPL", "adm0_name": "Nepal", "adm1_pcode": "NP03", "adm1_name": "Bagmati", "adm2_pcode": "NP0330", "adm2_name": "Dhading", "adm3_pcode": "NP0330409", "adm3_name": "Gajuri", "adm4_pcode": null, "adm4_name": null, "name_latin": "Munal Academy" }, "geometry": { "type": "Point", "coordinates": [ 84.877531604983005, 27.803503620842001 ] } },
{ "type": "Feature", "properties": { "id": "71410af7-420b-4af0-adbe-85ab07ad1f5a", "name": "Bright Future English Boarding School", "name_en": null, "category": "school", "address": "Malekhu,", "phone": null, "website": null, "confidence": 0.8641020655632019, "source": "meta", "adm0_pcode": "NPL", "adm0_name": "Nepal", "adm1_pcode": "NP03", "adm1_name": "Bagmati", "adm2_pcode": "NP0330", "adm2_name": "Dhading", "adm3_pcode": "NP0330407", "adm3_name": "Siddhalek", "adm4_pcode": null, "adm4_name": null, "name_latin": "Bright Future English Boarding School" }, "geometry": { "type": "Point", "coordinates": [ 84.8343277, 27.8090096 ] } },
{ "type": "Feature", "properties": { "id": "47f9c06c-f2d1-4358-b1b7-383c17e1d89d", "name": "Bageshworee Secondary School", "name_en": null, "category": "high_school", "address": "Richoktar, Benighat Rorang-3", "phone": null, "website": null, "confidence": 0.97629857063293457, "source": "meta", "adm0_pcode": "NPL", "adm0_name": "Nepal", "adm1_pcode": "NP03", "adm1_name": "Bagmati", "adm2_pcode": "NP0330", "adm2_name": "Dhading", "adm3_pcode": "NP0330407", "adm3_name": "Siddhalek", "adm4_pcode": null, "adm4_name": null, "name_latin": "Bageshworee Secondary School" }, "geometry": { "type": "Point", "coordinates": [ 84.833522333350885, 27.810451740009398 ] } },
{ "type": "Feature", "properties": { "id": "36812e0c-2f2f-43c2-ae14-a92be33dd4d7", "name": "चन्द्रोदय शैक्षिक सहायता कोष", "name_en": null, "category": "college_university", "address": "Benighat, Dhading", "phone": "+9779808699487", "website": "http://www.cdmcedu.wordpress.com/", "confidence": 0.89083409309387207, "source": "meta", "adm0_pcode": "NPL", "adm0_name": "Nepal", "adm1_pcode": "NP04", "adm1_name": "Gandaki", "adm2_pcode": "NP0436", "adm2_name": "Gorkha", "adm3_pcode": "NP0436409", "adm3_name": "Gandaki", "adm4_pcode": null, "adm4_name": null, "name_latin": "cndrody shaikssik shaaytaa koss" }, "geometry": { "type": "Point", "coordinates": [ 84.759843349457, 27.813742556074999 ] } },
{ "type": "Feature", "properties": { "id": "1a82856d-3fa9-407e-9055-47bf4809035d", "name": "HIMA AUS Education Consultancy - Dhading", "name_en": null, "category": "educational_services", "address": "Shantabazar Dhading Besi & Benighat Prithivi Highway", "phone": "+9779810203435", "website": "https://himaaus.com/", "confidence": 0.87187379598617554, "source": "meta", "adm0_pcode": "NPL", "adm0_name": "Nepal", "adm1_pcode": "NP03", "adm1_name": "Bagmati", "adm2_pcode": "NP0330", "adm2_name": "Dhading", "adm3_pcode": "NP0330408", "adm3_name": "Benighat Rorang", "adm4_pcode": null, "adm4_name": null, "name_latin": "HIMA AUS Education Consultancy - Dhading" }, "geometry": { "type": "Point", "coordinates": [ 84.780838012695, 27.811296472291001 ] } },
{ "type": "Feature", "properties": { "id": "8403ba43-8baa-41b6-b28b-6768acea8fd1", "name": "Beni Shiksha Sadan Basic School Benighat Rorang-5, Dhading", "name_en": null, "category": "school", "address": "Benighat", "phone": "+9779841032042", "website": null, "confidence": 0.9146190881729126, "source": "meta", "adm0_pcode": "NPL", "adm0_name": "Nepal", "adm1_pcode": "NP03", "adm1_name": "Bagmati", "adm2_pcode": "NP0330", "adm2_name": "Dhading", "adm3_pcode": "NP0330408", "adm3_name": "Benighat Rorang", "adm4_pcode": null, "adm4_name": null, "name_latin": "Beni Shiksha Sadan Basic School Benighat Rorang-5, Dhading" }, "geometry": { "type": "Point", "coordinates": [ 84.78127131091604, 27.811576366748834 ] } },
{ "type": "Feature", "properties": { "id": "b3a4d344-c09f-47a1-93f6-7967faa68e8e", "name": "शिलादेबी मा.बि -प्राबिधिक शिक्षा", "name_en": null, "category": "high_school", "address": "Belkotgadhi-7, Ratmate ", "phone": null, "website": null, "confidence": 0.82412856817245483, "source": "meta", "adm0_pcode": "NPL", "adm0_name": "Nepal", "adm1_pcode": "NP03", "adm1_name": "Bagmati", "adm2_pcode": "NP0328", "adm2_name": "Nuwakot", "adm3_pcode": "NP0328302", "adm3_name": "Belkotgadhi", "adm4_pcode": null, "adm4_name": null, "name_latin": "shilaadebii maa.bi -praabidhik shikssaa" }, "geometry": { "type": "Point", "coordinates": [ 85.032776, 27.849070572612 ] } },
{ "type": "Feature", "properties": { "id": "edfbb4fe-84c5-41e6-aa57-eeb85e0b5fd6", "name": "Satyawati School", "name_en": null, "category": "school", "address": "Adamtar", "phone": "+9779841333768", "website": null, "confidence": 0.93431395292282104, "source": "meta", "adm0_pcode": "NPL", "adm0_name": "Nepal", "adm1_pcode": "NP03", "adm1_name": "Bagmati", "adm2_pcode": "NP0330", "adm2_name": "Dhading", "adm3_pcode": "NP0330407", "adm3_name": "Siddhalek", "adm4_pcode": null, "adm4_name": null, "name_latin": "Satyawati School" }, "geometry": { "type": "Point", "coordinates": [ 84.936928639666121, 27.810397239388344 ] } },
{ "type": "Feature", "properties": { "id": "876697f9-a233-4d38-ae49-ce3c95115a3f", "name": "Success Academy/Saphal College", "name_en": null, "category": "school", "address": "Baireni", "phone": "+97710403036", "website": null, "confidence": 0.86868888139724731, "source": "meta", "adm0_pcode": "NPL", "adm0_name": "Nepal", "adm1_pcode": "NP03", "adm1_name": "Bagmati", "adm2_pcode": "NP0330", "adm2_name": "Dhading", "adm3_pcode": "NP0330410", "adm3_name": "Galchhi", "adm4_pcode": null, "adm4_name": null, "name_latin": "Success Academy/Saphal College" }, "geometry": { "type": "Point", "coordinates": [ 84.9942681, 27.796947 ] } },
{ "type": "Feature", "properties": { "id": "6d9a82cf-53ce-4625-9cdc-01c74c867aba", "name": "Success Academy", "name_en": null, "category": "college_university", "address": null, "phone": null, "website": null, "confidence": 0.63976776599884033, "source": "meta", "adm0_pcode": "NPL", "adm0_name": "Nepal", "adm1_pcode": "NP03", "adm1_name": "Bagmati", "adm2_pcode": "NP0330", "adm2_name": "Dhading", "adm3_pcode": "NP0330410", "adm3_name": "Galchhi", "adm4_pcode": null, "adm4_name": null, "name_latin": "Success Academy" }, "geometry": { "type": "Point", "coordinates": [ 84.997980599925256, 27.795139600105752 ] } }
]
}
