{
"type": "FeatureCollection",
"name": "financial_services",
"crs": { "type": "name", "properties": { "name": "urn:ogc:def:crs:OGC:1.3:CRS84" } },
"features": [
{ "type": "Feature", "properties": { "id": "node/9519234921", "name": "Jyoti Bikash Bank", "name_en": null, "name_ne": null, "status": "Standing", "amenity": "bank", "operator": null, "network": null, "addr_full": null, "addr_city": null, "source": null, "adm0_pcode": "NPL", "adm0_name": "Nepal", "adm1_pcode": "NP03", "adm1_name": "Bagmati", "adm2_pcode": "NP0330", "adm2_name": "Dhading", "adm3_pcode": "NP0330410", "adm3_name": "Galchhi", "adm4_pcode": null, "adm4_name": null, "name_latin": "Jyoti Bikash Bank" }, "geometry": { "type": "Point", "coordinates": [ 84.9980198, 27.7954888 ] } },
{ "type": "Feature", "properties": { "id": "node/9519234920", "name": "Bank of Kathmandu", "name_en": null, "name_ne": null, "status": "Standing", "amenity": "bank", "operator": null, "network": null, "addr_full": null, "addr_city": null, "source": null, "adm0_pcode": "NPL", "adm0_name": "Nepal", "adm1_pcode": "NP03", "adm1_name": "Bagmati", "adm2_pcode": "NP0330", "adm2_name": "Dhading", "adm3_pcode": "NP0330410", "adm3_name": "Galchhi", "adm4_pcode": null, "adm4_name": null, "name_latin": "Bank of Kathmandu" }, "geometry": { "type": "Point", "coordinates": [ 84.9987157, 27.7951473 ] } },
{ "type": "Feature", "properties": { "id": "node/9519233722", "name": "NMB Bank", "name_en": null, "name_ne": null, "status": "Standing", "amenity": "bank", "operator": null, "network": null, "addr_full": null, "addr_city": null, "source": null, "adm0_pcode": "NPL", "adm0_name": "Nepal", "adm1_pcode": "NP03", "adm1_name": "Bagmati", "adm2_pcode": "NP0330", "adm2_name": "Dhading", "adm3_pcode": "NP0330410", "adm3_name": "Galchhi", "adm4_pcode": null, "adm4_name": null, "name_latin": "NMB Bank" }, "geometry": { "type": "Point", "coordinates": [ 85.0005129, 27.7957146 ] } },
{ "type": "Feature", "properties": { "id": "node/3408491300", "name": "Deva Development Bank", "name_en": null, "name_ne": null, "status": "Standing", "amenity": "bank", "operator": null, "network": null, "addr_full": null, "addr_city": null, "source": null, "adm0_pcode": "NPL", "adm0_name": "Nepal", "adm1_pcode": "NP03", "adm1_name": "Bagmati", "adm2_pcode": "NP0330", "adm2_name": "Dhading", "adm3_pcode": "NP0330408", "adm3_name": "Benighat Rorang", "adm4_pcode": null, "adm4_name": null, "name_latin": "Deva Development Bank" }, "geometry": { "type": "Point", "coordinates": [ 84.7511503, 27.8032728 ] } },
{ "type": "Feature", "properties": { "id": "node/2857819512", "name": null, "name_en": null, "name_ne": null, "status": "Destroyed", "amenity": "atm", "operator": "Mega Bank Nepal Limited", "network": null, "addr_full": null, "addr_city": null, "source": "GPS", "adm0_pcode": "NPL", "adm0_name": "Nepal", "adm1_pcode": "NP03", "adm1_name": "Bagmati", "adm2_pcode": "NP0329", "adm2_name": "Rasuwa", "adm3_pcode": "NP0329402", "adm3_name": "Gosaikunda", "adm4_pcode": null, "adm4_name": null, "name_latin": null }, "geometry": { "type": "Point", "coordinates": [ 85.3362947, 28.1611718 ] } },
{ "type": "Feature", "properties": { "id": "node/6117774385", "name": null, "name_en": "Bank", "name_ne": null, "status": "Destroyed", "amenity": "bank", "operator": null, "network": null, "addr_full": null, "addr_city": null, "source": null, "adm0_pcode": "NPL", "adm0_name": "Nepal", "adm1_pcode": "NP03", "adm1_name": "Bagmati", "adm2_pcode": "NP0329", "adm2_name": "Rasuwa", "adm3_pcode": "NP0329402", "adm3_name": "Gosaikunda", "adm4_pcode": null, "adm4_name": null, "name_latin": "Bank" }, "geometry": { "type": "Point", "coordinates": [ 85.336233, 28.1607094 ] } },
{ "type": "Feature", "properties": { "id": "node/12672929246", "name": null, "name_en": null, "name_ne": null, "status": "Destroyed", "amenity": "atm", "operator": "NIC ASIA BANK", "network": null, "addr_full": null, "addr_city": null, "source": null, "adm0_pcode": "NPL", "adm0_name": "Nepal", "adm1_pcode": "NP03", "adm1_name": "Bagmati", "adm2_pcode": "NP0329", "adm2_name": "Rasuwa", "adm3_pcode": "NP0329402", "adm3_name": "Gosaikunda", "adm4_pcode": null, "adm4_name": null, "name_latin": null }, "geometry": { "type": "Point", "coordinates": [ 85.3364072, 28.1607872 ] } },
{ "type": "Feature", "properties": { "id": "node/9519236917", "name": "NIC Asia Bank Limited", "name_en": null, "name_ne": null, "status": "Standing", "amenity": "bank", "operator": null, "network": null, "addr_full": null, "addr_city": null, "source": null, "adm0_pcode": "NPL", "adm0_name": "Nepal", "adm1_pcode": "NP03", "adm1_name": "Bagmati", "adm2_pcode": "NP0330", "adm2_name": "Dhading", "adm3_pcode": "NP0330410", "adm3_name": "Galchhi", "adm4_pcode": null, "adm4_name": null, "name_latin": "NIC Asia Bank Limited" }, "geometry": { "type": "Point", "coordinates": [ 84.999732, 27.797617 ] } },
{ "type": "Feature", "properties": { "id": "node/9519235920", "name": "Bank of Kathmandu", "name_en": null, "name_ne": null, "status": "Standing", "amenity": "bank", "operator": null, "network": null, "addr_full": null, "addr_city": null, "source": null, "adm0_pcode": "NPL", "adm0_name": "Nepal", "adm1_pcode": "NP03", "adm1_name": "Bagmati", "adm2_pcode": "NP0330", "adm2_name": "Dhading", "adm3_pcode": "NP0330410", "adm3_name": "Galchhi", "adm4_pcode": null, "adm4_name": null, "name_latin": "Bank of Kathmandu" }, "geometry": { "type": "Point", "coordinates": [ 84.999805, 27.7974489 ] } },
{ "type": "Feature", "properties": { "id": "node/9519234922", "name": "Nabil Bank Limited", "name_en": null, "name_ne": null, "status": "Standing", "amenity": "bank", "operator": null, "network": null, "addr_full": null, "addr_city": null, "source": null, "adm0_pcode": "NPL", "adm0_name": "Nepal", "adm1_pcode": "NP03", "adm1_name": "Bagmati", "adm2_pcode": "NP0330", "adm2_name": "Dhading", "adm3_pcode": "NP0330410", "adm3_name": "Galchhi", "adm4_pcode": null, "adm4_name": null, "name_latin": "Nabil Bank Limited" }, "geometry": { "type": "Point", "coordinates": [ 84.9998779, 27.7972678 ] } },
{ "type": "Feature", "properties": { "id": "node/5715638273", "name": "Agricultural Development Bank", "name_en": null, "name_ne": null, "status": "Standing", "amenity": "bank", "operator": null, "network": null, "addr_full": null, "addr_city": null, "source": null, "adm0_pcode": "NPL", "adm0_name": "Nepal", "adm1_pcode": "NP03", "adm1_name": "Bagmati", "adm2_pcode": "NP0330", "adm2_name": "Dhading", "adm3_pcode": "NP0330409", "adm3_name": "Gajuri", "adm4_pcode": null, "adm4_name": null, "name_latin": "Agricultural Development Bank" }, "geometry": { "type": "Point", "coordinates": [ 84.8762754, 27.8043608 ] } },
{ "type": "Feature", "properties": { "id": "node/9519234917", "name": "Nabil Bank Limited", "name_en": null, "name_ne": null, "status": "Standing", "amenity": "bank", "operator": null, "network": null, "addr_full": null, "addr_city": null, "source": null, "adm0_pcode": "NPL", "adm0_name": "Nepal", "adm1_pcode": "NP03", "adm1_name": "Bagmati", "adm2_pcode": "NP0330", "adm2_name": "Dhading", "adm3_pcode": "NP0330409", "adm3_name": "Gajuri", "adm4_pcode": null, "adm4_name": null, "name_latin": "Nabil Bank Limited" }, "geometry": { "type": "Point", "coordinates": [ 84.8773005, 27.8045009 ] } },
{ "type": "Feature", "properties": { "id": "node/9519235317", "name": null, "name_en": null, "name_ne": null, "status": "Standing", "amenity": "atm", "operator": "machhapuchre Bank Limited", "network": null, "addr_full": null, "addr_city": null, "source": null, "adm0_pcode": "NPL", "adm0_name": "Nepal", "adm1_pcode": "NP03", "adm1_name": "Bagmati", "adm2_pcode": "NP0330", "adm2_name": "Dhading", "adm3_pcode": "NP0330409", "adm3_name": "Gajuri", "adm4_pcode": null, "adm4_name": null, "name_latin": null }, "geometry": { "type": "Point", "coordinates": [ 84.8787918, 27.8046736 ] } },
{ "type": "Feature", "properties": { "id": "node/9519235217", "name": "Ridhhi Siddhi Saving and Credit Co-operative Limited", "name_en": null, "name_ne": null, "status": "Standing", "amenity": "bank", "operator": null, "network": null, "addr_full": null, "addr_city": null, "source": null, "adm0_pcode": "NPL", "adm0_name": "Nepal", "adm1_pcode": "NP03", "adm1_name": "Bagmati", "adm2_pcode": "NP0330", "adm2_name": "Dhading", "adm3_pcode": "NP0330409", "adm3_name": "Gajuri", "adm4_pcode": null, "adm4_name": null, "name_latin": "Ridhhi Siddhi Saving and Credit Co-operative Limited" }, "geometry": { "type": "Point", "coordinates": [ 84.8788959, 27.8046593 ] } },
{ "type": "Feature", "properties": { "id": "node/9519235117", "name": "Machhapuchre Bank Limited", "name_en": null, "name_ne": null, "status": "Standing", "amenity": "bank", "operator": null, "network": null, "addr_full": null, "addr_city": null, "source": null, "adm0_pcode": "NPL", "adm0_name": "Nepal", "adm1_pcode": "NP03", "adm1_name": "Bagmati", "adm2_pcode": "NP0330", "adm2_name": "Dhading", "adm3_pcode": "NP0330409", "adm3_name": "Gajuri", "adm4_pcode": null, "adm4_name": null, "name_latin": "Machhapuchre Bank Limited" }, "geometry": { "type": "Point", "coordinates": [ 84.8788258, 27.8046463 ] } },
{ "type": "Feature", "properties": { "id": "node/5715638274", "name": "Prabhu Bank", "name_en": null, "name_ne": null, "status": "Standing", "amenity": "bank", "operator": null, "network": null, "addr_full": null, "addr_city": null, "source": null, "adm0_pcode": "NPL", "adm0_name": "Nepal", "adm1_pcode": "NP03", "adm1_name": "Bagmati", "adm2_pcode": "NP0330", "adm2_name": "Dhading", "adm3_pcode": "NP0330409", "adm3_name": "Gajuri", "adm4_pcode": null, "adm4_name": null, "name_latin": "Prabhu Bank" }, "geometry": { "type": "Point", "coordinates": [ 84.8805159, 27.8048448 ] } },
{ "type": "Feature", "properties": { "id": "node/9519235218", "name": null, "name_en": null, "name_ne": null, "status": "Standing", "amenity": "atm", "operator": "Prabhu Bank", "network": null, "addr_full": null, "addr_city": null, "source": null, "adm0_pcode": "NPL", "adm0_name": "Nepal", "adm1_pcode": "NP03", "adm1_name": "Bagmati", "adm2_pcode": "NP0330", "adm2_name": "Dhading", "adm3_pcode": "NP0330409", "adm3_name": "Gajuri", "adm4_pcode": null, "adm4_name": null, "name_latin": null }, "geometry": { "type": "Point", "coordinates": [ 84.8804093, 27.8048338 ] } },
{ "type": "Feature", "properties": { "id": "node/5715638276", "name": "NIC Asia", "name_en": null, "name_ne": null, "status": "Standing", "amenity": "bank", "operator": null, "network": null, "addr_full": null, "addr_city": null, "source": null, "adm0_pcode": "NPL", "adm0_name": "Nepal", "adm1_pcode": "NP03", "adm1_name": "Bagmati", "adm2_pcode": "NP0330", "adm2_name": "Dhading", "adm3_pcode": "NP0330409", "adm3_name": "Gajuri", "adm4_pcode": null, "adm4_name": null, "name_latin": "NIC Asia" }, "geometry": { "type": "Point", "coordinates": [ 84.8801431, 27.8047926 ] } },
{ "type": "Feature", "properties": { "id": "node/5715638275", "name": "Rastriya Banijya Bank", "name_en": null, "name_ne": null, "status": "Standing", "amenity": "bank", "operator": null, "network": null, "addr_full": null, "addr_city": null, "source": null, "adm0_pcode": "NPL", "adm0_name": "Nepal", "adm1_pcode": "NP03", "adm1_name": "Bagmati", "adm2_pcode": "NP0330", "adm2_name": "Dhading", "adm3_pcode": "NP0330409", "adm3_name": "Gajuri", "adm4_pcode": null, "adm4_name": null, "name_latin": "Rastriya Banijya Bank" }, "geometry": { "type": "Point", "coordinates": [ 84.8800539, 27.8047748 ] } },
{ "type": "Feature", "properties": { "id": "node/9519235417", "name": null, "name_en": null, "name_ne": null, "status": "Standing", "amenity": "atm", "operator": "Rastriya Banijya Bank", "network": null, "addr_full": null, "addr_city": null, "source": null, "adm0_pcode": "NPL", "adm0_name": "Nepal", "adm1_pcode": "NP03", "adm1_name": "Bagmati", "adm2_pcode": "NP0330", "adm2_name": "Dhading", "adm3_pcode": "NP0330409", "adm3_name": "Gajuri", "adm4_pcode": null, "adm4_name": null, "name_latin": null }, "geometry": { "type": "Point", "coordinates": [ 84.8800211, 27.804792 ] } },
{ "type": "Feature", "properties": { "id": "node/9519233717", "name": "Sana Kishan Sahakari Sanstha", "name_en": null, "name_ne": null, "status": "Standing", "amenity": "bank", "operator": null, "network": null, "addr_full": null, "addr_city": null, "source": null, "adm0_pcode": "NPL", "adm0_name": "Nepal", "adm1_pcode": "NP03", "adm1_name": "Bagmati", "adm2_pcode": "NP0330", "adm2_name": "Dhading", "adm3_pcode": "NP0330407", "adm3_name": "Siddhalek", "adm4_pcode": null, "adm4_name": null, "name_latin": "Sana Kishan Sahakari Sanstha" }, "geometry": { "type": "Point", "coordinates": [ 84.8758081, 27.8047159 ] } },
{ "type": "Feature", "properties": { "id": "node/6045745885", "name": "Rastriya Banijya Bank", "name_en": null, "name_ne": null, "status": "Standing", "amenity": "bank", "operator": null, "network": null, "addr_full": null, "addr_city": null, "source": null, "adm0_pcode": "NPL", "adm0_name": "Nepal", "adm1_pcode": "NP03", "adm1_name": "Bagmati", "adm2_pcode": "NP0330", "adm2_name": "Dhading", "adm3_pcode": "NP0330408", "adm3_name": "Benighat Rorang", "adm4_pcode": null, "adm4_name": null, "name_latin": "Rastriya Banijya Bank" }, "geometry": { "type": "Point", "coordinates": [ 84.8281888, 27.8136496 ] } },
{ "type": "Feature", "properties": { "id": "node/3408491509", "name": "ndep development bank", "name_en": null, "name_ne": null, "status": "Standing", "amenity": "bank", "operator": null, "network": null, "addr_full": null, "addr_city": null, "source": null, "adm0_pcode": "NPL", "adm0_name": "Nepal", "adm1_pcode": "NP03", "adm1_name": "Bagmati", "adm2_pcode": "NP0330", "adm2_name": "Dhading", "adm3_pcode": "NP0330408", "adm3_name": "Benighat Rorang", "adm4_pcode": null, "adm4_name": null, "name_latin": "ndep development bank" }, "geometry": { "type": "Point", "coordinates": [ 84.8285506, 27.8134918 ] } },
{ "type": "Feature", "properties": { "id": "node/4940591721", "name": null, "name_en": "Global IME bank", "name_ne": null, "status": "Standing", "amenity": "bank", "operator": null, "network": null, "addr_full": null, "addr_city": null, "source": null, "adm0_pcode": "NPL", "adm0_name": "Nepal", "adm1_pcode": "NP03", "adm1_name": "Bagmati", "adm2_pcode": "NP0335", "adm2_name": "Chitawan", "adm3_pcode": "NP0335401", "adm3_name": "Ichchha Kamana", "adm4_pcode": null, "adm4_name": null, "name_latin": "Global IME bank" }, "geometry": { "type": "Point", "coordinates": [ 84.6234053, 27.8714886 ] } },
{ "type": "Feature", "properties": { "id": "node/9802458027", "name": "Sanima BANK Bidur Branch", "name_en": null, "name_ne": null, "status": "Standing", "amenity": "bank", "operator": null, "network": null, "addr_full": null, "addr_city": null, "source": null, "adm0_pcode": "NPL", "adm0_name": "Nepal", "adm1_pcode": "NP03", "adm1_name": "Bagmati", "adm2_pcode": "NP0328", "adm2_name": "Nuwakot", "adm3_pcode": "NP0328301", "adm3_name": "Bidur", "adm4_pcode": null, "adm4_name": null, "name_latin": "Sanima BANK Bidur Branch" }, "geometry": { "type": "Point", "coordinates": [ 85.142645, 27.9150072 ] } },
{ "type": "Feature", "properties": { "id": "node/9802458029", "name": "Manushi BANK Bidur", "name_en": null, "name_ne": null, "status": "Standing", "amenity": "bank", "operator": null, "network": null, "addr_full": null, "addr_city": null, "source": null, "adm0_pcode": "NPL", "adm0_name": "Nepal", "adm1_pcode": "NP03", "adm1_name": "Bagmati", "adm2_pcode": "NP0328", "adm2_name": "Nuwakot", "adm3_pcode": "NP0328301", "adm3_name": "Bidur", "adm4_pcode": null, "adm4_name": null, "name_latin": "Manushi BANK Bidur" }, "geometry": { "type": "Point", "coordinates": [ 85.141063, 27.9141998 ] } },
{ "type": "Feature", "properties": { "id": "node/9802458080", "name": "Sanima ATM", "name_en": null, "name_ne": null, "status": "Standing", "amenity": "bank", "operator": null, "network": null, "addr_full": null, "addr_city": null, "source": null, "adm0_pcode": "NPL", "adm0_name": "Nepal", "adm1_pcode": "NP03", "adm1_name": "Bagmati", "adm2_pcode": "NP0328", "adm2_name": "Nuwakot", "adm3_pcode": "NP0328301", "adm3_name": "Bidur", "adm4_pcode": null, "adm4_name": null, "name_latin": "Sanima ATM" }, "geometry": { "type": "Point", "coordinates": [ 85.1423835, 27.9148638 ] } },
{ "type": "Feature", "properties": { "id": "node/9802458026", "name": "CYC BANK Nuwakot Branch", "name_en": null, "name_ne": null, "status": "Standing", "amenity": "bank", "operator": null, "network": null, "addr_full": null, "addr_city": null, "source": null, "adm0_pcode": "NPL", "adm0_name": "Nepal", "adm1_pcode": "NP03", "adm1_name": "Bagmati", "adm2_pcode": "NP0328", "adm2_name": "Nuwakot", "adm3_pcode": "NP0328301", "adm3_name": "Bidur", "adm4_pcode": null, "adm4_name": null, "name_latin": "CYC BANK Nuwakot Branch" }, "geometry": { "type": "Point", "coordinates": [ 85.1422879, 27.915271 ] } },
{ "type": "Feature", "properties": { "id": "node/9802458025", "name": "NBL BANK Trisuli", "name_en": null, "name_ne": null, "status": "Standing", "amenity": "bank", "operator": null, "network": null, "addr_full": null, "addr_city": null, "source": null, "adm0_pcode": "NPL", "adm0_name": "Nepal", "adm1_pcode": "NP03", "adm1_name": "Bagmati", "adm2_pcode": "NP0328", "adm2_name": "Nuwakot", "adm3_pcode": "NP0328301", "adm3_name": "Bidur", "adm4_pcode": null, "adm4_name": null, "name_latin": "NBL BANK Trisuli" }, "geometry": { "type": "Point", "coordinates": [ 85.1417222, 27.9158921 ] } },
{ "type": "Feature", "properties": { "id": "node/9802458079", "name": "NBL ATM", "name_en": null, "name_ne": null, "status": "Standing", "amenity": "bank", "operator": null, "network": null, "addr_full": null, "addr_city": null, "source": null, "adm0_pcode": "NPL", "adm0_name": "Nepal", "adm1_pcode": "NP03", "adm1_name": "Bagmati", "adm2_pcode": "NP0328", "adm2_name": "Nuwakot", "adm3_pcode": "NP0328301", "adm3_name": "Bidur", "adm4_pcode": null, "adm4_name": null, "name_latin": "NBL ATM" }, "geometry": { "type": "Point", "coordinates": [ 85.1416726, 27.9158317 ] } },
{ "type": "Feature", "properties": { "id": "node/4367705093", "name": null, "name_en": "hamro Bikash bank", "name_ne": null, "status": "Standing", "amenity": "bank", "operator": null, "network": null, "addr_full": null, "addr_city": null, "source": null, "adm0_pcode": "NPL", "adm0_name": "Nepal", "adm1_pcode": "NP03", "adm1_name": "Bagmati", "adm2_pcode": "NP0328", "adm2_name": "Nuwakot", "adm3_pcode": "NP0328301", "adm3_name": "Bidur", "adm4_pcode": null, "adm4_name": null, "name_latin": "hamro Bikash bank" }, "geometry": { "type": "Point", "coordinates": [ 85.1417354, 27.9158483 ] } },
{ "type": "Feature", "properties": { "id": "node/9802458070", "name": "Sunrise BLB Battar Branch", "name_en": null, "name_ne": null, "status": "Standing", "amenity": "bank", "operator": null, "network": null, "addr_full": null, "addr_city": null, "source": null, "adm0_pcode": "NPL", "adm0_name": "Nepal", "adm1_pcode": "NP03", "adm1_name": "Bagmati", "adm2_pcode": "NP0328", "adm2_name": "Nuwakot", "adm3_pcode": "NP0328301", "adm3_name": "Bidur", "adm4_pcode": null, "adm4_name": null, "name_latin": "Sunrise BLB Battar Branch" }, "geometry": { "type": "Point", "coordinates": [ 85.1356253, 27.9251793 ] } },
{ "type": "Feature", "properties": { "id": "node/9802458024", "name": "NMBMF BANK Gangate", "name_en": null, "name_ne": null, "status": "Standing", "amenity": "bank", "operator": null, "network": null, "addr_full": null, "addr_city": null, "source": null, "adm0_pcode": "NPL", "adm0_name": "Nepal", "adm1_pcode": "NP03", "adm1_name": "Bagmati", "adm2_pcode": "NP0328", "adm2_name": "Nuwakot", "adm3_pcode": "NP0328301", "adm3_name": "Bidur", "adm4_pcode": null, "adm4_name": null, "name_latin": "NMBMF BANK Gangate" }, "geometry": { "type": "Point", "coordinates": [ 85.1494425, 27.9191134 ] } },
{ "type": "Feature", "properties": { "id": "node/9802458023", "name": "Summit BANK Chhahre", "name_en": null, "name_ne": null, "status": "Standing", "amenity": "bank", "operator": null, "network": null, "addr_full": null, "addr_city": null, "source": null, "adm0_pcode": "NPL", "adm0_name": "Nepal", "adm1_pcode": "NP03", "adm1_name": "Bagmati", "adm2_pcode": "NP0328", "adm2_name": "Nuwakot", "adm3_pcode": "NP0328301", "adm3_name": "Bidur", "adm4_pcode": null, "adm4_name": null, "name_latin": "Summit BANK Chhahre" }, "geometry": { "type": "Point", "coordinates": [ 85.1517615, 27.9194155 ] } },
{ "type": "Feature", "properties": { "id": "node/9802458078", "name": "ICFC ATM", "name_en": null, "name_ne": null, "status": "Standing", "amenity": "bank", "operator": null, "network": null, "addr_full": null, "addr_city": null, "source": null, "adm0_pcode": "NPL", "adm0_name": "Nepal", "adm1_pcode": "NP03", "adm1_name": "Bagmati", "adm2_pcode": "NP0328", "adm2_name": "Nuwakot", "adm3_pcode": "NP0328301", "adm3_name": "Bidur", "adm4_pcode": null, "adm4_name": null, "name_latin": "ICFC ATM" }, "geometry": { "type": "Point", "coordinates": [ 85.1481491, 27.92193 ] } },
{ "type": "Feature", "properties": { "id": "node/9802458020", "name": "ICFC BANK Trishuli", "name_en": null, "name_ne": null, "status": "Standing", "amenity": "bank", "operator": null, "network": null, "addr_full": null, "addr_city": null, "source": null, "adm0_pcode": "NPL", "adm0_name": "Nepal", "adm1_pcode": "NP03", "adm1_name": "Bagmati", "adm2_pcode": "NP0328", "adm2_name": "Nuwakot", "adm3_pcode": "NP0328301", "adm3_name": "Bidur", "adm4_pcode": null, "adm4_name": null, "name_latin": "ICFC BANK Trishuli" }, "geometry": { "type": "Point", "coordinates": [ 85.148129, 27.9219715 ] } },
{ "type": "Feature", "properties": { "id": "node/9802458021", "name": "Jyoti BANK Trishuli", "name_en": null, "name_ne": null, "status": "Standing", "amenity": "bank", "operator": null, "network": null, "addr_full": null, "addr_city": null, "source": null, "adm0_pcode": "NPL", "adm0_name": "Nepal", "adm1_pcode": "NP03", "adm1_name": "Bagmati", "adm2_pcode": "NP0328", "adm2_name": "Nuwakot", "adm3_pcode": "NP0328301", "adm3_name": "Bidur", "adm4_pcode": null, "adm4_name": null, "name_latin": "Jyoti BANK Trishuli" }, "geometry": { "type": "Point", "coordinates": [ 85.1483107, 27.9219627 ] } },
{ "type": "Feature", "properties": { "id": "node/9802458077", "name": "NIC ATM", "name_en": null, "name_ne": null, "status": "Standing", "amenity": "bank", "operator": null, "network": null, "addr_full": null, "addr_city": null, "source": null, "adm0_pcode": "NPL", "adm0_name": "Nepal", "adm1_pcode": "NP03", "adm1_name": "Bagmati", "adm2_pcode": "NP0328", "adm2_name": "Nuwakot", "adm3_pcode": "NP0328301", "adm3_name": "Bidur", "adm4_pcode": null, "adm4_name": null, "name_latin": "NIC ATM" }, "geometry": { "type": "Point", "coordinates": [ 85.1468928, 27.9341817 ] } },
{ "type": "Feature", "properties": { "id": "node/9802458019", "name": "NIC BANK Trishuli", "name_en": null, "name_ne": null, "status": "Standing", "amenity": "bank", "operator": null, "network": null, "addr_full": null, "addr_city": null, "source": null, "adm0_pcode": "NPL", "adm0_name": "Nepal", "adm1_pcode": "NP03", "adm1_name": "Bagmati", "adm2_pcode": "NP0328", "adm2_name": "Nuwakot", "adm3_pcode": "NP0328301", "adm3_name": "Bidur", "adm4_pcode": null, "adm4_name": null, "name_latin": "NIC BANK Trishuli" }, "geometry": { "type": "Point", "coordinates": [ 85.14676, 27.9341829 ] } },
{ "type": "Feature", "properties": { "id": "node/9802458033", "name": "NIC BANK Battar", "name_en": null, "name_ne": null, "status": "Standing", "amenity": "bank", "operator": null, "network": null, "addr_full": null, "addr_city": null, "source": null, "adm0_pcode": "NPL", "adm0_name": "Nepal", "adm1_pcode": "NP03", "adm1_name": "Bagmati", "adm2_pcode": "NP0328", "adm2_name": "Nuwakot", "adm3_pcode": "NP0328301", "adm3_name": "Bidur", "adm4_pcode": null, "adm4_name": null, "name_latin": "NIC BANK Battar" }, "geometry": { "type": "Point", "coordinates": [ 85.1415938, 27.9109239 ] } },
{ "type": "Feature", "properties": { "id": "node/9802458082", "name": "NIC ATM", "name_en": null, "name_ne": null, "status": "Standing", "amenity": "bank", "operator": null, "network": null, "addr_full": null, "addr_city": null, "source": null, "adm0_pcode": "NPL", "adm0_name": "Nepal", "adm1_pcode": "NP03", "adm1_name": "Bagmati", "adm2_pcode": "NP0328", "adm2_name": "Nuwakot", "adm3_pcode": "NP0328301", "adm3_name": "Bidur", "adm4_pcode": null, "adm4_name": null, "name_latin": "NIC ATM" }, "geometry": { "type": "Point", "coordinates": [ 85.1416219, 27.9108421 ] } },
{ "type": "Feature", "properties": { "id": "node/9802458034", "name": "RBB BANK Bidur", "name_en": null, "name_ne": null, "status": "Standing", "amenity": "bank", "operator": null, "network": null, "addr_full": null, "addr_city": null, "source": null, "adm0_pcode": "NPL", "adm0_name": "Nepal", "adm1_pcode": "NP03", "adm1_name": "Bagmati", "adm2_pcode": "NP0328", "adm2_name": "Nuwakot", "adm3_pcode": "NP0328301", "adm3_name": "Bidur", "adm4_pcode": null, "adm4_name": null, "name_latin": "RBB BANK Bidur" }, "geometry": { "type": "Point", "coordinates": [ 85.1440944, 27.911039 ] } },
{ "type": "Feature", "properties": { "id": "node/9802458083", "name": "RBB ATM", "name_en": null, "name_ne": null, "status": "Standing", "amenity": "bank", "operator": null, "network": null, "addr_full": null, "addr_city": null, "source": null, "adm0_pcode": "NPL", "adm0_name": "Nepal", "adm1_pcode": "NP03", "adm1_name": "Bagmati", "adm2_pcode": "NP0328", "adm2_name": "Nuwakot", "adm3_pcode": "NP0328301", "adm3_name": "Bidur", "adm4_pcode": null, "adm4_name": null, "name_latin": "RBB ATM" }, "geometry": { "type": "Point", "coordinates": [ 85.1441628, 27.9110675 ] } },
{ "type": "Feature", "properties": { "id": "node/9802458032", "name": "DIPROSC BANK Bidur - Nuwokot", "name_en": null, "name_ne": null, "status": "Standing", "amenity": "bank", "operator": null, "network": null, "addr_full": null, "addr_city": null, "source": null, "adm0_pcode": "NPL", "adm0_name": "Nepal", "adm1_pcode": "NP03", "adm1_name": "Bagmati", "adm2_pcode": "NP0328", "adm2_name": "Nuwakot", "adm3_pcode": "NP0328301", "adm3_name": "Bidur", "adm4_pcode": null, "adm4_name": null, "name_latin": "DIPROSC BANK Bidur - Nuwokot" }, "geometry": { "type": "Point", "coordinates": [ 85.1446578, 27.9115913 ] } },
{ "type": "Feature", "properties": { "id": "node/9802458072", "name": "NIC BLB Trishuli", "name_en": null, "name_ne": null, "status": "Standing", "amenity": "bank", "operator": null, "network": null, "addr_full": null, "addr_city": null, "source": null, "adm0_pcode": "NPL", "adm0_name": "Nepal", "adm1_pcode": "NP03", "adm1_name": "Bagmati", "adm2_pcode": "NP0328", "adm2_name": "Nuwakot", "adm3_pcode": "NP0328301", "adm3_name": "Bidur", "adm4_pcode": null, "adm4_name": null, "name_latin": "NIC BLB Trishuli" }, "geometry": { "type": "Point", "coordinates": [ 85.1426938, 27.91164 ] } },
{ "type": "Feature", "properties": { "id": "node/4367679494", "name": null, "name_en": "Panchakanaya finance", "name_ne": null, "status": "Standing", "amenity": "bank", "operator": null, "network": null, "addr_full": null, "addr_city": null, "source": null, "adm0_pcode": "NPL", "adm0_name": "Nepal", "adm1_pcode": "NP03", "adm1_name": "Bagmati", "adm2_pcode": "NP0328", "adm2_name": "Nuwakot", "adm3_pcode": "NP0328301", "adm3_name": "Bidur", "adm4_pcode": null, "adm4_name": null, "name_latin": "Panchakanaya finance" }, "geometry": { "type": "Point", "coordinates": [ 85.1440089, 27.9115806 ] } },
{ "type": "Feature", "properties": { "id": "node/9802458031", "name": "ADBNL BANK Branch Office, Trishuli", "name_en": null, "name_ne": null, "status": "Standing", "amenity": "bank", "operator": null, "network": null, "addr_full": null, "addr_city": null, "source": null, "adm0_pcode": "NPL", "adm0_name": "Nepal", "adm1_pcode": "NP03", "adm1_name": "Bagmati", "adm2_pcode": "NP0328", "adm2_name": "Nuwakot", "adm3_pcode": "NP0328301", "adm3_name": "Bidur", "adm4_pcode": null, "adm4_name": null, "name_latin": "ADBNL BANK Branch Office, Trishuli" }, "geometry": { "type": "Point", "coordinates": [ 85.1432347, 27.9123329 ] } },
{ "type": "Feature", "properties": { "id": "node/9802458081", "name": "ADBNL ATM", "name_en": null, "name_ne": null, "status": "Standing", "amenity": "bank", "operator": null, "network": null, "addr_full": null, "addr_city": null, "source": null, "adm0_pcode": "NPL", "adm0_name": "Nepal", "adm1_pcode": "NP03", "adm1_name": "Bagmati", "adm2_pcode": "NP0328", "adm2_name": "Nuwakot", "adm3_pcode": "NP0328301", "adm3_name": "Bidur", "adm4_pcode": null, "adm4_name": null, "name_latin": "ADBNL ATM" }, "geometry": { "type": "Point", "coordinates": [ 85.1432803, 27.9123057 ] } },
{ "type": "Feature", "properties": { "id": "node/9802458030", "name": "GIMEMF BANK Trisuli Branch", "name_en": null, "name_ne": null, "status": "Standing", "amenity": "bank", "operator": null, "network": null, "addr_full": null, "addr_city": null, "source": null, "adm0_pcode": "NPL", "adm0_name": "Nepal", "adm1_pcode": "NP03", "adm1_name": "Bagmati", "adm2_pcode": "NP0328", "adm2_name": "Nuwakot", "adm3_pcode": "NP0328301", "adm3_name": "Bidur", "adm4_pcode": null, "adm4_name": null, "name_latin": "GIMEMF BANK Trisuli Branch" }, "geometry": { "type": "Point", "coordinates": [ 85.14267, 27.913081 ] } },
{ "type": "Feature", "properties": { "id": "node/9802458035", "name": "Rastra BANK Bidur Branch (BDR)", "name_en": null, "name_ne": null, "status": "Standing", "amenity": "bank", "operator": null, "network": null, "addr_full": null, "addr_city": null, "source": null, "adm0_pcode": "NPL", "adm0_name": "Nepal", "adm1_pcode": "NP03", "adm1_name": "Bagmati", "adm2_pcode": "NP0328", "adm2_name": "Nuwakot", "adm3_pcode": "NP0328301", "adm3_name": "Bidur", "adm4_pcode": null, "adm4_name": null, "name_latin": "Rastra BANK Bidur Branch (BDR)" }, "geometry": { "type": "Point", "coordinates": [ 85.1448396, 27.9092129 ] } },
{ "type": "Feature", "properties": { "id": "node/10777180905", "name": null, "name_en": null, "name_ne": null, "status": "Standing", "amenity": "atm", "operator": "Siddhartha Bank ATM", "network": null, "addr_full": null, "addr_city": null, "source": null, "adm0_pcode": "NPL", "adm0_name": "Nepal", "adm1_pcode": "NP03", "adm1_name": "Bagmati", "adm2_pcode": "NP0328", "adm2_name": "Nuwakot", "adm3_pcode": "NP0328301", "adm3_name": "Bidur", "adm4_pcode": null, "adm4_name": null, "name_latin": null }, "geometry": { "type": "Point", "coordinates": [ 85.1465241, 27.89852 ] } },
{ "type": "Feature", "properties": { "id": "node/10777180806", "name": "Siddhartha Bank", "name_en": null, "name_ne": null, "status": "Standing", "amenity": "bank", "operator": null, "network": null, "addr_full": null, "addr_city": null, "source": null, "adm0_pcode": "NPL", "adm0_name": "Nepal", "adm1_pcode": "NP03", "adm1_name": "Bagmati", "adm2_pcode": "NP0328", "adm2_name": "Nuwakot", "adm3_pcode": "NP0328301", "adm3_name": "Bidur", "adm4_pcode": null, "adm4_name": null, "name_latin": "Siddhartha Bank" }, "geometry": { "type": "Point", "coordinates": [ 85.1465375, 27.8985933 ] } },
{ "type": "Feature", "properties": { "id": "node/9802458045", "name": "Sworojgar BANK BIDUR", "name_en": null, "name_ne": null, "status": "Standing", "amenity": "bank", "operator": null, "network": null, "addr_full": null, "addr_city": null, "source": null, "adm0_pcode": "NPL", "adm0_name": "Nepal", "adm1_pcode": "NP03", "adm1_name": "Bagmati", "adm2_pcode": "NP0328", "adm2_name": "Nuwakot", "adm3_pcode": "NP0328301", "adm3_name": "Bidur", "adm4_pcode": null, "adm4_name": null, "name_latin": "Sworojgar BANK BIDUR" }, "geometry": { "type": "Point", "coordinates": [ 85.1480692, 27.8984827 ] } },
{ "type": "Feature", "properties": { "id": "node/9802458043", "name": "Garima BANK Battar Branch, Nuwakot", "name_en": null, "name_ne": null, "status": "Standing", "amenity": "bank", "operator": null, "network": null, "addr_full": null, "addr_city": null, "source": null, "adm0_pcode": "NPL", "adm0_name": "Nepal", "adm1_pcode": "NP03", "adm1_name": "Bagmati", "adm2_pcode": "NP0328", "adm2_name": "Nuwakot", "adm3_pcode": "NP0328301", "adm3_name": "Bidur", "adm4_pcode": null, "adm4_name": null, "name_latin": "Garima BANK Battar Branch, Nuwakot" }, "geometry": { "type": "Point", "coordinates": [ 85.1463298, 27.9000999 ] } },
{ "type": "Feature", "properties": { "id": "node/9802458086", "name": "Garima ATM", "name_en": null, "name_ne": null, "status": "Standing", "amenity": "bank", "operator": null, "network": null, "addr_full": null, "addr_city": null, "source": null, "adm0_pcode": "NPL", "adm0_name": "Nepal", "adm1_pcode": "NP03", "adm1_name": "Bagmati", "adm2_pcode": "NP0328", "adm2_name": "Nuwakot", "adm3_pcode": "NP0328301", "adm3_name": "Bidur", "adm4_pcode": null, "adm4_name": null, "name_latin": "Garima ATM" }, "geometry": { "type": "Point", "coordinates": [ 85.1462011, 27.9000584 ] } },
{ "type": "Feature", "properties": { "id": "node/10713463505", "name": "Everest Bank", "name_en": null, "name_ne": null, "status": "Standing", "amenity": "bank", "operator": null, "network": null, "addr_full": null, "addr_city": null, "source": null, "adm0_pcode": "NPL", "adm0_name": "Nepal", "adm1_pcode": "NP03", "adm1_name": "Bagmati", "adm2_pcode": "NP0328", "adm2_name": "Nuwakot", "adm3_pcode": "NP0328301", "adm3_name": "Bidur", "adm4_pcode": null, "adm4_name": null, "name_latin": "Everest Bank" }, "geometry": { "type": "Point", "coordinates": [ 85.1462843, 27.8999314 ] } },
{ "type": "Feature", "properties": { "id": "node/9802458044", "name": "AChautari BANK Battar Branch", "name_en": null, "name_ne": null, "status": "Standing", "amenity": "bank", "operator": null, "network": null, "addr_full": null, "addr_city": null, "source": null, "adm0_pcode": "NPL", "adm0_name": "Nepal", "adm1_pcode": "NP03", "adm1_name": "Bagmati", "adm2_pcode": "NP0328", "adm2_name": "Nuwakot", "adm3_pcode": "NP0328301", "adm3_name": "Bidur", "adm4_pcode": null, "adm4_name": null, "name_latin": "AChautari BANK Battar Branch" }, "geometry": { "type": "Point", "coordinates": [ 85.1409891, 27.9000574 ] } },
{ "type": "Feature", "properties": { "id": "node/10777141305", "name": "Nepal SBI Bank", "name_en": null, "name_ne": null, "status": "Standing", "amenity": "bank", "operator": null, "network": null, "addr_full": null, "addr_city": null, "source": null, "adm0_pcode": "NPL", "adm0_name": "Nepal", "adm1_pcode": "NP03", "adm1_name": "Bagmati", "adm2_pcode": "NP0328", "adm2_name": "Nuwakot", "adm3_pcode": "NP0328301", "adm3_name": "Bidur", "adm4_pcode": null, "adm4_name": null, "name_latin": "Nepal SBI Bank" }, "geometry": { "type": "Point", "coordinates": [ 85.1462167, 27.9005177 ] } },
{ "type": "Feature", "properties": { "id": "node/9802458062", "name": "LumbiniDB BANK Battar Branch", "name_en": null, "name_ne": null, "status": "Standing", "amenity": "bank", "operator": null, "network": null, "addr_full": null, "addr_city": null, "source": null, "adm0_pcode": "NPL", "adm0_name": "Nepal", "adm1_pcode": "NP03", "adm1_name": "Bagmati", "adm2_pcode": "NP0328", "adm2_name": "Nuwakot", "adm3_pcode": "NP0328301", "adm3_name": "Bidur", "adm4_pcode": null, "adm4_name": null, "name_latin": "LumbiniDB BANK Battar Branch" }, "geometry": { "type": "Point", "coordinates": [ 85.1467607, 27.8962772 ] } },
{ "type": "Feature", "properties": { "id": "node/9802458059", "name": "Global IME Bank, Battar Branch", "name_en": null, "name_ne": null, "status": "Standing", "amenity": "bank", "operator": null, "network": null, "addr_full": null, "addr_city": null, "source": null, "adm0_pcode": "NPL", "adm0_name": "Nepal", "adm1_pcode": "NP03", "adm1_name": "Bagmati", "adm2_pcode": "NP0328", "adm2_name": "Nuwakot", "adm3_pcode": "NP0328301", "adm3_name": "Bidur", "adm4_pcode": null, "adm4_name": null, "name_latin": "Global IME Bank, Battar Branch" }, "geometry": { "type": "Point", "coordinates": [ 85.1463688, 27.8960631 ] } },
{ "type": "Feature", "properties": { "id": "node/9802458092", "name": "Global ATM", "name_en": null, "name_ne": null, "status": "Standing", "amenity": "bank", "operator": null, "network": null, "addr_full": null, "addr_city": null, "source": null, "adm0_pcode": "NPL", "adm0_name": "Nepal", "adm1_pcode": "NP03", "adm1_name": "Bagmati", "adm2_pcode": "NP0328", "adm2_name": "Nuwakot", "adm3_pcode": "NP0328301", "adm3_name": "Bidur", "adm4_pcode": null, "adm4_name": null, "name_latin": "Global ATM" }, "geometry": { "type": "Point", "coordinates": [ 85.1464433, 27.8960471 ] } },
{ "type": "Feature", "properties": { "id": "node/9802458061", "name": "SamataMF BANK Battar Branch", "name_en": null, "name_ne": null, "status": "Standing", "amenity": "bank", "operator": null, "network": null, "addr_full": null, "addr_city": null, "source": null, "adm0_pcode": "NPL", "adm0_name": "Nepal", "adm1_pcode": "NP03", "adm1_name": "Bagmati", "adm2_pcode": "NP0328", "adm2_name": "Nuwakot", "adm3_pcode": "NP0328301", "adm3_name": "Bidur", "adm4_pcode": null, "adm4_name": null, "name_latin": "SamataMF BANK Battar Branch" }, "geometry": { "type": "Point", "coordinates": [ 85.1413162, 27.8966526 ] } },
{ "type": "Feature", "properties": { "id": "node/9802458058", "name": "Shangrila BANK Battar Branch", "name_en": null, "name_ne": null, "status": "Standing", "amenity": "bank", "operator": null, "network": null, "addr_full": null, "addr_city": null, "source": null, "adm0_pcode": "NPL", "adm0_name": "Nepal", "adm1_pcode": "NP03", "adm1_name": "Bagmati", "adm2_pcode": "NP0328", "adm2_name": "Nuwakot", "adm3_pcode": "NP0328301", "adm3_name": "Bidur", "adm4_pcode": null, "adm4_name": null, "name_latin": "Shangrila BANK Battar Branch" }, "geometry": { "type": "Point", "coordinates": [ 85.1466574, 27.8967464 ] } },
{ "type": "Feature", "properties": { "id": "node/9802458093", "name": "NSBI ATM", "name_en": null, "name_ne": null, "status": "Standing", "amenity": "bank", "operator": null, "network": null, "addr_full": null, "addr_city": null, "source": null, "adm0_pcode": "NPL", "adm0_name": "Nepal", "adm1_pcode": "NP03", "adm1_name": "Bagmati", "adm2_pcode": "NP0328", "adm2_name": "Nuwakot", "adm3_pcode": "NP0328301", "adm3_name": "Bidur", "adm4_pcode": null, "adm4_name": null, "name_latin": "NSBI ATM" }, "geometry": { "type": "Point", "coordinates": [ 85.1465448, 27.8968022 ] } },
{ "type": "Feature", "properties": { "id": "node/9802458060", "name": "NSBI BANK Battar", "name_en": null, "name_ne": null, "status": "Standing", "amenity": "bank", "operator": null, "network": null, "addr_full": null, "addr_city": null, "source": null, "adm0_pcode": "NPL", "adm0_name": "Nepal", "adm1_pcode": "NP03", "adm1_name": "Bagmati", "adm2_pcode": "NP0328", "adm2_name": "Nuwakot", "adm3_pcode": "NP0328301", "adm3_name": "Bidur", "adm4_pcode": null, "adm4_name": null, "name_latin": "NSBI BANK Battar" }, "geometry": { "type": "Point", "coordinates": [ 85.1466239, 27.8968211 ] } },
{ "type": "Feature", "properties": { "id": "node/9802458091", "name": "EBL ATM", "name_en": null, "name_ne": null, "status": "Standing", "amenity": "bank", "operator": null, "network": null, "addr_full": null, "addr_city": null, "source": null, "adm0_pcode": "NPL", "adm0_name": "Nepal", "adm1_pcode": "NP03", "adm1_name": "Bagmati", "adm2_pcode": "NP0328", "adm2_name": "Nuwakot", "adm3_pcode": "NP0328301", "adm3_name": "Bidur", "adm4_pcode": null, "adm4_name": null, "name_latin": "EBL ATM" }, "geometry": { "type": "Point", "coordinates": [ 85.1466065, 27.896891 ] } },
{ "type": "Feature", "properties": { "id": "node/9802458057", "name": "EBL BANK BATTAR BRANCH", "name_en": null, "name_ne": null, "status": "Standing", "amenity": "bank", "operator": null, "network": null, "addr_full": null, "addr_city": null, "source": null, "adm0_pcode": "NPL", "adm0_name": "Nepal", "adm1_pcode": "NP03", "adm1_name": "Bagmati", "adm2_pcode": "NP0328", "adm2_name": "Nuwakot", "adm3_pcode": "NP0328301", "adm3_name": "Bidur", "adm4_pcode": null, "adm4_name": null, "name_latin": "EBL BANK BATTAR BRANCH" }, "geometry": { "type": "Point", "coordinates": [ 85.1466507, 27.8969349 ] } },
{ "type": "Feature", "properties": { "id": "node/9802458090", "name": "Prabhu ATM", "name_en": null, "name_ne": null, "status": "Standing", "amenity": "bank", "operator": null, "network": null, "addr_full": null, "addr_city": null, "source": null, "adm0_pcode": "NPL", "adm0_name": "Nepal", "adm1_pcode": "NP03", "adm1_name": "Bagmati", "adm2_pcode": "NP0328", "adm2_name": "Nuwakot", "adm3_pcode": "NP0328301", "adm3_name": "Bidur", "adm4_pcode": null, "adm4_name": null, "name_latin": "Prabhu ATM" }, "geometry": { "type": "Point", "coordinates": [ 85.1462377, 27.8971451 ] } },
{ "type": "Feature", "properties": { "id": "node/9802458056", "name": "Prabhu BANK Battar", "name_en": null, "name_ne": null, "status": "Standing", "amenity": "bank", "operator": null, "network": null, "addr_full": null, "addr_city": null, "source": null, "adm0_pcode": "NPL", "adm0_name": "Nepal", "adm1_pcode": "NP03", "adm1_name": "Bagmati", "adm2_pcode": "NP0328", "adm2_name": "Nuwakot", "adm3_pcode": "NP0328301", "adm3_name": "Bidur", "adm4_pcode": null, "adm4_name": null, "name_latin": "Prabhu BANK Battar" }, "geometry": { "type": "Point", "coordinates": [ 85.14594, 27.8971783 ] } },
{ "type": "Feature", "properties": { "id": "node/9802458089", "name": "NBBL ATM", "name_en": null, "name_ne": null, "status": "Standing", "amenity": "bank", "operator": null, "network": null, "addr_full": null, "addr_city": null, "source": null, "adm0_pcode": "NPL", "adm0_name": "Nepal", "adm1_pcode": "NP03", "adm1_name": "Bagmati", "adm2_pcode": "NP0328", "adm2_name": "Nuwakot", "adm3_pcode": "NP0328301", "adm3_name": "Bidur", "adm4_pcode": null, "adm4_name": null, "name_latin": "NBBL ATM" }, "geometry": { "type": "Point", "coordinates": [ 85.1470667, 27.8976485 ] } },
{ "type": "Feature", "properties": { "id": "node/9802458055", "name": "NBBL BANK Battar Branch", "name_en": null, "name_ne": null, "status": "Standing", "amenity": "bank", "operator": null, "network": null, "addr_full": null, "addr_city": null, "source": null, "adm0_pcode": "NPL", "adm0_name": "Nepal", "adm1_pcode": "NP03", "adm1_name": "Bagmati", "adm2_pcode": "NP0328", "adm2_name": "Nuwakot", "adm3_pcode": "NP0328301", "adm3_name": "Bidur", "adm4_pcode": null, "adm4_name": null, "name_latin": "NBBL BANK Battar Branch" }, "geometry": { "type": "Point", "coordinates": [ 85.1470117, 27.89769 ] } },
{ "type": "Feature", "properties": { "id": "node/9802458088", "name": "Prime ATM", "name_en": null, "name_ne": null, "status": "Standing", "amenity": "bank", "operator": null, "network": null, "addr_full": null, "addr_city": null, "source": null, "adm0_pcode": "NPL", "adm0_name": "Nepal", "adm1_pcode": "NP03", "adm1_name": "Bagmati", "adm2_pcode": "NP0328", "adm2_name": "Nuwakot", "adm3_pcode": "NP0328301", "adm3_name": "Bidur", "adm4_pcode": null, "adm4_name": null, "name_latin": "Prime ATM" }, "geometry": { "type": "Point", "coordinates": [ 85.1465679, 27.8977464 ] } },
{ "type": "Feature", "properties": { "id": "node/9802458054", "name": "Prime BANK BATTAR BRANCH", "name_en": null, "name_ne": null, "status": "Standing", "amenity": "bank", "operator": null, "network": null, "addr_full": null, "addr_city": null, "source": null, "adm0_pcode": "NPL", "adm0_name": "Nepal", "adm1_pcode": "NP03", "adm1_name": "Bagmati", "adm2_pcode": "NP0328", "adm2_name": "Nuwakot", "adm3_pcode": "NP0328301", "adm3_name": "Bidur", "adm4_pcode": null, "adm4_name": null, "name_latin": "Prime BANK BATTAR BRANCH" }, "geometry": { "type": "Point", "coordinates": [ 85.1465773, 27.8977831 ] } },
{ "type": "Feature", "properties": { "id": "node/9802458087", "name": "HBL ATM", "name_en": null, "name_ne": null, "status": "Standing", "amenity": "bank", "operator": null, "network": null, "addr_full": null, "addr_city": null, "source": null, "adm0_pcode": "NPL", "adm0_name": "Nepal", "adm1_pcode": "NP03", "adm1_name": "Bagmati", "adm2_pcode": "NP0328", "adm2_name": "Nuwakot", "adm3_pcode": "NP0328301", "adm3_name": "Bidur", "adm4_pcode": null, "adm4_name": null, "name_latin": "HBL ATM" }, "geometry": { "type": "Point", "coordinates": [ 85.1469022, 27.8981651 ] } },
{ "type": "Feature", "properties": { "id": "node/9802458052", "name": "LaxmiMF BANK Battar", "name_en": null, "name_ne": null, "status": "Standing", "amenity": "bank", "operator": null, "network": null, "addr_full": null, "addr_city": null, "source": null, "adm0_pcode": "NPL", "adm0_name": "Nepal", "adm1_pcode": "NP03", "adm1_name": "Bagmati", "adm2_pcode": "NP0328", "adm2_name": "Nuwakot", "adm3_pcode": "NP0328301", "adm3_name": "Bidur", "adm4_pcode": null, "adm4_name": null, "name_latin": "LaxmiMF BANK Battar" }, "geometry": { "type": "Point", "coordinates": [ 85.1469914, 27.8979942 ] } },
{ "type": "Feature", "properties": { "id": "node/9802458046", "name": "MeroMF BANK BATTAR BRANCH", "name_en": null, "name_ne": null, "status": "Standing", "amenity": "bank", "operator": null, "network": null, "addr_full": null, "addr_city": null, "source": null, "adm0_pcode": "NPL", "adm0_name": "Nepal", "adm1_pcode": "NP03", "adm1_name": "Bagmati", "adm2_pcode": "NP0328", "adm2_name": "Nuwakot", "adm3_pcode": "NP0328301", "adm3_name": "Bidur", "adm4_pcode": null, "adm4_name": null, "name_latin": "MeroMF BANK BATTAR BRANCH" }, "geometry": { "type": "Point", "coordinates": [ 85.1468208, 27.8982934 ] } },
{ "type": "Feature", "properties": { "id": "node/9802458048", "name": "MeroMF BANK CORPORATE OFFICE", "name_en": null, "name_ne": null, "status": "Standing", "amenity": "bank", "operator": null, "network": null, "addr_full": null, "addr_city": null, "source": null, "adm0_pcode": "NPL", "adm0_name": "Nepal", "adm1_pcode": "NP03", "adm1_name": "Bagmati", "adm2_pcode": "NP0328", "adm2_name": "Nuwakot", "adm3_pcode": "NP0328301", "adm3_name": "Bidur", "adm4_pcode": null, "adm4_name": null, "name_latin": "MeroMF BANK CORPORATE OFFICE" }, "geometry": { "type": "Point", "coordinates": [ 85.146822, 27.8982571 ] } },
{ "type": "Feature", "properties": { "id": "node/9802458049", "name": "HBL BANK Trishuli Branch", "name_en": null, "name_ne": null, "status": "Standing", "amenity": "bank", "operator": null, "network": null, "addr_full": null, "addr_city": null, "source": null, "adm0_pcode": "NPL", "adm0_name": "Nepal", "adm1_pcode": "NP03", "adm1_name": "Bagmati", "adm2_pcode": "NP0328", "adm2_name": "Nuwakot", "adm3_pcode": "NP0328301", "adm3_name": "Bidur", "adm4_pcode": null, "adm4_name": null, "name_latin": "HBL BANK Trishuli Branch" }, "geometry": { "type": "Point", "coordinates": [ 85.146913, 27.8982042 ] } },
{ "type": "Feature", "properties": { "id": "node/9802458047", "name": "Chhimek BANK Betrawati Branch Office", "name_en": null, "name_ne": null, "status": "Standing", "amenity": "bank", "operator": null, "network": null, "addr_full": null, "addr_city": null, "source": null, "adm0_pcode": "NPL", "adm0_name": "Nepal", "adm1_pcode": "NP03", "adm1_name": "Bagmati", "adm2_pcode": "NP0328", "adm2_name": "Nuwakot", "adm3_pcode": "NP0328301", "adm3_name": "Bidur", "adm4_pcode": null, "adm4_name": null, "name_latin": "Chhimek BANK Betrawati Branch Office" }, "geometry": { "type": "Point", "coordinates": [ 85.145974, 27.8982762 ] } },
{ "type": "Feature", "properties": { "id": "node/9802458050", "name": "Mukti BANK Battar Branch", "name_en": null, "name_ne": null, "status": "Standing", "amenity": "bank", "operator": null, "network": null, "addr_full": null, "addr_city": null, "source": null, "adm0_pcode": "NPL", "adm0_name": "Nepal", "adm1_pcode": "NP03", "adm1_name": "Bagmati", "adm2_pcode": "NP0328", "adm2_name": "Nuwakot", "adm3_pcode": "NP0328301", "adm3_name": "Bidur", "adm4_pcode": null, "adm4_name": null, "name_latin": "Mukti BANK Battar Branch" }, "geometry": { "type": "Point", "coordinates": [ 85.1463393, 27.8981443 ] } },
{ "type": "Feature", "properties": { "id": "node/9802458051", "name": "Kumari BANK Battar", "name_en": null, "name_ne": null, "status": "Standing", "amenity": "bank", "operator": null, "network": null, "addr_full": null, "addr_city": null, "source": null, "adm0_pcode": "NPL", "adm0_name": "Nepal", "adm1_pcode": "NP03", "adm1_name": "Bagmati", "adm2_pcode": "NP0328", "adm2_name": "Nuwakot", "adm3_pcode": "NP0328301", "adm3_name": "Bidur", "adm4_pcode": null, "adm4_name": null, "name_latin": "Kumari BANK Battar" }, "geometry": { "type": "Point", "coordinates": [ 85.1464001, 27.8980015 ] } },
{ "type": "Feature", "properties": { "id": "node/9802458028", "name": "SWomi BANK Battar", "name_en": null, "name_ne": null, "status": "Standing", "amenity": "bank", "operator": null, "network": null, "addr_full": null, "addr_city": null, "source": null, "adm0_pcode": "NPL", "adm0_name": "Nepal", "adm1_pcode": "NP03", "adm1_name": "Bagmati", "adm2_pcode": "NP0328", "adm2_name": "Nuwakot", "adm3_pcode": "NP0328301", "adm3_name": "Bidur", "adm4_pcode": null, "adm4_name": null, "name_latin": "SWomi BANK Battar" }, "geometry": { "type": "Point", "coordinates": [ 85.1478892, 27.8995851 ] } },
{ "type": "Feature", "properties": { "id": "node/9802458037", "name": "NADEP BANK Battar, Nuwakot", "name_en": null, "name_ne": null, "status": "Standing", "amenity": "bank", "operator": null, "network": null, "addr_full": null, "addr_city": null, "source": null, "adm0_pcode": "NPL", "adm0_name": "Nepal", "adm1_pcode": "NP03", "adm1_name": "Bagmati", "adm2_pcode": "NP0328", "adm2_name": "Nuwakot", "adm3_pcode": "NP0328301", "adm3_name": "Bidur", "adm4_pcode": null, "adm4_name": null, "name_latin": "NADEP BANK Battar, Nuwakot" }, "geometry": { "type": "Point", "coordinates": [ 85.148042, 27.903613 ] } },
{ "type": "Feature", "properties": { "id": "node/9802458040", "name": "Jyoti BANK Battar", "name_en": null, "name_ne": null, "status": "Standing", "amenity": "bank", "operator": null, "network": null, "addr_full": null, "addr_city": null, "source": null, "adm0_pcode": "NPL", "adm0_name": "Nepal", "adm1_pcode": "NP03", "adm1_name": "Bagmati", "adm2_pcode": "NP0328", "adm2_name": "Nuwakot", "adm3_pcode": "NP0328301", "adm3_name": "Bidur", "adm4_pcode": null, "adm4_name": null, "name_latin": "Jyoti BANK Battar" }, "geometry": { "type": "Point", "coordinates": [ 85.1482867, 27.9031975 ] } },
{ "type": "Feature", "properties": { "id": "node/9802458084", "name": "Jyoti ATM", "name_en": null, "name_ne": null, "status": "Standing", "amenity": "bank", "operator": null, "network": null, "addr_full": null, "addr_city": null, "source": null, "adm0_pcode": "NPL", "adm0_name": "Nepal", "adm1_pcode": "NP03", "adm1_name": "Bagmati", "adm2_pcode": "NP0328", "adm2_name": "Nuwakot", "adm3_pcode": "NP0328301", "adm3_name": "Bidur", "adm4_pcode": null, "adm4_name": null, "name_latin": "Jyoti ATM" }, "geometry": { "type": "Point", "coordinates": [ 85.1483001, 27.903079 ] } },
{ "type": "Feature", "properties": { "id": "node/9802458038", "name": "NEPALGBB BANK Branch Office Battar", "name_en": null, "name_ne": null, "status": "Standing", "amenity": "bank", "operator": null, "network": null, "addr_full": null, "addr_city": null, "source": null, "adm0_pcode": "NPL", "adm0_name": "Nepal", "adm1_pcode": "NP03", "adm1_name": "Bagmati", "adm2_pcode": "NP0328", "adm2_name": "Nuwakot", "adm3_pcode": "NP0328301", "adm3_name": "Bidur", "adm4_pcode": null, "adm4_name": null, "name_latin": "NEPALGBB BANK Branch Office Battar" }, "geometry": { "type": "Point", "coordinates": [ 85.146102, 27.903158 ] } },
{ "type": "Feature", "properties": { "id": "node/9802458039", "name": "NMB BANK Battar", "name_en": null, "name_ne": null, "status": "Standing", "amenity": "bank", "operator": null, "network": null, "addr_full": null, "addr_city": null, "source": null, "adm0_pcode": "NPL", "adm0_name": "Nepal", "adm1_pcode": "NP03", "adm1_name": "Bagmati", "adm2_pcode": "NP0328", "adm2_name": "Nuwakot", "adm3_pcode": "NP0328301", "adm3_name": "Bidur", "adm4_pcode": null, "adm4_name": null, "name_latin": "NMB BANK Battar" }, "geometry": { "type": "Point", "coordinates": [ 85.1431927, 27.9030336 ] } },
{ "type": "Feature", "properties": { "id": "node/9802458042", "name": "Sunrise BANK Battar Branch", "name_en": null, "name_ne": null, "status": "Standing", "amenity": "bank", "operator": null, "network": null, "addr_full": null, "addr_city": null, "source": null, "adm0_pcode": "NPL", "adm0_name": "Nepal", "adm1_pcode": "NP03", "adm1_name": "Bagmati", "adm2_pcode": "NP0328", "adm2_name": "Nuwakot", "adm3_pcode": "NP0328301", "adm3_name": "Bidur", "adm4_pcode": null, "adm4_name": null, "name_latin": "Sunrise BANK Battar Branch" }, "geometry": { "type": "Point", "coordinates": [ 85.1419602, 27.9021861 ] } },
{ "type": "Feature", "properties": { "id": "node/9802458085", "name": "Sunrise ATM", "name_en": null, "name_ne": null, "status": "Standing", "amenity": "bank", "operator": null, "network": null, "addr_full": null, "addr_city": null, "source": null, "adm0_pcode": "NPL", "adm0_name": "Nepal", "adm1_pcode": "NP03", "adm1_name": "Bagmati", "adm2_pcode": "NP0328", "adm2_name": "Nuwakot", "adm3_pcode": "NP0328301", "adm3_name": "Bidur", "adm4_pcode": null, "adm4_name": null, "name_latin": "Sunrise ATM" }, "geometry": { "type": "Point", "coordinates": [ 85.1420434, 27.9020545 ] } },
{ "type": "Feature", "properties": { "id": "node/11806454969", "name": null, "name_en": "NIC Asia Bank", "name_ne": null, "status": "Standing", "amenity": "bank", "operator": null, "network": null, "addr_full": null, "addr_city": null, "source": null, "adm0_pcode": "NPL", "adm0_name": "Nepal", "adm1_pcode": "NP03", "adm1_name": "Bagmati", "adm2_pcode": "NP0328", "adm2_name": "Nuwakot", "adm3_pcode": "NP0328301", "adm3_name": "Bidur", "adm4_pcode": null, "adm4_name": null, "name_latin": "NIC Asia Bank" }, "geometry": { "type": "Point", "coordinates": [ 85.1856148, 27.9733029 ] } },
{ "type": "Feature", "properties": { "id": "node/9802458041", "name": "Mega BANK Bidur Branch", "name_en": null, "name_ne": null, "status": "Standing", "amenity": "bank", "operator": null, "network": null, "addr_full": null, "addr_city": null, "source": null, "adm0_pcode": "NPL", "adm0_name": "Nepal", "adm1_pcode": "NP03", "adm1_name": "Bagmati", "adm2_pcode": "NP0328", "adm2_name": "Nuwakot", "adm3_pcode": "NP0328301", "adm3_name": "Bidur", "adm4_pcode": null, "adm4_name": null, "name_latin": "Mega BANK Bidur Branch" }, "geometry": { "type": "Point", "coordinates": [ 85.1416839, 27.9051551 ] } },
{ "type": "Feature", "properties": { "id": "node/9519236718", "name": "Muktinath Bikash Bank", "name_en": null, "name_ne": null, "status": "Standing", "amenity": "bank", "operator": null, "network": null, "addr_full": null, "addr_city": null, "source": null, "adm0_pcode": "NPL", "adm0_name": "Nepal", "adm1_pcode": "NP03", "adm1_name": "Bagmati", "adm2_pcode": "NP0330", "adm2_name": "Dhading", "adm3_pcode": "NP0330410", "adm3_name": "Galchhi", "adm4_pcode": null, "adm4_name": null, "name_latin": "Muktinath Bikash Bank" }, "geometry": { "type": "Point", "coordinates": [ 85.0003749, 27.7956401 ] } },
{ "type": "Feature", "properties": { "id": "node/9802458063", "name": "Swalamban BANK Khadgabhanjyang Branch", "name_en": null, "name_ne": null, "status": "Standing", "amenity": "bank", "operator": null, "network": null, "addr_full": null, "addr_city": null, "source": null, "adm0_pcode": "NPL", "adm0_name": "Nepal", "adm1_pcode": "NP03", "adm1_name": "Bagmati", "adm2_pcode": "NP0328", "adm2_name": "Nuwakot", "adm3_pcode": "NP0328301", "adm3_name": "Bidur", "adm4_pcode": null, "adm4_name": null, "name_latin": "Swalamban BANK Khadgabhanjyang Branch" }, "geometry": { "type": "Point", "coordinates": [ 85.0869577, 27.8651013 ] } },
{ "type": "Feature", "properties": { "id": "node/9802458064", "name": "CivilMF BANK KHADGABHANJYANG", "name_en": null, "name_ne": null, "status": "Standing", "amenity": "bank", "operator": null, "network": null, "addr_full": null, "addr_city": null, "source": null, "adm0_pcode": "NPL", "adm0_name": "Nepal", "adm1_pcode": "NP03", "adm1_name": "Bagmati", "adm2_pcode": "NP0328", "adm2_name": "Nuwakot", "adm3_pcode": "NP0328301", "adm3_name": "Bidur", "adm4_pcode": null, "adm4_name": null, "name_latin": "CivilMF BANK KHADGABHANJYANG" }, "geometry": { "type": "Point", "coordinates": [ 85.1075893, 27.8607959 ] } },
{ "type": "Feature", "properties": { "id": "node/9802458066", "name": "Asha BANK Devighat Branch", "name_en": null, "name_ne": null, "status": "Standing", "amenity": "bank", "operator": null, "network": null, "addr_full": null, "addr_city": null, "source": null, "adm0_pcode": "NPL", "adm0_name": "Nepal", "adm1_pcode": "NP03", "adm1_name": "Bagmati", "adm2_pcode": "NP0328", "adm2_name": "Nuwakot", "adm3_pcode": "NP0328301", "adm3_name": "Bidur", "adm4_pcode": null, "adm4_name": null, "name_latin": "Asha BANK Devighat Branch" }, "geometry": { "type": "Point", "coordinates": [ 85.1106551, 27.8599148 ] } },
{ "type": "Feature", "properties": { "id": "node/9802458067", "name": "LumbiniDB BANK Devighat", "name_en": null, "name_ne": null, "status": "Standing", "amenity": "bank", "operator": null, "network": null, "addr_full": null, "addr_city": null, "source": null, "adm0_pcode": "NPL", "adm0_name": "Nepal", "adm1_pcode": "NP03", "adm1_name": "Bagmati", "adm2_pcode": "NP0328", "adm2_name": "Nuwakot", "adm3_pcode": "NP0328301", "adm3_name": "Bidur", "adm4_pcode": null, "adm4_name": null, "name_latin": "LumbiniDB BANK Devighat" }, "geometry": { "type": "Point", "coordinates": [ 85.1089467, 27.8590766 ] } },
{ "type": "Feature", "properties": { "id": "node/9802458065", "name": "Mirmire BANK Kalyanpur Branch", "name_en": null, "name_ne": null, "status": "Destroyed", "amenity": "bank", "operator": null, "network": null, "addr_full": null, "addr_city": null, "source": null, "adm0_pcode": "NPL", "adm0_name": "Nepal", "adm1_pcode": "NP03", "adm1_name": "Bagmati", "adm2_pcode": "NP0328", "adm2_name": "Nuwakot", "adm3_pcode": "NP0328301", "adm3_name": "Bidur", "adm4_pcode": null, "adm4_name": null, "name_latin": "Mirmire BANK Kalyanpur Branch" }, "geometry": { "type": "Point", "coordinates": [ 85.1108014, 27.8607801 ] } }
]
}
