{
"type": "FeatureCollection",
"name": "health_facilities",
"crs": { "type": "name", "properties": { "name": "urn:ogc:def:crs:OGC:1.3:CRS84" } },
"features": [
{ "type": "Feature", "properties": { "id": "node/8719151117", "name": null, "name_en": "community health services", "name_ne": null, "status": "Standing", "amenity": "clinic", "building": null, "healthcare": null, "healthcare_speciality": null, "operator_type": null, "capacity_persons": null, "addr_full": null, "addr_city": null, "source": null, "adm0_pcode": "NPL", "adm0_name": "Nepal", "adm1_pcode": "NP03", "adm1_name": "Bagmati", "adm2_pcode": "NP0328", "adm2_name": "Nuwakot", "adm3_pcode": "NP0328301", "adm3_name": "Bidur", "adm4_pcode": null, "adm4_name": null, "name_latin": "community health services" }, "geometry": { "type": "Point", "coordinates": [ 85.1685284, 27.9671603 ] } },
{ "type": "Feature", "properties": { "id": "node/5562281921", "name": null, "name_en": "Highway Healthcare Pharma", "name_ne": null, "status": "Standing", "amenity": "pharmacy", "building": null, "healthcare": null, "healthcare_speciality": null, "operator_type": null, "capacity_persons": null, "addr_full": null, "addr_city": null, "source": null, "adm0_pcode": "NPL", "adm0_name": "Nepal", "adm1_pcode": "NP03", "adm1_name": "Bagmati", "adm2_pcode": "NP0330", "adm2_name": "Dhading", "adm3_pcode": "NP0330408", "adm3_name": "Benighat Rorang", "adm4_pcode": null, "adm4_name": null, "name_latin": "Highway Healthcare Pharma" }, "geometry": { "type": "Point", "coordinates": [ 84.8278453, 27.8136943 ] } },
{ "type": "Feature", "properties": { "id": "node/3408491299", "name": "Bihani Pharmacy", "name_en": null, "name_ne": null, "status": "Standing", "amenity": "pharmacy", "building": null, "healthcare": null, "healthcare_speciality": null, "operator_type": null, "capacity_persons": null, "addr_full": null, "addr_city": null, "source": null, "adm0_pcode": "NPL", "adm0_name": "Nepal", "adm1_pcode": "NP03", "adm1_name": "Bagmati", "adm2_pcode": "NP0330", "adm2_name": "Dhading", "adm3_pcode": "NP0330408", "adm3_name": "Benighat Rorang", "adm4_pcode": null, "adm4_name": null, "name_latin": "Bihani Pharmacy" }, "geometry": { "type": "Point", "coordinates": [ 84.7043051, 27.8056745 ] } },
{ "type": "Feature", "properties": { "id": "node/10712349307", "name": "Sanjivani Hospital", "name_en": null, "name_ne": null, "status": "Standing", "amenity": "hospital", "building": null, "healthcare": null, "healthcare_speciality": null, "operator_type": null, "capacity_persons": null, "addr_full": null, "addr_city": null, "source": null, "adm0_pcode": "NPL", "adm0_name": "Nepal", "adm1_pcode": "NP03", "adm1_name": "Bagmati", "adm2_pcode": "NP0328", "adm2_name": "Nuwakot", "adm3_pcode": "NP0328301", "adm3_name": "Bidur", "adm4_pcode": null, "adm4_name": null, "name_latin": "Sanjivani Hospital" }, "geometry": { "type": "Point", "coordinates": [ 85.1460541, 27.8992606 ] } },
{ "type": "Feature", "properties": { "id": "node/4367674790", "name": null, "name_en": "lions dental hospital", "name_ne": null, "status": "Standing", "amenity": "dentist", "building": null, "healthcare": null, "healthcare_speciality": null, "operator_type": null, "capacity_persons": null, "addr_full": null, "addr_city": null, "source": null, "adm0_pcode": "NPL", "adm0_name": "Nepal", "adm1_pcode": "NP03", "adm1_name": "Bagmati", "adm2_pcode": "NP0328", "adm2_name": "Nuwakot", "adm3_pcode": "NP0328301", "adm3_name": "Bidur", "adm4_pcode": null, "adm4_name": null, "name_latin": "lions dental hospital" }, "geometry": { "type": "Point", "coordinates": [ 85.1404348, 27.9218403 ] } },
{ "type": "Feature", "properties": { "id": "node/5633699314", "name": "Primary Health Center, Gajuri", "name_en": null, "name_ne": "प्राथमिक स्वस्थ केन्द्र, गजुरी", "status": "Standing", "amenity": "hospital", "building": null, "healthcare": null, "healthcare_speciality": null, "operator_type": null, "capacity_persons": null, "addr_full": null, "addr_city": null, "source": null, "adm0_pcode": "NPL", "adm0_name": "Nepal", "adm1_pcode": "NP03", "adm1_name": "Bagmati", "adm2_pcode": "NP0330", "adm2_name": "Dhading", "adm3_pcode": "NP0330409", "adm3_name": "Gajuri", "adm4_pcode": null, "adm4_name": null, "name_latin": "Primary Health Center, Gajuri" }, "geometry": { "type": "Point", "coordinates": [ 84.8799835, 27.8064806 ] } },
{ "type": "Feature", "properties": { "id": "node/3408491510", "name": "Gajuri Hospital", "name_en": null, "name_ne": null, "status": "Standing", "amenity": "hospital", "building": null, "healthcare": null, "healthcare_speciality": null, "operator_type": null, "capacity_persons": null, "addr_full": null, "addr_city": null, "source": null, "adm0_pcode": "NPL", "adm0_name": "Nepal", "adm1_pcode": "NP03", "adm1_name": "Bagmati", "adm2_pcode": "NP0330", "adm2_name": "Dhading", "adm3_pcode": "NP0330409", "adm3_name": "Gajuri", "adm4_pcode": null, "adm4_name": null, "name_latin": "Gajuri Hospital" }, "geometry": { "type": "Point", "coordinates": [ 84.8793615, 27.8052449 ] } },
{ "type": "Feature", "properties": { "id": "node/9519234918", "name": "Darpan Ayurbed Aaushadalaya", "name_en": null, "name_ne": null, "status": "Standing", "amenity": "pharmacy", "building": null, "healthcare": null, "healthcare_speciality": null, "operator_type": null, "capacity_persons": null, "addr_full": null, "addr_city": null, "source": null, "adm0_pcode": "NPL", "adm0_name": "Nepal", "adm1_pcode": "NP03", "adm1_name": "Bagmati", "adm2_pcode": "NP0330", "adm2_name": "Dhading", "adm3_pcode": "NP0330409", "adm3_name": "Gajuri", "adm4_pcode": null, "adm4_name": null, "name_latin": "Darpan Ayurbed Aaushadalaya" }, "geometry": { "type": "Point", "coordinates": [ 84.8801169, 27.80529 ] } },
{ "type": "Feature", "properties": { "id": "node/11977559253", "name": "Kabilas Health Center", "name_en": null, "name_ne": null, "status": "Standing", "amenity": "clinic", "building": null, "healthcare": null, "healthcare_speciality": null, "operator_type": null, "capacity_persons": null, "addr_full": null, "addr_city": null, "source": null, "adm0_pcode": "NPL", "adm0_name": "Nepal", "adm1_pcode": "NP03", "adm1_name": "Bagmati", "adm2_pcode": "NP0335", "adm2_name": "Chitawan", "adm3_pcode": "NP0335101", "adm3_name": "Bharatpur", "adm4_pcode": null, "adm4_name": null, "name_latin": "Kabilas Health Center" }, "geometry": { "type": "Point", "coordinates": [ 84.4705228, 27.7677226 ] } },
{ "type": "Feature", "properties": { "id": "node/11977571161", "name": "Landseed Health Care Chitwan", "name_en": null, "name_ne": null, "status": "Standing", "amenity": "clinic", "building": null, "healthcare": null, "healthcare_speciality": null, "operator_type": null, "capacity_persons": null, "addr_full": null, "addr_city": null, "source": null, "adm0_pcode": "NPL", "adm0_name": "Nepal", "adm1_pcode": "NP03", "adm1_name": "Bagmati", "adm2_pcode": "NP0335", "adm2_name": "Chitawan", "adm3_pcode": "NP0335101", "adm3_name": "Bharatpur", "adm4_pcode": null, "adm4_name": null, "name_latin": "Landseed Health Care Chitwan" }, "geometry": { "type": "Point", "coordinates": [ 84.4705872, 27.7679054 ] } },
{ "type": "Feature", "properties": { "id": "node/11990085908", "name": "Devghat BHCC", "name_en": null, "name_ne": null, "status": "Standing", "amenity": "clinic", "building": null, "healthcare": null, "healthcare_speciality": null, "operator_type": null, "capacity_persons": null, "addr_full": null, "addr_city": null, "source": null, "adm0_pcode": "NPL", "adm0_name": "Nepal", "adm1_pcode": "NP04", "adm1_name": "Gandaki", "adm2_pcode": "NP0440", "adm2_name": "Tanahu", "adm3_pcode": "NP0440406", "adm3_name": "Devghat", "adm4_pcode": null, "adm4_name": null, "name_latin": "Devghat BHCC" }, "geometry": { "type": "Point", "coordinates": [ 84.4416234, 27.7569009 ] } },
{ "type": "Feature", "properties": { "id": "node/4833882821", "name": null, "name_en": "Bhagwati Memorial Hospital", "name_ne": null, "status": "Standing", "amenity": "hospital", "building": null, "healthcare": null, "healthcare_speciality": null, "operator_type": null, "capacity_persons": null, "addr_full": null, "addr_city": null, "source": null, "adm0_pcode": "NPL", "adm0_name": "Nepal", "adm1_pcode": "NP03", "adm1_name": "Bagmati", "adm2_pcode": "NP0328", "adm2_name": "Nuwakot", "adm3_pcode": "NP0328301", "adm3_name": "Bidur", "adm4_pcode": null, "adm4_name": null, "name_latin": "Bhagwati Memorial Hospital" }, "geometry": { "type": "Point", "coordinates": [ 85.1457805, 27.9026442 ] } },
{ "type": "Feature", "properties": { "id": "node/4367705591", "name": null, "name_en": "Panchakanaya Community Hospital", "name_ne": null, "status": "Standing", "amenity": "hospital", "building": null, "healthcare": null, "healthcare_speciality": null, "operator_type": null, "capacity_persons": null, "addr_full": null, "addr_city": null, "source": null, "adm0_pcode": "NPL", "adm0_name": "Nepal", "adm1_pcode": "NP03", "adm1_name": "Bagmati", "adm2_pcode": "NP0328", "adm2_name": "Nuwakot", "adm3_pcode": "NP0328301", "adm3_name": "Bidur", "adm4_pcode": null, "adm4_name": null, "name_latin": "Panchakanaya Community Hospital" }, "geometry": { "type": "Point", "coordinates": [ 85.1457841, 27.9015088 ] } },
{ "type": "Feature", "properties": { "id": "node/3408490712", "name": "Rajmarga Samudayak Hospital", "name_en": "Highway Community Hospital", "name_ne": null, "status": "Standing", "amenity": "hospital", "building": null, "healthcare": null, "healthcare_speciality": null, "operator_type": null, "capacity_persons": null, "addr_full": null, "addr_city": null, "source": null, "adm0_pcode": "NPL", "adm0_name": "Nepal", "adm1_pcode": "NP03", "adm1_name": "Bagmati", "adm2_pcode": "NP0330", "adm2_name": "Dhading", "adm3_pcode": "NP0330408", "adm3_name": "Benighat Rorang", "adm4_pcode": null, "adm4_name": null, "name_latin": "Highway Community Hospital" }, "geometry": { "type": "Point", "coordinates": [ 84.8334747, 27.8111146 ] } },
{ "type": "Feature", "properties": { "id": "node/9510297618", "name": "Benighat Health Cllinic", "name_en": null, "name_ne": null, "status": "Standing", "amenity": "clinic", "building": null, "healthcare": null, "healthcare_speciality": null, "operator_type": null, "capacity_persons": null, "addr_full": null, "addr_city": null, "source": null, "adm0_pcode": "NPL", "adm0_name": "Nepal", "adm1_pcode": "NP03", "adm1_name": "Bagmati", "adm2_pcode": "NP0330", "adm2_name": "Dhading", "adm3_pcode": "NP0330408", "adm3_name": "Benighat Rorang", "adm4_pcode": null, "adm4_name": null, "name_latin": "Benighat Health Cllinic" }, "geometry": { "type": "Point", "coordinates": [ 84.7800149, 27.8106241 ] } },
{ "type": "Feature", "properties": { "id": "relation/10953586", "name": "Trishuli Hospital", "name_en": null, "name_ne": null, "status": "Standing", "amenity": "hospital", "building": null, "healthcare": null, "healthcare_speciality": null, "operator_type": null, "capacity_persons": null, "addr_full": null, "addr_city": "Nuwakot", "source": null, "adm0_pcode": "NPL", "adm0_name": "Nepal", "adm1_pcode": "NP03", "adm1_name": "Bagmati", "adm2_pcode": "NP0328", "adm2_name": "Nuwakot", "adm3_pcode": "NP0328301", "adm3_name": "Bidur", "adm4_pcode": null, "adm4_name": null, "name_latin": "Trishuli Hospital" }, "geometry": { "type": "Polygon", "coordinates": [ [ [ 85.140477, 27.9245983 ], [ 85.1405468, 27.9244939 ], [ 85.1408525, 27.9242736 ], [ 85.1412146, 27.9243518 ], [ 85.1414493, 27.9248365 ], [ 85.141405, 27.9249289 ], [ 85.1410912, 27.9250059 ], [ 85.1408204, 27.925026 ], [ 85.140477, 27.9245983 ] ], [ [ 85.140586, 27.9245845 ], [ 85.1406312, 27.9246387 ], [ 85.1407534, 27.9245591 ], [ 85.1407082, 27.9245049 ], [ 85.140586, 27.9245845 ] ], [ [ 85.1406426, 27.9246338 ], [ 85.1408035, 27.924891 ], [ 85.140935, 27.9248275 ], [ 85.1409041, 27.9247781 ], [ 85.1408358, 27.9248108 ], [ 85.1407368, 27.9246527 ], [ 85.1408099, 27.924617 ], [ 85.1407788, 27.9245673 ], [ 85.1406426, 27.9246338 ] ], [ [ 85.1407317, 27.9244828 ], [ 85.1407963, 27.9245601 ], [ 85.1408311, 27.9245374 ], [ 85.1408512, 27.9245614 ], [ 85.1409091, 27.9245237 ], [ 85.140889, 27.9244997 ], [ 85.1409466, 27.9244622 ], [ 85.1408952, 27.9244006 ], [ 85.1407801, 27.9244756 ], [ 85.1407669, 27.9244599 ], [ 85.1407317, 27.9244828 ] ], [ [ 85.1408596, 27.9245809 ], [ 85.1409585, 27.924739 ], [ 85.1410172, 27.9247104 ], [ 85.1409175, 27.9245581 ], [ 85.1408596, 27.9245809 ] ], [ [ 85.1409088, 27.9247751 ], [ 85.1409438, 27.924831 ], [ 85.1411603, 27.9247248 ], [ 85.1411254, 27.924669 ], [ 85.1409675, 27.9247465 ], [ 85.1409088, 27.9247751 ] ], [ [ 85.1410319, 27.9248146 ], [ 85.141102, 27.9248925 ], [ 85.1411913, 27.9248298 ], [ 85.1411372, 27.9247697 ], [ 85.1411072, 27.9247907 ], [ 85.1410912, 27.924773 ], [ 85.1410319, 27.9248146 ] ], [ [ 85.141085, 27.9245957 ], [ 85.1411298, 27.9246672 ], [ 85.1411647, 27.924723 ], [ 85.1412973, 27.9249349 ], [ 85.1414147, 27.9248775 ], [ 85.1412025, 27.9245383 ], [ 85.141085, 27.9245957 ] ] ] } },
{ "type": "Feature", "properties": { "id": "way/589973190", "name": null, "name_en": null, "name_ne": "प्राथमिक स्वस्थ केन्द्र, गजुरी", "status": "Standing", "amenity": "hospital", "building": null, "healthcare": null, "healthcare_speciality": null, "operator_type": null, "capacity_persons": null, "addr_full": null, "addr_city": null, "source": null, "adm0_pcode": "NPL", "adm0_name": "Nepal", "adm1_pcode": "NP03", "adm1_name": "Bagmati", "adm2_pcode": "NP0330", "adm2_name": "Dhading", "adm3_pcode": "NP0330409", "adm3_name": "Gajuri", "adm4_pcode": null, "adm4_name": null, "name_latin": null }, "geometry": { "type": "Polygon", "coordinates": [ [ [ 84.8798078, 27.8065696 ], [ 84.8798347, 27.8065245 ], [ 84.8799312, 27.8063383 ], [ 84.8799902, 27.8062529 ], [ 84.8800345, 27.8062398 ], [ 84.880119, 27.806241 ], [ 84.8802209, 27.8062386 ], [ 84.8802531, 27.806254 ], [ 84.8802383, 27.8062956 ], [ 84.8802102, 27.8063371 ], [ 84.8801444, 27.8064948 ], [ 84.8800465, 27.8066728 ], [ 84.8798159, 27.8065874 ], [ 84.8798078, 27.8065696 ] ] ] } },
{ "type": "Feature", "properties": { "id": "way/589964037", "name": "Gajuri Hospital", "name_en": null, "name_ne": null, "status": "Standing", "amenity": "hospital", "building": null, "healthcare": null, "healthcare_speciality": null, "operator_type": null, "capacity_persons": null, "addr_full": null, "addr_city": null, "source": null, "adm0_pcode": "NPL", "adm0_name": "Nepal", "adm1_pcode": "NP03", "adm1_name": "Bagmati", "adm2_pcode": "NP0330", "adm2_name": "Dhading", "adm3_pcode": "NP0330409", "adm3_name": "Gajuri", "adm4_pcode": null, "adm4_name": null, "name_latin": "Gajuri Hospital" }, "geometry": { "type": "Polygon", "coordinates": [ [ [ 84.8791828, 27.8054185 ], [ 84.87922, 27.8053192 ], [ 84.8792647, 27.8053323 ], [ 84.8793492, 27.8051069 ], [ 84.8794959, 27.8051293 ], [ 84.8793532, 27.8054735 ], [ 84.8792542, 27.8054414 ], [ 84.8792309, 27.8054338 ], [ 84.8791923, 27.8054213 ], [ 84.8791828, 27.8054185 ] ] ] } }
]
}
