{
"type": "FeatureCollection",
"name": "health_facilities",
"crs": { "type": "name", "properties": { "name": "urn:ogc:def:crs:OGC:1.3:CRS84" } },
"features": [
{ "type": "Feature", "properties": { "id": "97cd6c87-6cf6-4eba-aad1-333f7a0444ef", "name": "Trisuli District Hospital", "name_en": null, "category": "hospital", "address": null, "phone": null, "website": null, "confidence": 0.94661062955856323, "source": "meta", "adm0_pcode": "NPL", "adm0_name": "Nepal", "adm1_pcode": "NP03", "adm1_name": "Bagmati", "adm2_pcode": "NP0328", "adm2_name": "Nuwakot", "adm3_pcode": "NP0328301", "adm3_name": "Bidur", "adm4_pcode": null, "adm4_name": null, "name_latin": "Trisuli District Hospital" }, "geometry": { "type": "Point", "coordinates": [ 85.140967115293577, 27.924900928015553 ] } },
{ "type": "Feature", "properties": { "id": "8ccdf145-2a71-4790-9d14-8541b42a9b30", "name": "Nuwakot District Hospital", "name_en": null, "category": "hospital", "address": null, "phone": null, "website": null, "confidence": 0.96056616306304932, "source": "meta", "adm0_pcode": "NPL", "adm0_name": "Nepal", "adm1_pcode": "NP03", "adm1_name": "Bagmati", "adm2_pcode": "NP0328", "adm2_name": "Nuwakot", "adm3_pcode": "NP0328301", "adm3_name": "Bidur", "adm4_pcode": null, "adm4_name": null, "name_latin": "Nuwakot District Hospital" }, "geometry": { "type": "Point", "coordinates": [ 85.140813688852916, 27.924751844478024 ] } },
{ "type": "Feature", "properties": { "id": "0100f987-3383-493a-96bc-99c09d5d063b", "name": "Chakra Dev Hospital", "name_en": null, "category": "hospital", "address": "Pasang Lhamu Sherpa Highyway, Bidur-4", "phone": "+97710560669", "website": "http://www.chakradev.com/", "confidence": 0.95785123109817505, "source": "meta", "adm0_pcode": "NPL", "adm0_name": "Nepal", "adm1_pcode": "NP03", "adm1_name": "Bagmati", "adm2_pcode": "NP0328", "adm2_name": "Nuwakot", "adm3_pcode": "NP0328301", "adm3_name": "Bidur", "adm4_pcode": null, "adm4_name": null, "name_latin": "Chakra Dev Hospital" }, "geometry": { "type": "Point", "coordinates": [ 85.14402692, 27.90962305 ] } },
{ "type": "Feature", "properties": { "id": "626541a5-f460-4aa0-b706-4bd2d5f4a491", "name": "City Hospital Nuwakot", "name_en": null, "category": "hospital", "address": "bidur", "phone": null, "website": null, "confidence": 0.79818892478942871, "source": "meta", "adm0_pcode": "NPL", "adm0_name": "Nepal", "adm1_pcode": "NP03", "adm1_name": "Bagmati", "adm2_pcode": "NP0328", "adm2_name": "Nuwakot", "adm3_pcode": "NP0328301", "adm3_name": "Bidur", "adm4_pcode": null, "adm4_name": null, "name_latin": "City Hospital Nuwakot" }, "geometry": { "type": "Point", "coordinates": [ 85.14450511666125, 27.911019133507722 ] } },
{ "type": "Feature", "properties": { "id": "1a39da5d-45bc-4518-a0b2-524359c5f1ef", "name": "Education Master", "name_en": null, "category": "hospital", "address": "Nepal", "phone": null, "website": null, "confidence": 0.90586107969284058, "source": "meta", "adm0_pcode": "NPL", "adm0_name": "Nepal", "adm1_pcode": "NP03", "adm1_name": "Bagmati", "adm2_pcode": "NP0328", "adm2_name": "Nuwakot", "adm3_pcode": "NP0328301", "adm3_name": "Bidur", "adm4_pcode": null, "adm4_name": null, "name_latin": "Education Master" }, "geometry": { "type": "Point", "coordinates": [ 85.146175239301996, 27.899253333114 ] } },
{ "type": "Feature", "properties": { "id": "2535afe1-e9aa-4aaa-9cc8-997777763983", "name": "Sapkota Polyclinic Pvt.Ltd  Bidur 2- BattarNuwakot", "name_en": null, "category": "hospital", "address": null, "phone": "+9779841768946", "website": null, "confidence": 0.81327289342880249, "source": "meta", "adm0_pcode": "NPL", "adm0_name": "Nepal", "adm1_pcode": "NP03", "adm1_name": "Bagmati", "adm2_pcode": "NP0328", "adm2_name": "Nuwakot", "adm3_pcode": "NP0328301", "adm3_name": "Bidur", "adm4_pcode": null, "adm4_name": null, "name_latin": "Sapkota Polyclinic Pvt.Ltd  Bidur 2- BattarNuwakot" }, "geometry": { "type": "Point", "coordinates": [ 85.14659, 27.897375753348999 ] } },
{ "type": "Feature", "properties": { "id": "3e4c70fc-9eac-467d-a611-3adfbfb07f3d", "name": "Sanjibani Hospital Battar Nuwakot", "name_en": null, "category": "hospital", "address": "Battar", "phone": null, "website": null, "confidence": 0.72168910503387451, "source": "meta", "adm0_pcode": "NPL", "adm0_name": "Nepal", "adm1_pcode": "NP03", "adm1_name": "Bagmati", "adm2_pcode": "NP0328", "adm2_name": "Nuwakot", "adm3_pcode": "NP0328301", "adm3_name": "Bidur", "adm4_pcode": null, "adm4_name": null, "name_latin": "Sanjibani Hospital Battar Nuwakot" }, "geometry": { "type": "Point", "coordinates": [ 85.146247990939997, 27.899478256018 ] } },
{ "type": "Feature", "properties": { "id": "92b07aae-f649-4236-bc2d-2a5f10189cf2", "name": "Trishuli Dental Care", "name_en": null, "category": "dentist", "address": "Trishuli Bazar, Bidur-1", "phone": "+97710560935", "website": "https://linktr.ee/shreeharibogati", "confidence": 0.83280664682388306, "source": "meta", "adm0_pcode": "NPL", "adm0_name": "Nepal", "adm1_pcode": "NP03", "adm1_name": "Bagmati", "adm2_pcode": "NP0328", "adm2_name": "Nuwakot", "adm3_pcode": "NP0328301", "adm3_name": "Bidur", "adm4_pcode": null, "adm4_name": null, "name_latin": "Trishuli Dental Care" }, "geometry": { "type": "Point", "coordinates": [ 85.147250890731996, 27.922665601388999 ] } },
{ "type": "Feature", "properties": { "id": "34b14c8b-1661-4367-bd45-d02b0bdb7ca7", "name": "Lions Service Centre/ लायन्स सेवा केन्द्र", "name_en": null, "category": "hospital", "address": "ward 9 bidur", "phone": "+9779749336039", "website": null, "confidence": 0.77165907621383667, "source": "meta", "adm0_pcode": "NPL", "adm0_name": "Nepal", "adm1_pcode": "NP03", "adm1_name": "Bagmati", "adm2_pcode": "NP0328", "adm2_name": "Nuwakot", "adm3_pcode": "NP0328301", "adm3_name": "Bidur", "adm4_pcode": null, "adm4_name": null, "name_latin": "Lions Service Centre/ laayns sevaa kendr" }, "geometry": { "type": "Point", "coordinates": [ 85.15238, 27.93934 ] } },
{ "type": "Feature", "properties": { "id": "c13e24d4-8769-41c8-b6a0-a35b6d06e187", "name": "Malekhu Teaching Hospital/मलेखु टिचिङ हस्पिटल & Trauma Centre/ट्रमा सेन्टर", "name_en": null, "category": "hospital", "address": "Gajuri-02, Malekhu", "phone": "+9779861013109", "website": "http://malekhuhospital.com/", "confidence": 0.90015333890914917, "source": "meta", "adm0_pcode": "NPL", "adm0_name": "Nepal", "adm1_pcode": "NP03", "adm1_name": "Bagmati", "adm2_pcode": "NP0330", "adm2_name": "Dhading", "adm3_pcode": "NP0330407", "adm3_name": "Siddhalek", "adm4_pcode": null, "adm4_name": null, "name_latin": "Malekhu Teaching Hospital/mlekhu tticing hspittl & Trauma Centre/ttrmaa senttr" }, "geometry": { "type": "Point", "coordinates": [ 84.836614019354684, 27.805142790330574 ] } },
{ "type": "Feature", "properties": { "id": "12d4c182-4dcf-4da5-b390-bd2204656223", "name": "Khatiwada Medical", "name_en": null, "category": "pharmacy", "address": "Mahendra Marg", "phone": null, "website": null, "confidence": 0.57518965005874634, "source": "meta", "adm0_pcode": "NPL", "adm0_name": "Nepal", "adm1_pcode": "NP03", "adm1_name": "Bagmati", "adm2_pcode": "NP0330", "adm2_name": "Dhading", "adm3_pcode": "NP0330407", "adm3_name": "Siddhalek", "adm4_pcode": null, "adm4_name": null, "name_latin": "Khatiwada Medical" }, "geometry": { "type": "Point", "coordinates": [ 84.94385, 27.80784 ] } },
{ "type": "Feature", "properties": { "id": "7093e733-ae34-4300-9192-5bef45c0bbaa", "name": "AMBEE Bharosha Hospital pvt.ltd.", "name_en": null, "category": "health_and_medical", "address": "dhading", "phone": "+97710403188", "website": null, "confidence": 0.84785258769989014, "source": "meta", "adm0_pcode": "NPL", "adm0_name": "Nepal", "adm1_pcode": "NP03", "adm1_name": "Bagmati", "adm2_pcode": "NP0330", "adm2_name": "Dhading", "adm3_pcode": "NP0330410", "adm3_name": "Galchhi", "adm4_pcode": null, "adm4_name": null, "name_latin": "AMBEE Bharosha Hospital pvt.ltd." }, "geometry": { "type": "Point", "coordinates": [ 84.999845960008045, 27.798585460003185 ] } }
]
}
