{
"type": "FeatureCollection",
"name": "helipads",
"crs": { "type": "name", "properties": { "name": "urn:ogc:def:crs:OGC:1.3:CRS84" } },
"features": [
{ "type": "Feature", "properties": { "id": "node/3477288101", "name": null, "name_en": null, "name_ne": null, "status": "Standing", "aeroway": "helipad", "emergency": null, "emergency_helipad": null, "amenity": null, "surface": null, "operator": null, "operator_type": null, "access": null, "source": null, "adm0_pcode": "NPL", "adm0_name": "Nepal", "adm1_pcode": "NP03", "adm1_name": "Bagmati", "adm2_pcode": "NP0328", "adm2_name": "Nuwakot", "adm3_pcode": "NP0328301", "adm3_name": "Bidur", "adm4_pcode": null, "adm4_name": null, "name_latin": null }, "geometry": { "type": "Point", "coordinates": [ 85.1506436, 27.9025002 ] } },
{ "type": "Feature", "properties": { "id": "node/3498339453", "name": null, "name_en": null, "name_ne": null, "status": "Standing", "aeroway": null, "emergency": null, "emergency_helipad": "potential", "amenity": null, "surface": null, "operator": null, "operator_type": null, "access": null, "source": null, "adm0_pcode": "NPL", "adm0_name": "Nepal", "adm1_pcode": "NP03", "adm1_name": "Bagmati", "adm2_pcode": "NP0329", "adm2_name": "Rasuwa", "adm3_pcode": "NP0329403", "adm3_name": "Uttargaya", "adm4_pcode": null, "adm4_name": null, "name_latin": null }, "geometry": { "type": "Point", "coordinates": [ 85.2065984, 28.0733647 ] } },
{ "type": "Feature", "properties": { "id": "way/341587236", "name": null, "name_en": null, "name_ne": null, "status": "Destroyed", "aeroway": "helipad", "emergency": null, "emergency_helipad": null, "amenity": null, "surface": null, "operator": null, "operator_type": null, "access": null, "source": null, "adm0_pcode": "NPL", "adm0_name": "Nepal", "adm1_pcode": "NP03", "adm1_name": "Bagmati", "adm2_pcode": "NP0328", "adm2_name": "Nuwakot", "adm3_pcode": "NP0328301", "adm3_name": "Bidur", "adm4_pcode": null, "adm4_name": null, "name_latin": null }, "geometry": { "type": "LineString", "coordinates": [ [ 85.171743, 27.9640346 ], [ 85.1717114, 27.9640273 ], [ 85.1716907, 27.9640049 ], [ 85.1716897, 27.9639891 ], [ 85.1716889, 27.9639761 ], [ 85.1717065, 27.9639518 ], [ 85.171737, 27.9639414 ], [ 85.1717686, 27.9639487 ], [ 85.1717892, 27.963971 ], [ 85.1717907, 27.9639929 ], [ 85.1717911, 27.9639998 ], [ 85.1717735, 27.9640241 ], [ 85.171743, 27.9640346 ] ] } },
{ "type": "Feature", "properties": { "id": "way/1553511515", "name": null, "name_en": null, "name_ne": null, "status": "Destroyed", "aeroway": "helipad", "emergency": null, "emergency_helipad": null, "amenity": null, "surface": null, "operator": null, "operator_type": null, "access": null, "source": null, "adm0_pcode": "NPL", "adm0_name": "Nepal", "adm1_pcode": "NP03", "adm1_name": "Bagmati", "adm2_pcode": "NP0329", "adm2_name": "Rasuwa", "adm3_pcode": "NP0329402", "adm3_name": "Gosaikunda", "adm4_pcode": null, "adm4_name": null, "name_latin": null }, "geometry": { "type": "LineString", "coordinates": [ [ 85.3769294, 28.2808848 ], [ 85.3769864, 28.2807292 ], [ 85.3771645, 28.2807797 ], [ 85.3771075, 28.2809353 ], [ 85.3769294, 28.2808848 ] ] } },
{ "type": "Feature", "properties": { "id": "way/344741728", "name": null, "name_en": null, "name_ne": null, "status": "Standing", "aeroway": null, "emergency": null, "emergency_helipad": "potential", "amenity": null, "surface": null, "operator": null, "operator_type": null, "access": null, "source": null, "adm0_pcode": "NPL", "adm0_name": "Nepal", "adm1_pcode": "NP03", "adm1_name": "Bagmati", "adm2_pcode": "NP0330", "adm2_name": "Dhading", "adm3_pcode": "NP0330410", "adm3_name": "Galchhi", "adm4_pcode": null, "adm4_name": null, "name_latin": null }, "geometry": { "type": "LineString", "coordinates": [ [ 85.0053585, 27.8008027 ], [ 85.0056007, 27.8006162 ], [ 85.0058974, 27.8007567 ], [ 85.0058794, 27.8008628 ], [ 85.0057236, 27.8009025 ], [ 85.0053585, 27.8008027 ] ] } },
{ "type": "Feature", "properties": { "id": "way/343706257", "name": null, "name_en": null, "name_ne": null, "status": "Standing", "aeroway": null, "emergency": null, "emergency_helipad": "potential", "amenity": null, "surface": null, "operator": null, "operator_type": null, "access": null, "source": null, "adm0_pcode": "NPL", "adm0_name": "Nepal", "adm1_pcode": "NP03", "adm1_name": "Bagmati", "adm2_pcode": "NP0328", "adm2_name": "Nuwakot", "adm3_pcode": "NP0328302", "adm3_name": "Belkotgadhi", "adm4_pcode": null, "adm4_name": null, "name_latin": null }, "geometry": { "type": "LineString", "coordinates": [ [ 85.0194524, 27.8369976 ], [ 85.0195285, 27.8369976 ], [ 85.0197409, 27.8369146 ], [ 85.0196666, 27.8367065 ], [ 85.0194117, 27.8368161 ], [ 85.0193852, 27.8369068 ], [ 85.0194524, 27.8369976 ] ] } },
{ "type": "Feature", "properties": { "id": "way/344396164", "name": null, "name_en": null, "name_ne": null, "status": "Standing", "aeroway": null, "emergency": null, "emergency_helipad": "potential", "amenity": null, "surface": null, "operator": null, "operator_type": null, "access": null, "source": null, "adm0_pcode": "NPL", "adm0_name": "Nepal", "adm1_pcode": "NP03", "adm1_name": "Bagmati", "adm2_pcode": "NP0328", "adm2_name": "Nuwakot", "adm3_pcode": "NP0328302", "adm3_name": "Belkotgadhi", "adm4_pcode": null, "adm4_name": null, "name_latin": null }, "geometry": { "type": "LineString", "coordinates": [ [ 85.0335557, 27.8418619 ], [ 85.0335874, 27.8419078 ], [ 85.0336011, 27.8419601 ], [ 85.0335955, 27.8420136 ], [ 85.0335712, 27.8420628 ], [ 85.0335306, 27.8421028 ], [ 85.0334779, 27.8421295 ], [ 85.0334183, 27.8421401 ], [ 85.033358, 27.8421337 ], [ 85.033303, 27.8421109 ], [ 85.033256, 27.8420704 ], [ 85.0332273, 27.8420181 ], [ 85.0332202, 27.8419604 ], [ 85.0332358, 27.841904 ], [ 85.033272, 27.8418556 ], [ 85.0333247, 27.8418209 ], [ 85.0333875, 27.841804 ], [ 85.0334531, 27.841807 ], [ 85.0335094, 27.8418271 ], [ 85.0335557, 27.8418619 ] ] } },
{ "type": "Feature", "properties": { "id": "way/345143830", "name": null, "name_en": null, "name_ne": null, "status": "Standing", "aeroway": null, "emergency": null, "emergency_helipad": "potential", "amenity": null, "surface": null, "operator": null, "operator_type": null, "access": null, "source": null, "adm0_pcode": "NPL", "adm0_name": "Nepal", "adm1_pcode": "NP03", "adm1_name": "Bagmati", "adm2_pcode": "NP0328", "adm2_name": "Nuwakot", "adm3_pcode": "NP0328302", "adm3_name": "Belkotgadhi", "adm4_pcode": null, "adm4_name": null, "name_latin": null }, "geometry": { "type": "LineString", "coordinates": [ [ 85.0224203, 27.8402403 ], [ 85.0229737, 27.839795 ], [ 85.0229837, 27.8393717 ], [ 85.0224003, 27.839288 ], [ 85.0222009, 27.8397862 ], [ 85.0224203, 27.8402403 ] ] } },
{ "type": "Feature", "properties": { "id": "way/342362002", "name": null, "name_en": null, "name_ne": null, "status": "Standing", "aeroway": null, "emergency": null, "emergency_helipad": "potential", "amenity": null, "surface": null, "operator": null, "operator_type": null, "access": null, "source": null, "adm0_pcode": "NPL", "adm0_name": "Nepal", "adm1_pcode": "NP03", "adm1_name": "Bagmati", "adm2_pcode": "NP0328", "adm2_name": "Nuwakot", "adm3_pcode": "NP0328402", "adm3_name": "Kispang", "adm4_pcode": null, "adm4_name": null, "name_latin": null }, "geometry": { "type": "LineString", "coordinates": [ [ 85.169874, 27.9829575 ], [ 85.1701341, 27.9829607 ], [ 85.1702899, 27.9828966 ], [ 85.1701961, 27.9827028 ], [ 85.1699873, 27.9826763 ], [ 85.1697891, 27.9828482 ], [ 85.1698705, 27.982953 ], [ 85.169874, 27.9829575 ] ] } },
{ "type": "Feature", "properties": { "id": "way/343706269", "name": null, "name_en": null, "name_ne": null, "status": "Standing", "aeroway": null, "emergency": null, "emergency_helipad": "potential", "amenity": null, "surface": null, "operator": null, "operator_type": null, "access": null, "source": null, "adm0_pcode": "NPL", "adm0_name": "Nepal", "adm1_pcode": "NP03", "adm1_name": "Bagmati", "adm2_pcode": "NP0328", "adm2_name": "Nuwakot", "adm3_pcode": "NP0328301", "adm3_name": "Bidur", "adm4_pcode": null, "adm4_name": null, "name_latin": null }, "geometry": { "type": "LineString", "coordinates": [ [ 85.0726568, 27.8475016 ], [ 85.072648, 27.8472794 ], [ 85.0727276, 27.8472419 ], [ 85.0728391, 27.8473373 ], [ 85.0729594, 27.8473279 ], [ 85.0730833, 27.8472716 ], [ 85.0731063, 27.847342 ], [ 85.0729541, 27.8474437 ], [ 85.0728869, 27.8475094 ], [ 85.0727418, 27.8475282 ], [ 85.0726568, 27.8475016 ] ] } },
{ "type": "Feature", "properties": { "id": "way/344398837", "name": null, "name_en": null, "name_ne": null, "status": "Standing", "aeroway": null, "emergency": null, "emergency_helipad": "potential", "amenity": null, "surface": null, "operator": null, "operator_type": null, "access": null, "source": null, "adm0_pcode": "NPL", "adm0_name": "Nepal", "adm1_pcode": "NP03", "adm1_name": "Bagmati", "adm2_pcode": "NP0328", "adm2_name": "Nuwakot", "adm3_pcode": "NP0328403", "adm3_name": "Tarakeshwor", "adm4_pcode": null, "adm4_name": null, "name_latin": null }, "geometry": { "type": "LineString", "coordinates": [ [ 85.0584295, 27.8583162 ], [ 85.0590414, 27.8592334 ], [ 85.060114, 27.8598646 ], [ 85.0606984, 27.8597259 ], [ 85.0609967, 27.8591557 ], [ 85.0605184, 27.8585214 ], [ 85.0594142, 27.8581483 ], [ 85.0584295, 27.8583162 ] ] } },
{ "type": "Feature", "properties": { "id": "way/344341602", "name": null, "name_en": null, "name_ne": null, "status": "Standing", "aeroway": null, "emergency": null, "emergency_helipad": "potential", "amenity": null, "surface": null, "operator": null, "operator_type": null, "access": null, "source": null, "adm0_pcode": "NPL", "adm0_name": "Nepal", "adm1_pcode": "NP03", "adm1_name": "Bagmati", "adm2_pcode": "NP0328", "adm2_name": "Nuwakot", "adm3_pcode": "NP0328302", "adm3_name": "Belkotgadhi", "adm4_pcode": null, "adm4_name": null, "name_latin": null }, "geometry": { "type": "LineString", "coordinates": [ [ 85.0312424, 27.8505925 ], [ 85.0312177, 27.85133 ], [ 85.0317904, 27.8520599 ], [ 85.0323408, 27.8521388 ], [ 85.0327503, 27.8516872 ], [ 85.0323527, 27.851004 ], [ 85.0315275, 27.8501062 ], [ 85.0312424, 27.8505925 ] ] } },
{ "type": "Feature", "properties": { "id": "way/343706261", "name": null, "name_en": null, "name_ne": null, "status": "Standing", "aeroway": null, "emergency": null, "emergency_helipad": "potential", "amenity": null, "surface": null, "operator": null, "operator_type": null, "access": null, "source": null, "adm0_pcode": "NPL", "adm0_name": "Nepal", "adm1_pcode": "NP03", "adm1_name": "Bagmati", "adm2_pcode": "NP0328", "adm2_name": "Nuwakot", "adm3_pcode": "NP0328302", "adm3_name": "Belkotgadhi", "adm4_pcode": null, "adm4_name": null, "name_latin": null }, "geometry": { "type": "LineString", "coordinates": [ [ 85.0254976, 27.852237 ], [ 85.0256745, 27.8523825 ], [ 85.0257488, 27.8524138 ], [ 85.025917, 27.8525577 ], [ 85.02597, 27.8524357 ], [ 85.0259576, 27.8522665 ], [ 85.0258621, 27.8522032 ], [ 85.0258105, 27.8521562 ], [ 85.0256841, 27.8521255 ], [ 85.0256641, 27.8520724 ], [ 85.0256348, 27.8520458 ], [ 85.0255994, 27.8520452 ], [ 85.025576, 27.8521056 ], [ 85.0254947, 27.8522152 ], [ 85.0254976, 27.852237 ] ] } },
{ "type": "Feature", "properties": { "id": "way/344340902", "name": null, "name_en": null, "name_ne": null, "status": "Standing", "aeroway": null, "emergency": null, "emergency_helipad": "potential", "amenity": null, "surface": null, "operator": null, "operator_type": null, "access": null, "source": null, "adm0_pcode": "NPL", "adm0_name": "Nepal", "adm1_pcode": "NP03", "adm1_name": "Bagmati", "adm2_pcode": "NP0328", "adm2_name": "Nuwakot", "adm3_pcode": "NP0328403", "adm3_name": "Tarakeshwor", "adm4_pcode": null, "adm4_name": null, "name_latin": null }, "geometry": { "type": "LineString", "coordinates": [ [ 85.025536, 27.8599119 ], [ 85.0255464, 27.8598571 ], [ 85.0255767, 27.8598084 ], [ 85.0256233, 27.8597712 ], [ 85.0256812, 27.8597495 ], [ 85.0257439, 27.8597459 ], [ 85.0258044, 27.8597607 ], [ 85.0258562, 27.8597922 ], [ 85.0258933, 27.859837 ], [ 85.0259118, 27.8598901 ], [ 85.0259098, 27.8599441 ], [ 85.0258885, 27.8599948 ], [ 85.0258499, 27.8600367 ], [ 85.0257982, 27.8600655 ], [ 85.0257388, 27.8600782 ], [ 85.0256778, 27.8600735 ], [ 85.0256219, 27.8600518 ], [ 85.0255767, 27.8600154 ], [ 85.0255464, 27.8599667 ], [ 85.025536, 27.8599119 ] ] } },
{ "type": "Feature", "properties": { "id": "way/341902040", "name": null, "name_en": null, "name_ne": null, "status": "Standing", "aeroway": null, "emergency": null, "emergency_helipad": "potential", "amenity": null, "surface": null, "operator": null, "operator_type": null, "access": null, "source": null, "adm0_pcode": "NPL", "adm0_name": "Nepal", "adm1_pcode": "NP03", "adm1_name": "Bagmati", "adm2_pcode": "NP0328", "adm2_name": "Nuwakot", "adm3_pcode": "NP0328402", "adm3_name": "Kispang", "adm4_pcode": null, "adm4_name": null, "name_latin": null }, "geometry": { "type": "LineString", "coordinates": [ [ 85.1772215, 28.0179613 ], [ 85.177056, 28.0179516 ], [ 85.1769954, 28.0178713 ], [ 85.1769623, 28.0178104 ], [ 85.1770092, 28.0177422 ], [ 85.1770985, 28.0176693 ], [ 85.1771994, 28.0176449 ], [ 85.1772877, 28.0177228 ], [ 85.1773153, 28.0179175 ], [ 85.1773097, 28.0179565 ], [ 85.1772215, 28.0179613 ] ] } },
{ "type": "Feature", "properties": { "id": "way/343706264", "name": null, "name_en": null, "name_ne": null, "status": "Standing", "aeroway": null, "emergency": null, "emergency_helipad": "potential", "amenity": null, "surface": null, "operator": null, "operator_type": null, "access": null, "source": null, "adm0_pcode": "NPL", "adm0_name": "Nepal", "adm1_pcode": "NP03", "adm1_name": "Bagmati", "adm2_pcode": "NP0328", "adm2_name": "Nuwakot", "adm3_pcode": "NP0328302", "adm3_name": "Belkotgadhi", "adm4_pcode": null, "adm4_name": null, "name_latin": null }, "geometry": { "type": "LineString", "coordinates": [ [ 85.0458542, 27.8566062 ], [ 85.0458507, 27.856387 ], [ 85.0457575, 27.8560886 ], [ 85.0458982, 27.8558398 ], [ 85.0463712, 27.8563404 ], [ 85.0461303, 27.8565689 ], [ 85.0458542, 27.8566062 ] ] } },
{ "type": "Feature", "properties": { "id": "way/1553349794", "name": null, "name_en": null, "name_ne": null, "status": "Damaged", "aeroway": "helipad", "emergency": null, "emergency_helipad": null, "amenity": null, "surface": null, "operator": null, "operator_type": null, "access": null, "source": null, "adm0_pcode": "NPL", "adm0_name": "Nepal", "adm1_pcode": "NP03", "adm1_name": "Bagmati", "adm2_pcode": "NP0329", "adm2_name": "Rasuwa", "adm3_pcode": "NP0329402", "adm3_name": "Gosaikunda", "adm4_pcode": null, "adm4_name": null, "name_latin": null }, "geometry": { "type": "LineString", "coordinates": [ [ 85.3417835, 28.1671025 ], [ 85.3417496, 28.1670905 ], [ 85.3417352, 28.1670609 ], [ 85.3417488, 28.167031 ], [ 85.3417824, 28.1670184 ], [ 85.3418163, 28.1670304 ], [ 85.3418307, 28.16706 ], [ 85.341817, 28.1670899 ], [ 85.3417835, 28.1671025 ] ] } },
{ "type": "Feature", "properties": { "id": "way/342533919", "name": null, "name_en": null, "name_ne": null, "status": "Standing", "aeroway": null, "emergency": null, "emergency_helipad": "potential", "amenity": null, "surface": null, "operator": null, "operator_type": null, "access": null, "source": null, "adm0_pcode": "NPL", "adm0_name": "Nepal", "adm1_pcode": "NP04", "adm1_name": "Gandaki", "adm2_pcode": "NP0436", "adm2_name": "Gorkha", "adm3_pcode": "NP0436409", "adm3_name": "Gandaki", "adm4_pcode": null, "adm4_name": null, "name_latin": null }, "geometry": { "type": "LineString", "coordinates": [ [ 84.6737667, 27.830843 ], [ 84.6740053, 27.8307422 ], [ 84.6740855, 27.8308318 ], [ 84.6741805, 27.8309008 ], [ 84.6743198, 27.8309102 ], [ 84.6742269, 27.8305965 ], [ 84.6739377, 27.8304322 ], [ 84.6736865, 27.830492 ], [ 84.6736316, 27.8307795 ], [ 84.6737667, 27.830843 ] ] } },
{ "type": "Feature", "properties": { "id": "way/343706272", "name": null, "name_en": null, "name_ne": null, "status": "Standing", "aeroway": null, "emergency": null, "emergency_helipad": "potential", "amenity": null, "surface": null, "operator": null, "operator_type": null, "access": null, "source": null, "adm0_pcode": "NPL", "adm0_name": "Nepal", "adm1_pcode": "NP03", "adm1_name": "Bagmati", "adm2_pcode": "NP0328", "adm2_name": "Nuwakot", "adm3_pcode": "NP0328301", "adm3_name": "Bidur", "adm4_pcode": null, "adm4_name": null, "name_latin": null }, "geometry": { "type": "LineString", "coordinates": [ [ 85.067397, 27.8616479 ], [ 85.0675047, 27.8616443 ], [ 85.0676918, 27.8611645 ], [ 85.0677202, 27.8608698 ], [ 85.0675739, 27.8608374 ], [ 85.0672974, 27.8609255 ], [ 85.0672272, 27.861046 ], [ 85.0672564, 27.8612163 ], [ 85.0672821, 27.861459 ], [ 85.067397, 27.8616479 ] ] } },
{ "type": "Feature", "properties": { "id": "way/298464454", "name": null, "name_en": null, "name_ne": null, "status": "Standing", "aeroway": "helipad", "emergency": null, "emergency_helipad": null, "amenity": null, "surface": null, "operator": null, "operator_type": null, "access": null, "source": null, "adm0_pcode": "NPL", "adm0_name": "Nepal", "adm1_pcode": "NP03", "adm1_name": "Bagmati", "adm2_pcode": "NP0328", "adm2_name": "Nuwakot", "adm3_pcode": "NP0328301", "adm3_name": "Bidur", "adm4_pcode": null, "adm4_name": null, "name_latin": null }, "geometry": { "type": "Polygon", "coordinates": [ [ [ 85.1331063, 27.8870288 ], [ 85.1331147, 27.8870009 ], [ 85.1331351, 27.8869783 ], [ 85.1331613, 27.8869656 ], [ 85.1331909, 27.8869624 ], [ 85.1332198, 27.886969 ], [ 85.1332438, 27.8869846 ], [ 85.1332597, 27.8870069 ], [ 85.1332652, 27.8870331 ], [ 85.1332592, 27.8870592 ], [ 85.1332427, 27.8870815 ], [ 85.1332179, 27.8870967 ], [ 85.1331885, 27.8871027 ], [ 85.1331563, 27.8870978 ], [ 85.133129, 27.8870818 ], [ 85.1331114, 27.8870574 ], [ 85.1331063, 27.8870288 ] ] ] } },
{ "type": "Feature", "properties": { "id": "way/1554049802", "name": null, "name_en": null, "name_ne": null, "status": "Standing", "aeroway": "helipad", "emergency": null, "emergency_helipad": null, "amenity": null, "surface": null, "operator": null, "operator_type": null, "access": null, "source": null, "adm0_pcode": "NPL", "adm0_name": "Nepal", "adm1_pcode": "NP03", "adm1_name": "Bagmati", "adm2_pcode": "NP0329", "adm2_name": "Rasuwa", "adm3_pcode": "NP0329402", "adm3_name": "Gosaikunda", "adm4_pcode": null, "adm4_name": null, "name_latin": null }, "geometry": { "type": "Polygon", "coordinates": [ [ [ 85.3694263, 28.2534304 ], [ 85.36948, 28.2531386 ], [ 85.369606, 28.2531268 ], [ 85.369657, 28.2533488 ], [ 85.3696476, 28.2534764 ], [ 85.3695644, 28.2535237 ], [ 85.3694263, 28.2534304 ] ] ] } },
{ "type": "Feature", "properties": { "id": "way/346053069", "name": null, "name_en": null, "name_ne": null, "status": "Standing", "aeroway": null, "emergency": null, "emergency_helipad": "potential", "amenity": null, "surface": null, "operator": null, "operator_type": null, "access": null, "source": null, "adm0_pcode": "NPL", "adm0_name": "Nepal", "adm1_pcode": "NP03", "adm1_name": "Bagmati", "adm2_pcode": "NP0328", "adm2_name": "Nuwakot", "adm3_pcode": "NP0328301", "adm3_name": "Bidur", "adm4_pcode": null, "adm4_name": null, "name_latin": null }, "geometry": { "type": "Polygon", "coordinates": [ [ [ 85.0767758, 27.8591986 ], [ 85.0773544, 27.8590793 ], [ 85.0774174, 27.8595962 ], [ 85.0768418, 27.8597022 ], [ 85.0767758, 27.8591986 ] ] ] } }
]
}
