{"type": "FeatureCollection", "features": [{"type": "Feature", "properties": {"area_sq_km": 317.43, "buffer_meters": 0.0}, "geometry": {"type": "Polygon", "coordinates": [[[84.416609, 27.748808], [84.419046, 27.750249], [84.423067, 27.751653], [84.425795, 27.751987], [84.428393, 27.751807], [84.43157, 27.751216], [84.434326, 27.755557], [84.4371, 27.758545], [84.438543, 27.761281], [84.440317, 27.763592], [84.443347, 27.766003], [84.446492, 27.767437], [84.449045, 27.768198], [84.449351, 27.768605], [84.449051, 27.769174], [84.447636, 27.769509], [84.444358, 27.769612], [84.439334, 27.76926], [84.436461, 27.769634], [84.43271, 27.771295], [84.430513, 27.773171], [84.425152, 27.778906], [84.423664, 27.781033], [84.420841, 27.785931], [84.42026, 27.787908], [84.419708, 27.7931], [84.419824, 27.794879], [84.420573, 27.797343], [84.420874, 27.799311], [84.420753, 27.802271], [84.421305, 27.808201], [84.422586, 27.814855], [84.423213, 27.816646], [84.425139, 27.8195], [84.426553, 27.820774], [84.429574, 27.822799], [84.433178, 27.824257], [84.435106, 27.826826], [84.439211, 27.830325], [84.442089, 27.831715], [84.444252, 27.832237], [84.446287, 27.832382], [84.449571, 27.832021], [84.452369, 27.831173], [84.45702, 27.82915], [84.457401, 27.82933], [84.458133, 27.830332], [84.462059, 27.832797], [84.464863, 27.83341], [84.471722, 27.833176], [84.478916, 27.831977], [84.483656, 27.830294], [84.491417, 27.829776], [84.492704, 27.829407], [84.494536, 27.829864], [84.498727, 27.829682], [84.501459, 27.82896], [84.505477, 27.828427], [84.509586, 27.826921], [84.510056, 27.827361], [84.510423, 27.832306], [84.511138, 27.834489], [84.512417, 27.836705], [84.514589, 27.838886], [84.516536, 27.84012], [84.518775, 27.841097], [84.525032, 27.842581], [84.529067, 27.842742], [84.533718, 27.84215], [84.535846, 27.842265], [84.536988, 27.842609], [84.540062, 27.842755], [84.545098, 27.841656], [84.545847, 27.84135], [84.54611, 27.84082], [84.546764, 27.840759], [84.547247, 27.841478], [84.547037, 27.842177], [84.548109, 27.846364], [84.546857, 27.850459], [84.546718, 27.85254], [84.546904, 27.854301], [84.54766, 27.858568], [84.548487, 27.860851], [84.550621, 27.863655], [84.553743, 27.865645], [84.555588, 27.866273], [84.559558, 27.867159], [84.563597, 27.867253], [84.566278, 27.868256], [84.566515, 27.868606], [84.566741, 27.871494], [84.567101, 27.872979], [84.567761, 27.874501], [84.568761, 27.876417], [84.570963, 27.878723], [84.574843, 27.881752], [84.578411, 27.883577], [84.580467, 27.885232], [84.584689, 27.887705], [84.586805, 27.888518], [84.590938, 27.888975], [84.593708, 27.888538], [84.595566, 27.88791], [84.59773, 27.886816], [84.599706, 27.885349], [84.604116, 27.884933], [84.606398, 27.884316], [84.608263, 27.883518], [84.608687, 27.883683], [84.610194, 27.885845], [84.61185, 27.887319], [84.613755, 27.888477], [84.615925, 27.889328], [84.61839, 27.889807], [84.620563, 27.889868], [84.623329, 27.88955], [84.627466, 27.888542], [84.629681, 27.887539], [84.632504, 27.885832], [84.635319, 27.883445], [84.636976, 27.880647], [84.637622, 27.877402], [84.638651, 27.876862], [84.641666, 27.874137], [84.643524, 27.869511], [84.648296, 27.869397], [84.650508, 27.868826], [84.654573, 27.867008], [84.656465, 27.865772], [84.658338, 27.863806], [84.659898, 27.860604], [84.662467, 27.859627], [84.664687, 27.858327], [84.668162, 27.855345], [84.669669, 27.85295], [84.670652, 27.850768], [84.671639, 27.847487], [84.67342, 27.844317], [84.673979, 27.842767], [84.674251, 27.840996], [84.673874, 27.837798], [84.673555, 27.836909], [84.672712, 27.832099], [84.675494, 27.828659], [84.677369, 27.825021], [84.681148, 27.82386], [84.682968, 27.822935], [84.688202, 27.819426], [84.695981, 27.818134], [84.703875, 27.816357], [84.707534, 27.816231], [84.70916, 27.815968], [84.711806, 27.815261], [84.71572, 27.812536], [84.718046, 27.812837], [84.722716, 27.812127], [84.726657, 27.809771], [84.729529, 27.809001], [84.729966, 27.80908], [84.731319, 27.81044], [84.733635, 27.811995], [84.736695, 27.813117], [84.739261, 27.813468], [84.741582, 27.81345], [84.743323, 27.81426], [84.746683, 27.814778], [84.74749, 27.817236], [84.749843, 27.820662], [84.754563, 27.824457], [84.757446, 27.826249], [84.760285, 27.827189], [84.763286, 27.827603], [84.766946, 27.827333], [84.770565, 27.82605], [84.776967, 27.821599], [84.780221, 27.822562], [84.78576, 27.823554], [84.789103, 27.823723], [84.793414, 27.82269], [84.79703, 27.823452], [84.800463, 27.825123], [84.804264, 27.826255], [84.806837, 27.82667], [84.808981, 27.826681], [84.812562, 27.825964], [84.81623, 27.823927], [84.818047, 27.825443], [84.82177, 27.82739], [84.82688, 27.828242], [84.83106, 27.827704], [84.834341, 27.826643], [84.837021, 27.825266], [84.83925, 27.823694], [84.841251, 27.821824], [84.844465, 27.817793], [84.844805, 27.816539], [84.845169, 27.816249], [84.848927, 27.817601], [84.853962, 27.817325], [84.856751, 27.816472], [84.859284, 27.8164], [84.863726, 27.815503], [84.865944, 27.814301], [84.867849, 27.815413], [84.87121, 27.816552], [84.875052, 27.817145], [84.880253, 27.818727], [84.884228, 27.818102], [84.888004, 27.81846], [84.890207, 27.818298], [84.892555, 27.81793], [84.895397, 27.816914], [84.900052, 27.815758], [84.901997, 27.816443], [84.906891, 27.816904], [84.910803, 27.815917], [84.913616, 27.814071], [84.915893, 27.813783], [84.919551, 27.812236], [84.922684, 27.809214], [84.923191, 27.808101], [84.922768, 27.80806], [84.922521, 27.807788], [84.922591, 27.806579], [84.9236, 27.806206], [84.924385, 27.806246], [84.924806, 27.806519], [84.924819, 27.807021], [84.923628, 27.807903], [84.925168, 27.808639], [84.92711, 27.810383], [84.930704, 27.812645], [84.933834, 27.813663], [84.935329, 27.816282], [84.936298, 27.817171], [84.936959, 27.818706], [84.938631, 27.821111], [84.941602, 27.823506], [84.946023, 27.825125], [84.950582, 27.825828], [84.951614, 27.82555], [84.954756, 27.826506], [84.95944, 27.826944], [84.963995, 27.825837], [84.968501, 27.823618], [84.971465, 27.821029], [84.97218, 27.819946], [84.973742, 27.819696], [84.976856, 27.817086], [84.97816, 27.815207], [84.979178, 27.812689], [84.979441, 27.812443], [84.97985, 27.812435], [84.981801, 27.813411], [84.984739, 27.814281], [84.987613, 27.814543], [84.98941, 27.81443], [84.985469, 27.814116], [84.981881, 27.81243], [84.980168, 27.810621], [84.980055, 27.810269], [84.981104, 27.809096], [84.982206, 27.803759], [84.981847, 27.801885], [84.980627, 27.80702], [84.97927, 27.80816], [84.978732, 27.807902], [84.978227, 27.806475], [84.978557, 27.803045], [84.980436, 27.799846], [84.980906, 27.799573], [84.981333, 27.799693], [84.983819, 27.797643], [84.98448, 27.797335], [84.986446, 27.796785], [84.988513, 27.796658], [84.990338, 27.79711], [84.991119, 27.797528], [84.991657, 27.797212], [84.993356, 27.797714], [84.99634, 27.800016], [84.998053, 27.803044], [84.998358, 27.8067], [84.997309, 27.809414], [84.994625, 27.811481], [84.98948, 27.812071], [84.991244, 27.812387], [84.99437, 27.81256], [85.00069, 27.811801], [85.001836, 27.81254], [85.0025, 27.815239], [85.003737, 27.817599], [85.005572, 27.819845], [85.007174, 27.822642], [85.00719, 27.82716], [85.008118, 27.830258], [85.009246, 27.83233], [85.011477, 27.834938], [85.009827, 27.838348], [85.009056, 27.841379], [85.00909, 27.844165], [85.010846, 27.848085], [85.014143, 27.850817], [85.01511, 27.851191], [85.017742, 27.852966], [85.019724, 27.853913], [85.020397, 27.855586], [85.022945, 27.85917], [85.025439, 27.861455], [85.029179, 27.863053], [85.034314, 27.863186], [85.037099, 27.864657], [85.039034, 27.865316], [85.041082, 27.865664], [85.044983, 27.865464], [85.049445, 27.863727], [85.050231, 27.864682], [85.053725, 27.867392], [85.057801, 27.868152], [85.058145, 27.868456], [85.058141, 27.868899], [85.059446, 27.86907], [85.062902, 27.868884], [85.065562, 27.868104], [85.069037, 27.866156], [85.071536, 27.864011], [85.072956, 27.863386], [85.076097, 27.864678], [85.080884, 27.865185], [85.083496, 27.867656], [85.088327, 27.869303], [85.091028, 27.86947], [85.093981, 27.869272], [85.097834, 27.868897], [85.101995, 27.868003], [85.102537, 27.868689], [85.10383, 27.87174], [85.106107, 27.874674], [85.108595, 27.876715], [85.111209, 27.878372], [85.113949, 27.87969], [85.115429, 27.880811], [85.116742, 27.884177], [85.118862, 27.887235], [85.122277, 27.890415], [85.125522, 27.892711], [85.125667, 27.896914], [85.126575, 27.899827], [85.127317, 27.903301], [85.128848, 27.905881], [85.128694, 27.906257], [85.125716, 27.909073], [85.124645, 27.910866], [85.124237, 27.911989], [85.123844, 27.915124], [85.124229, 27.917414], [85.124693, 27.91856], [85.126039, 27.92055], [85.127421, 27.921957], [85.130819, 27.92402], [85.134258, 27.925138], [85.135978, 27.926762], [85.138418, 27.928354], [85.138805, 27.931006], [85.139674, 27.933176], [85.14025, 27.935503], [85.141147, 27.937515], [85.14183, 27.938529], [85.142897, 27.939689], [85.145147, 27.94139], [85.148511, 27.942727], [85.149604, 27.944151], [85.150517, 27.946542], [85.152292, 27.949965], [85.151946, 27.953081], [85.15196, 27.955004], [85.152346, 27.956791], [85.153336, 27.959625], [85.157172, 27.962963], [85.159112, 27.963888], [85.160075, 27.965898], [85.162266, 27.9687], [85.166144, 27.971171], [85.16868, 27.972059], [85.171552, 27.975531], [85.171616, 27.976321], [85.17062, 27.978642], [85.170146, 27.981043], [85.170253, 27.984514], [85.169927, 27.986859], [85.169956, 27.988782], [85.170799, 27.991802], [85.171887, 27.993558], [85.172859, 27.996689], [85.174081, 27.998732], [85.173652, 28.000946], [85.173802, 28.003949], [85.173353, 28.006787], [85.173562, 28.01197], [85.173923, 28.01403], [85.175848, 28.018753], [85.175384, 28.021703], [85.175512, 28.024207], [85.175774, 28.025312], [85.177047, 28.028332], [85.179017, 28.03084], [85.180792, 28.032398], [85.183588, 28.033962], [85.183353, 28.037411], [85.183436, 28.039503], [85.184145, 28.042541], [85.185045, 28.044476], [85.187501, 28.047527], [85.192449, 28.051149], [85.193642, 28.05376], [85.194423, 28.054917], [85.197986, 28.058136], [85.197747, 28.060066], [85.195902, 28.06307], [85.195195, 28.065168], [85.194949, 28.066962], [85.195156, 28.070144], [85.196039, 28.072552], [85.196962, 28.07396], [85.198664, 28.075623], [85.199645, 28.077732], [85.201512, 28.08008], [85.20444, 28.082329], [85.207437, 28.0834], [85.208267, 28.083895], [85.213202, 28.088177], [85.219956, 28.091777], [85.221573, 28.093454], [85.22486, 28.096046], [85.227683, 28.097712], [85.22988, 28.0986], [85.234382, 28.099883], [85.237865, 28.100331], [85.240493, 28.101172], [85.248161, 28.101651], [85.250549, 28.102885], [85.252477, 28.103576], [85.255486, 28.104179], [85.256936, 28.105941], [85.259664, 28.108626], [85.26205, 28.110254], [85.263222, 28.110709], [85.265097, 28.113057], [85.267384, 28.114687], [85.268551, 28.115193], [85.27082, 28.117561], [85.273495, 28.11924], [85.274128, 28.12084], [85.275453, 28.122356], [85.277284, 28.123635], [85.28065, 28.125479], [85.287447, 28.131345], [85.29016, 28.133144], [85.290914, 28.133949], [85.292521, 28.137674], [85.294598, 28.139631], [85.29578, 28.141904], [85.298128, 28.144973], [85.300276, 28.146976], [85.303013, 28.149043], [85.30444, 28.149781], [85.305451, 28.150922], [85.307449, 28.152511], [85.310642, 28.153961], [85.312884, 28.155463], [85.314249, 28.155801], [85.31663, 28.157765], [85.319569, 28.15911], [85.323895, 28.162916], [85.328419, 28.166172], [85.329707, 28.167974], [85.332394, 28.170189], [85.33264, 28.174157], [85.332418, 28.180526], [85.332844, 28.183264], [85.334858, 28.187833], [85.336127, 28.189913], [85.336877, 28.191973], [85.339161, 28.195028], [85.339499, 28.196375], [85.340212, 28.197534], [85.340841, 28.199212], [85.34263, 28.202322], [85.343716, 28.206825], [85.344126, 28.207626], [85.34402, 28.211611], [85.344541, 28.213829], [85.344489, 28.216456], [85.344832, 28.218101], [85.346431, 28.221132], [85.350829, 28.226711], [85.350834, 28.228081], [85.350255, 28.230691], [85.349386, 28.231864], [85.349093, 28.233118], [85.348127, 28.234929], [85.347742, 28.238125], [85.348023, 28.239854], [85.34803, 28.243328], [85.348451, 28.245044], [85.349165, 28.246744], [85.350607, 28.248801], [85.352504, 28.250612], [85.354395, 28.251947], [85.355299, 28.258241], [85.355872, 28.260327], [85.35673, 28.2624], [85.359399, 28.265117], [85.360993, 28.266157], [85.362905, 28.267009], [85.363562, 28.268662], [85.365123, 28.270496], [85.366995, 28.272176], [85.367443, 28.27308], [85.366573, 28.276649], [85.366211, 28.276996], [85.363035, 28.276267], [85.35699, 28.276817], [85.35442, 28.277551], [85.351748, 28.277504], [85.348863, 28.277919], [85.346278, 28.27903], [85.345968, 28.279504], [85.341583, 28.281037], [85.340354, 28.282488], [85.337609, 28.286649], [85.336865, 28.289895], [85.337186, 28.29372], [85.337854, 28.294884], [85.337733, 28.29615], [85.338562, 28.300377], [85.33914, 28.301182], [85.338427, 28.296364], [85.340028, 28.293928], [85.343086, 28.291637], [85.346768, 28.290565], [85.34908, 28.290713], [85.350133, 28.292052], [85.353291, 28.294164], [85.354363, 28.294424], [85.354646, 28.294728], [85.354628, 28.295143], [85.354321, 28.295423], [85.353431, 28.295593], [85.352426, 28.29543], [85.349682, 28.296407], [85.35366, 28.295592], [85.357045, 28.295634], [85.357733, 28.297216], [85.357971, 28.298352], [85.356698, 28.302537], [85.358488, 28.299226], [85.357944, 28.29575], [85.35823, 28.295264], [85.362475, 28.294399], [85.366035, 28.294908], [85.369797, 28.294751], [85.373562, 28.293946], [85.378191, 28.292019], [85.381299, 28.290204], [85.384656, 28.286915], [85.386304, 28.283567], [85.387303, 28.279627], [85.387889, 28.272587], [85.387466, 28.268048], [85.385138, 28.263286], [85.383424, 28.260863], [85.382567, 28.260081], [85.380582, 28.256709], [85.375102, 28.251902], [85.375213, 28.249895], [85.374895, 28.24788], [85.37426, 28.245831], [85.371388, 28.241235], [85.368793, 28.238706], [85.368788, 28.238332], [85.370163, 28.235225], [85.371173, 28.230834], [85.371607, 28.225186], [85.371425, 28.222544], [85.370571, 28.219975], [85.369453, 28.218012], [85.368032, 28.2162], [85.366123, 28.214539], [85.365122, 28.213091], [85.364509, 28.209761], [85.364949, 28.207843], [85.365076, 28.205661], [85.364923, 28.204684], [85.364275, 28.20242], [85.363214, 28.200599], [85.36241, 28.196958], [85.361264, 28.194364], [85.359679, 28.191937], [85.35699, 28.185995], [85.355637, 28.184071], [85.354533, 28.181466], [85.353355, 28.179888], [85.353085, 28.178749], [85.352952, 28.176302], [85.353174, 28.174489], [85.352823, 28.168587], [85.353033, 28.165528], [85.352517, 28.163213], [85.351333, 28.160723], [85.349454, 28.158502], [85.347089, 28.156848], [85.345814, 28.154629], [85.344181, 28.153046], [85.34193, 28.151634], [85.339823, 28.15074], [85.337144, 28.149004], [85.332613, 28.144694], [85.327978, 28.142397], [85.322533, 28.138782], [85.321622, 28.137082], [85.320691, 28.135866], [85.318571, 28.13407], [85.316774, 28.133114], [85.31363, 28.132255], [85.310432, 28.127205], [85.309188, 28.124554], [85.307696, 28.122843], [85.303611, 28.119161], [85.301287, 28.117694], [85.299462, 28.115975], [85.298277, 28.115266], [85.296554, 28.113817], [85.295074, 28.112326], [85.293569, 28.111217], [85.29138, 28.11008], [85.288735, 28.106805], [85.284944, 28.104062], [85.281707, 28.100953], [85.279861, 28.099765], [85.277403, 28.097237], [85.275476, 28.095779], [85.272875, 28.094279], [85.271372, 28.092423], [85.267531, 28.088785], [85.264443, 28.087261], [85.261642, 28.08645], [85.259473, 28.086082], [85.255985, 28.084578], [85.253169, 28.083747], [85.249764, 28.083103], [85.244773, 28.083123], [85.242737, 28.082544], [85.238215, 28.08193], [85.237046, 28.08015], [85.235748, 28.078834], [85.23103, 28.075917], [85.225729, 28.073797], [85.223357, 28.071436], [85.217891, 28.067809], [85.217131, 28.06609], [85.218477, 28.061073], [85.21884, 28.058406], [85.218917, 28.05557], [85.218374, 28.052983], [85.217226, 28.050529], [85.214999, 28.047295], [85.21371, 28.045923], [85.21178, 28.044455], [85.209902, 28.04118], [85.207309, 28.038356], [85.204991, 28.036685], [85.204899, 28.032807], [85.204624, 28.031261], [85.203691, 28.028702], [85.200859, 28.02251], [85.197708, 28.019091], [85.197203, 28.014231], [85.196101, 28.01167], [85.193881, 28.009109], [85.193821, 28.00824], [85.194622, 28.005076], [85.194608, 28.002724], [85.195937, 27.99953], [85.196324, 27.996284], [85.195812, 27.994247], [85.195052, 27.992393], [85.193046, 27.989875], [85.192736, 27.987875], [85.192163, 27.986483], [85.190838, 27.984374], [85.19062, 27.983213], [85.191868, 27.979021], [85.193358, 27.976747], [85.194287, 27.974608], [85.19452, 27.973449], [85.194576, 27.971145], [85.193859, 27.968225], [85.191739, 27.965037], [85.189205, 27.963105], [85.186136, 27.961636], [85.184463, 27.959512], [85.183152, 27.958273], [85.18096, 27.956935], [85.177493, 27.95552], [85.175474, 27.951947], [85.173144, 27.949846], [85.173043, 27.946176], [85.172117, 27.943309], [85.171031, 27.941529], [85.169754, 27.939949], [85.168496, 27.936893], [85.166868, 27.934236], [85.165774, 27.932901], [85.165511, 27.931461], [85.163834, 27.927649], [85.161504, 27.925146], [85.161556, 27.923471], [85.161142, 27.920728], [85.159923, 27.918104], [85.158165, 27.915988], [85.155516, 27.914183], [85.1491, 27.911971], [85.148747, 27.911668], [85.148865, 27.910235], [85.150366, 27.907543], [85.151039, 27.904454], [85.150797, 27.901463], [85.150298, 27.899732], [85.149354, 27.897795], [85.148175, 27.896218], [85.146495, 27.894564], [85.147161, 27.89213], [85.14731, 27.88899], [85.146946, 27.886907], [85.146254, 27.885361], [85.145173, 27.883709], [85.143394, 27.881834], [85.136276, 27.877043], [85.136187, 27.875569], [85.135457, 27.872471], [85.13469, 27.870801], [85.133403, 27.86909], [85.131793, 27.867682], [85.130168, 27.866608], [85.12637, 27.86528], [85.122731, 27.863249], [85.122067, 27.861359], [85.120991, 27.859259], [85.119747, 27.85762], [85.118344, 27.856142], [85.114832, 27.853492], [85.113785, 27.852337], [85.111484, 27.850975], [85.109856, 27.850106], [85.106836, 27.849383], [85.104685, 27.849147], [85.100432, 27.849246], [85.095493, 27.850306], [85.092681, 27.848752], [85.090901, 27.848078], [85.086608, 27.847077], [85.083365, 27.846984], [85.079644, 27.8449], [85.075731, 27.843999], [85.071997, 27.844076], [85.069793, 27.844381], [85.064517, 27.845785], [85.061206, 27.847191], [85.056937, 27.845217], [85.054312, 27.844456], [85.050423, 27.843863], [85.047729, 27.843941], [85.044907, 27.844527], [85.041669, 27.846021], [85.03811, 27.844924], [85.037117, 27.843271], [85.03453, 27.840919], [85.032698, 27.839698], [85.03268, 27.839287], [85.033114, 27.838363], [85.033568, 27.835387], [85.032771, 27.830795], [85.031863, 27.82876], [85.030894, 27.827388], [85.027694, 27.823863], [85.027173, 27.819043], [85.026597, 27.816683], [85.025779, 27.814851], [85.024363, 27.812967], [85.023917, 27.811973], [85.022588, 27.810005], [85.020929, 27.808044], [85.022066, 27.810512], [85.021872, 27.812626], [85.02032, 27.815118], [85.016744, 27.816604], [85.012834, 27.816752], [85.009111, 27.815556], [85.006072, 27.812981], [85.004484, 27.809636], [85.004424, 27.807441], [85.005123, 27.804851], [85.007177, 27.802338], [85.008315, 27.801562], [85.008264, 27.800902], [85.009136, 27.800201], [85.012755, 27.799019], [85.016712, 27.799147], [85.020312, 27.800606], [85.023011, 27.803162], [85.021803, 27.801655], [85.018895, 27.79952], [85.014167, 27.797477], [85.012363, 27.796977], [85.007078, 27.794521], [85.003726, 27.793347], [84.999058, 27.793416], [84.996458, 27.793972], [84.995027, 27.794502], [84.993994, 27.79458], [84.992683, 27.79433], [84.987348, 27.79485], [84.982707, 27.793466], [84.98155, 27.793396], [84.978978, 27.792685], [84.975578, 27.79258], [84.97343, 27.792735], [84.9701, 27.793395], [84.966994, 27.794634], [84.962957, 27.798217], [84.962471, 27.800155], [84.960414, 27.802969], [84.959255, 27.803408], [84.956274, 27.807274], [84.955888, 27.807374], [84.952886, 27.80672], [84.953903, 27.808186], [84.953797, 27.808637], [84.95338, 27.808839], [84.950851, 27.807847], [84.95075, 27.807448], [84.950959, 27.807094], [84.952555, 27.806634], [84.951672, 27.804352], [84.948186, 27.799829], [84.945691, 27.797554], [84.941992, 27.795859], [84.938907, 27.795499], [84.937259, 27.794195], [84.929185, 27.789736], [84.926742, 27.78889], [84.923713, 27.788447], [84.920179, 27.788763], [84.91752, 27.789622], [84.915328, 27.790703], [84.912881, 27.792407], [84.909638, 27.793835], [84.908187, 27.795032], [84.900874, 27.797054], [84.899521, 27.796922], [84.895437, 27.79773], [84.892182, 27.799157], [84.888385, 27.799981], [84.883288, 27.799223], [84.881663, 27.79952], [84.877764, 27.795789], [84.87454, 27.794202], [84.871497, 27.79327], [84.868448, 27.792712], [84.865234, 27.792518], [84.860464, 27.793412], [84.855958, 27.796669], [84.855289, 27.797575], [84.854916, 27.797723], [84.852989, 27.796341], [84.846305, 27.793546], [84.84143, 27.792848], [84.835923, 27.793798], [84.831092, 27.796962], [84.828615, 27.80078], [84.828286, 27.801012], [84.826343, 27.800039], [84.823146, 27.798958], [84.819901, 27.798648], [84.817312, 27.79881], [84.814078, 27.799682], [84.811141, 27.801335], [84.80893, 27.803561], [84.807399, 27.806553], [84.808268, 27.806254], [84.808748, 27.806681], [84.807771, 27.808626], [84.807158, 27.808981], [84.804486, 27.809445], [84.804044, 27.80918], [84.804053, 27.808619], [84.805964, 27.80716], [84.803505, 27.805923], [84.79951, 27.805612], [84.795724, 27.804157], [84.793506, 27.803748], [84.790868, 27.803671], [84.787948, 27.804165], [84.785398, 27.805202], [84.782703, 27.802744], [84.779369, 27.800613], [84.775096, 27.799651], [84.772402, 27.799715], [84.769914, 27.800275], [84.767998, 27.800998], [84.764456, 27.802969], [84.764055, 27.80301], [84.760177, 27.799692], [84.756967, 27.797642], [84.752744, 27.796259], [84.748829, 27.796189], [84.746425, 27.795566], [84.745908, 27.794527], [84.743844, 27.792304], [84.742371, 27.791236], [84.740394, 27.790291], [84.738237, 27.788626], [84.735767, 27.78744], [84.733095, 27.786806], [84.729672, 27.786712], [84.727714, 27.787024], [84.724724, 27.788119], [84.722482, 27.789704], [84.721285, 27.790942], [84.720271, 27.792433], [84.720733, 27.792429], [84.721029, 27.79272], [84.721007, 27.793184], [84.720473, 27.793686], [84.721614, 27.794456], [84.721656, 27.794868], [84.721346, 27.795212], [84.718734, 27.794883], [84.715315, 27.795382], [84.714957, 27.794956], [84.715166, 27.794441], [84.715772, 27.793995], [84.718641, 27.792786], [84.714908, 27.791715], [84.712393, 27.79147], [84.709349, 27.791718], [84.706827, 27.7924], [84.702877, 27.794346], [84.700539, 27.796311], [84.698788, 27.79893], [84.691717, 27.80056], [84.689547, 27.800803], [84.686727, 27.801441], [84.683954, 27.801559], [84.681585, 27.802015], [84.679208, 27.802926], [84.677719, 27.803755], [84.674517, 27.806083], [84.671879, 27.80765], [84.666995, 27.80877], [84.662737, 27.810729], [84.661308, 27.811669], [84.659541, 27.81324], [84.657969, 27.815587], [84.657167, 27.817954], [84.656933, 27.820208], [84.654182, 27.822349], [84.65263, 27.824152], [84.651704, 27.825829], [84.65099, 27.828433], [84.651175, 27.832207], [84.652207, 27.835806], [84.65383, 27.83896], [84.652859, 27.84064], [84.651706, 27.843414], [84.646854, 27.844099], [84.64255, 27.845423], [84.639656, 27.847446], [84.638112, 27.849316], [84.637307, 27.850868], [84.63324, 27.851614], [84.630876, 27.852438], [84.629095, 27.853386], [84.626882, 27.855146], [84.624959, 27.857863], [84.624224, 27.860066], [84.623652, 27.862952], [84.620287, 27.865785], [84.619884, 27.865796], [84.618316, 27.864885], [84.615281, 27.863907], [84.609378, 27.862701], [84.605411, 27.862629], [84.601943, 27.863475], [84.6, 27.864364], [84.597619, 27.866086], [84.596609, 27.867096], [84.594498, 27.867387], [84.591311, 27.868335], [84.587591, 27.870197], [84.587149, 27.869672], [84.587635, 27.867543], [84.587592, 27.864116], [84.58663, 27.861182], [84.585848, 27.859815], [84.584601, 27.858309], [84.578951, 27.853799], [84.574633, 27.851865], [84.568344, 27.849628], [84.568401, 27.844876], [84.56653, 27.836231], [84.565632, 27.83382], [84.564898, 27.832584], [84.562699, 27.829988], [84.561107, 27.828781], [84.55558, 27.825378], [84.553873, 27.824501], [84.55007, 27.823266], [84.547077, 27.822865], [84.544918, 27.822835], [84.542481, 27.823193], [84.538686, 27.824401], [84.531027, 27.824225], [84.530751, 27.823862], [84.530484, 27.820647], [84.529986, 27.818667], [84.527801, 27.813691], [84.526932, 27.812388], [84.525198, 27.810449], [84.522573, 27.808699], [84.520308, 27.807793], [84.515867, 27.80681], [84.51297, 27.806551], [84.510056, 27.80672], [84.507183, 27.807411], [84.503901, 27.808691], [84.501684, 27.809729], [84.499566, 27.811062], [84.497868, 27.811248], [84.494851, 27.810428], [84.491748, 27.810322], [84.488446, 27.810999], [84.485305, 27.812238], [84.481541, 27.812357], [84.478204, 27.812882], [84.474326, 27.814247], [84.472356, 27.812481], [84.470841, 27.811435], [84.467893, 27.810215], [84.46439, 27.809826], [84.462034, 27.810124], [84.460905, 27.810537], [84.455456, 27.810892], [84.449738, 27.812254], [84.448115, 27.81064], [84.445741, 27.808907], [84.441806, 27.807085], [84.441428, 27.805687], [84.441075, 27.801606], [84.441343, 27.799132], [84.441213, 27.797682], [84.440071, 27.792111], [84.441772, 27.789243], [84.443476, 27.787577], [84.449589, 27.787406], [84.455344, 27.786277], [84.461267, 27.784014], [84.465857, 27.781692], [84.468638, 27.779662], [84.470869, 27.776958], [84.473846, 27.774507], [84.475793, 27.771929], [84.47725, 27.769121], [84.479113, 27.766506], [84.479923, 27.764938], [84.481312, 27.760401], [84.482396, 27.754999], [84.482551, 27.752856], [84.481838, 27.749623], [84.480921, 27.747878], [84.47996, 27.746587], [84.478122, 27.744838], [84.474327, 27.743037], [84.47109, 27.742608], [84.468346, 27.742841], [84.46469, 27.743495], [84.460351, 27.744852], [84.45847, 27.745709], [84.454706, 27.748592], [84.454217, 27.748679], [84.451197, 27.745543], [84.447544, 27.739326], [84.446498, 27.738038], [84.444804, 27.73651], [84.441897, 27.73479], [84.43836, 27.73328], [84.435079, 27.732514], [84.431798, 27.732402], [84.427762, 27.732946], [84.423925, 27.73441], [84.424712, 27.734139], [84.426388, 27.734035], [84.428013, 27.734257], [84.429391, 27.735147], [84.431457, 27.738075], [84.432101, 27.741642], [84.431237, 27.744936], [84.428986, 27.747757], [84.425595, 27.749656], [84.421738, 27.75024], [84.417854, 27.749471], [84.416609, 27.748808]], [[85.350737, 28.290808], [85.349247, 28.290643], [85.34818, 28.289117], [85.347589, 28.28557], [85.3486, 28.282161], [85.35109, 28.279316], [85.353919, 28.277871], [85.3555, 28.277725], [85.355872, 28.277417], [85.3571, 28.277136], [85.357837, 28.277206], [85.358464, 28.276956], [85.35889, 28.277333], [85.361132, 28.277623], [85.364478, 28.279345], [85.366921, 28.282165], [85.367927, 28.285526], [85.36739, 28.289017], [85.365386, 28.29204], [85.36217, 28.294271], [85.35961, 28.294539], [85.358587, 28.294323], [85.357832, 28.289645], [85.355831, 28.286581], [85.355085, 28.285896], [85.356848, 28.288994], [85.35728, 28.29201], [85.356304, 28.293566], [85.355631, 28.293696], [85.354297, 28.292376], [85.350737, 28.290808]], [[85.057651, 27.85166], [85.057188, 27.851633], [85.05691, 27.851204], [85.057509, 27.850374], [85.061229, 27.84874], [85.061834, 27.848965], [85.061894, 27.849424], [85.061007, 27.851538], [85.05851, 27.85131], [85.057651, 27.85166]], [[85.038337, 27.84757], [85.034551, 27.845734], [85.034328, 27.845392], [85.034408, 27.844992], [85.034976, 27.844749], [85.037997, 27.845033], [85.038766, 27.846324], [85.038899, 27.847131], [85.038337, 27.84757]], [[85.027671, 27.838111], [85.027774, 27.837516], [85.028315, 27.837372], [85.032281, 27.839658], [85.0323, 27.84007], [85.031622, 27.841465], [85.029946, 27.842915], [85.029531, 27.842926], [85.029231, 27.842639], [85.02917, 27.841435], [85.027671, 27.838111]], [[84.964187, 27.820353], [84.963911, 27.819882], [84.964235, 27.819388], [84.965239, 27.819572], [84.971425, 27.817792], [84.973306, 27.815413], [84.973758, 27.815293], [84.974133, 27.815571], [84.973652, 27.817573], [84.97211, 27.819832], [84.964776, 27.820572], [84.964187, 27.820353]], [[84.96262, 27.802853], [84.962962, 27.802459], [84.96639, 27.801601], [84.970762, 27.802707], [84.971115, 27.803256], [84.970682, 27.803743], [84.962937, 27.80448], [84.96241, 27.804041], [84.96262, 27.802853]], [[84.960185, 27.80331], [84.961034, 27.802953], [84.961514, 27.803121], [84.961844, 27.805146], [84.960167, 27.80688], [84.95978, 27.807003], [84.959384, 27.806781], [84.959289, 27.806386], [84.959629, 27.804171], [84.960185, 27.80331]], [[84.908822, 27.813626], [84.908431, 27.813184], [84.908724, 27.812624], [84.913232, 27.81136], [84.916393, 27.806668], [84.916804, 27.806472], [84.917218, 27.80666], [84.917194, 27.80904], [84.914564, 27.813431], [84.913605, 27.814042], [84.912425, 27.814187], [84.908822, 27.813626]], [[84.907609, 27.797704], [84.906614, 27.798487], [84.906001, 27.798255], [84.905791, 27.797896], [84.906277, 27.796738], [84.908078, 27.795187], [84.910611, 27.7954], [84.910996, 27.795643], [84.911071, 27.796044], [84.910844, 27.796382], [84.907609, 27.797704]], [[84.899412, 27.801489], [84.897933, 27.803975], [84.897557, 27.804154], [84.897166, 27.804011], [84.897046, 27.803074], [84.901001, 27.797216], [84.903118, 27.797333], [84.905293, 27.798172], [84.90534, 27.798573], [84.905032, 27.799001], [84.902057, 27.799702], [84.899412, 27.801489]], [[84.879555, 27.801964], [84.879555, 27.801512], [84.879899, 27.801219], [84.881378, 27.800962], [84.881824, 27.801216], [84.882119, 27.805078], [84.88186, 27.805518], [84.881449, 27.805579], [84.881116, 27.80533], [84.879555, 27.801964]], [[84.862333, 27.802622], [84.862831, 27.802229], [84.863374, 27.802631], [84.863722, 27.807907], [84.866127, 27.810342], [84.868716, 27.809828], [84.870508, 27.808614], [84.870919, 27.80869], [84.87114, 27.808986], [84.870774, 27.809973], [84.868086, 27.812957], [84.86616, 27.814089], [84.865743, 27.814058], [84.863967, 27.812871], [84.861283, 27.806686], [84.862333, 27.802622]], [[84.8558, 27.799016], [84.856217, 27.79897], [84.856513, 27.799192], [84.85832, 27.802663], [84.858401, 27.803252], [84.85812, 27.803609], [84.857533, 27.803545], [84.855962, 27.801649], [84.853854, 27.800683], [84.854013, 27.800025], [84.8558, 27.799016]], [[84.839123, 27.810163], [84.839208, 27.809708], [84.839669, 27.809487], [84.841441, 27.81081], [84.843865, 27.810329], [84.846488, 27.808678], [84.847458, 27.807314], [84.847908, 27.807245], [84.84827, 27.807593], [84.848266, 27.808415], [84.84647, 27.811604], [84.84589, 27.811764], [84.845524, 27.811172], [84.845405, 27.811247], [84.844229, 27.813974], [84.844899, 27.813629], [84.845375, 27.814043], [84.845055, 27.815518], [84.844671, 27.815857], [84.842485, 27.815062], [84.839457, 27.811327], [84.839123, 27.810163]], [[84.82688, 27.810278], [84.825562, 27.810344], [84.825306, 27.810091], [84.82529, 27.808816], [84.826894, 27.805023], [84.827421, 27.804746], [84.827863, 27.805074], [84.828137, 27.807481], [84.828484, 27.80847], [84.828407, 27.804848], [84.829484, 27.802946], [84.830171, 27.802841], [84.83134, 27.803993], [84.832978, 27.810225], [84.832495, 27.812201], [84.832183, 27.81247], [84.831772, 27.81244], [84.830453, 27.811218], [84.82931, 27.81071], [84.82688, 27.810278]], [[84.812176, 27.809492], [84.812596, 27.809134], [84.813111, 27.809333], [84.814426, 27.81387], [84.815833, 27.815343], [84.816937, 27.815961], [84.818409, 27.816426], [84.820379, 27.816568], [84.822582, 27.815997], [84.824478, 27.814884], [84.825981, 27.813639], [84.826361, 27.813805], [84.826511, 27.814193], [84.82589, 27.8161], [84.823936, 27.818944], [84.821157, 27.821143], [84.81915, 27.821922], [84.818744, 27.821873], [84.818479, 27.821294], [84.819168, 27.819972], [84.818607, 27.820711], [84.816541, 27.82243], [84.815648, 27.82289], [84.815275, 27.822862], [84.813348, 27.819809], [84.812511, 27.81727], [84.811789, 27.812577], [84.812176, 27.809492]], [[84.770826, 27.817884], [84.770707, 27.817306], [84.771137, 27.81697], [84.773624, 27.817569], [84.776644, 27.817219], [84.777664, 27.816], [84.778432, 27.814325], [84.778662, 27.813205], [84.779126, 27.812989], [84.779562, 27.813259], [84.779828, 27.814419], [84.779314, 27.817727], [84.777366, 27.820997], [84.776925, 27.8214], [84.776036, 27.821265], [84.773993, 27.82034], [84.770826, 27.817884]], [[84.759917, 27.812429], [84.759564, 27.814076], [84.75918, 27.81422], [84.758666, 27.813773], [84.75842, 27.812281], [84.758837, 27.809628], [84.759864, 27.807352], [84.761456, 27.805314], [84.763363, 27.803689], [84.764207, 27.803408], [84.765057, 27.804303], [84.766537, 27.807327], [84.766743, 27.808897], [84.766492, 27.809161], [84.766079, 27.809191], [84.764151, 27.807988], [84.765122, 27.808916], [84.765058, 27.809521], [84.764684, 27.80971], [84.762405, 27.809824], [84.761293, 27.810199], [84.759917, 27.812429]], [[84.745964, 27.795495], [84.746348, 27.7958], [84.747062, 27.797853], [84.747, 27.798257], [84.746673, 27.798501], [84.746224, 27.798418], [84.745121, 27.797259], [84.743414, 27.796279], [84.74321, 27.795922], [84.743317, 27.795525], [84.743673, 27.795319], [84.745964, 27.795495]], [[84.727992, 27.806094], [84.72804, 27.805549], [84.728591, 27.805334], [84.732703, 27.806924], [84.730158, 27.805547], [84.72997, 27.805184], [84.73009, 27.804794], [84.730449, 27.8046], [84.732899, 27.804392], [84.735187, 27.803516], [84.736738, 27.802501], [84.737143, 27.802535], [84.737409, 27.802844], [84.737208, 27.80359], [84.734776, 27.806415], [84.733426, 27.80729], [84.732894, 27.807214], [84.73282, 27.807649], [84.732407, 27.807967], [84.730275, 27.80881], [84.729826, 27.80884], [84.729394, 27.808479], [84.727992, 27.806094]], [[84.71186, 27.8104], [84.711621, 27.809949], [84.711864, 27.809501], [84.714672, 27.808961], [84.716221, 27.807729], [84.717522, 27.805662], [84.717966, 27.805534], [84.718317, 27.805752], [84.718421, 27.806248], [84.717947, 27.808737], [84.71594, 27.812354], [84.714676, 27.812282], [84.71186, 27.8104]], [[84.69896, 27.803026], [84.698367, 27.803282], [84.697954, 27.802785], [84.698391, 27.799793], [84.698815, 27.799072], [84.701834, 27.798475], [84.702636, 27.798561], [84.702845, 27.79892], [84.702738, 27.79932], [84.699917, 27.80136], [84.69896, 27.803026]], [[84.653919, 27.861389], [84.653503, 27.861178], [84.653423, 27.86067], [84.654664, 27.859554], [84.655835, 27.85809], [84.656868, 27.855543], [84.656755, 27.852808], [84.657005, 27.852482], [84.657462, 27.852442], [84.657979, 27.852938], [84.659694, 27.856293], [84.660021, 27.858615], [84.659784, 27.860323], [84.659454, 27.860653], [84.657365, 27.861162], [84.653919, 27.861389]], [[84.635785, 27.853404], [84.636238, 27.853293], [84.63663, 27.853625], [84.636764, 27.856084], [84.637578, 27.858555], [84.638413, 27.859991], [84.639801, 27.861717], [84.641508, 27.863441], [84.639995, 27.860615], [84.639719, 27.858664], [84.639983, 27.856678], [84.641211, 27.85416], [84.642696, 27.85257], [84.643721, 27.851929], [84.645262, 27.851668], [84.647679, 27.852481], [84.650504, 27.854802], [84.652161, 27.85798], [84.652335, 27.861443], [84.650954, 27.864761], [84.648271, 27.867336], [84.644676, 27.868805], [84.643861, 27.868803], [84.643507, 27.868336], [84.644151, 27.863595], [84.643607, 27.864995], [84.64231, 27.866833], [84.640023, 27.86848], [84.639394, 27.868591], [84.636317, 27.867327], [84.633662, 27.864791], [84.632274, 27.861452], [84.632442, 27.857957], [84.634069, 27.85483], [84.635785, 27.853404]], [[84.61783, 27.874673], [84.617316, 27.874987], [84.616817, 27.874577], [84.616691, 27.87366], [84.616995, 27.871055], [84.618108, 27.868483], [84.619492, 27.86665], [84.619919, 27.866246], [84.620318, 27.866196], [84.622145, 27.867918], [84.623173, 27.869549], [84.623474, 27.870644], [84.623201, 27.870958], [84.622837, 27.871], [84.621528, 27.870106], [84.622885, 27.871469], [84.622834, 27.872101], [84.622421, 27.872289], [84.619796, 27.871941], [84.619113, 27.872605], [84.61783, 27.874673]], [[84.608163, 27.880418], [84.610275, 27.87986], [84.611532, 27.87908], [84.611942, 27.879156], [84.612175, 27.879503], [84.612091, 27.879911], [84.610814, 27.881513], [84.60947, 27.882688], [84.608043, 27.883409], [84.606362, 27.881907], [84.605402, 27.880574], [84.604398, 27.878578], [84.604405, 27.877979], [84.60473, 27.877732], [84.605179, 27.877811], [84.606534, 27.879304], [84.608163, 27.880418]], [[84.578702, 27.883652], [84.575658, 27.881451], [84.573877, 27.878452], [84.573477, 27.874919], [84.574668, 27.871521], [84.57717, 27.868868], [84.580722, 27.867216], [84.584715, 27.866915], [84.58645, 27.867466], [84.586831, 27.868837], [84.586408, 27.871297], [84.584973, 27.872894], [84.587013, 27.871619], [84.587972, 27.871304], [84.589714, 27.871049], [84.592256, 27.871485], [84.593402, 27.873607], [84.593604, 27.877159], [84.592303, 27.880403], [84.5897, 27.88298], [84.586087, 27.884525], [84.582177, 27.884718], [84.578702, 27.883652]], [[84.561006, 27.84912], [84.562546, 27.849465], [84.565193, 27.851151], [84.566874, 27.853341], [84.5675, 27.853041], [84.568178, 27.853661], [84.569308, 27.857047], [84.568891, 27.860492], [84.566968, 27.863616], [84.563876, 27.865805], [84.560071, 27.866782], [84.556315, 27.866409], [84.552987, 27.864934], [84.550392, 27.86229], [84.549138, 27.85897], [84.549415, 27.855479], [84.55118, 27.852346], [84.554167, 27.850048], [84.557922, 27.848936], [84.561006, 27.84912]], [[84.528245, 27.825671], [84.528102, 27.825189], [84.528466, 27.824781], [84.530214, 27.824437], [84.530709, 27.824774], [84.530524, 27.82689], [84.530165, 27.827307], [84.529627, 27.827191], [84.528245, 27.825671]], [[84.470019, 27.815176], [84.473932, 27.814483], [84.474396, 27.814648], [84.475625, 27.816663], [84.476353, 27.818786], [84.476614, 27.821532], [84.476383, 27.822348], [84.475935, 27.82248], [84.47558, 27.822257], [84.474958, 27.820656], [84.473347, 27.818428], [84.469579, 27.81607], [84.469501, 27.815475], [84.470019, 27.815176]], [[84.453069, 27.768679], [84.452591, 27.768322], [84.452697, 27.76778], [84.453628, 27.767247], [84.455219, 27.765186], [84.45817, 27.762865], [84.459761, 27.759971], [84.460968, 27.758394], [84.461694, 27.755596], [84.461952, 27.755274], [84.462587, 27.755361], [84.463692, 27.757341], [84.465098, 27.758622], [84.469284, 27.76058], [84.469237, 27.761133], [84.468189, 27.762122], [84.467116, 27.763786], [84.465691, 27.765286], [84.463662, 27.766711], [84.462026, 27.767501], [84.458173, 27.768515], [84.453069, 27.768679]], [[84.455489, 27.822776], [84.455821, 27.822324], [84.456374, 27.822411], [84.457166, 27.824057], [84.457927, 27.825055], [84.459606, 27.826399], [84.462272, 27.827515], [84.462484, 27.827874], [84.462376, 27.828277], [84.462014, 27.828482], [84.459111, 27.828569], [84.457522, 27.828988], [84.457113, 27.828888], [84.456375, 27.827901], [84.455756, 27.82627], [84.455408, 27.823805], [84.455489, 27.822776]], [[84.447125, 27.814483], [84.446655, 27.814118], [84.446807, 27.813544], [84.449545, 27.812496], [84.450473, 27.813567], [84.451022, 27.815012], [84.450802, 27.815361], [84.4504, 27.815453], [84.449236, 27.8149], [84.447125, 27.814483]]]}}]}