{
"type": "FeatureCollection",
"name": "police_stations",
"crs": { "type": "name", "properties": { "name": "urn:ogc:def:crs:OGC:1.3:CRS84" } },
"features": [
{ "type": "Feature", "properties": { "id": "node/6511401786", "name": null, "name_en": null, "name_ne": null, "status": "Standing", "amenity": "police", "operator": null, "operator_type": null, "phone": null, "addr_full": null, "addr_city": null, "source": null, "adm0_pcode": "NPL", "adm0_name": "Nepal", "adm1_pcode": "NP03", "adm1_name": "Bagmati", "adm2_pcode": "NP0329", "adm2_name": "Rasuwa", "adm3_pcode": "NP0329401", "adm3_name": "Aamachhodingmo", "adm4_pcode": null, "adm4_name": null, "name_latin": null }, "geometry": { "type": "Point", "coordinates": [ 85.2828441, 28.1133491 ] } },
{ "type": "Feature", "properties": { "id": "node/14128585218", "name": "Police Post Syapru Besi", "name_en": null, "name_ne": null, "status": "Destroyed", "amenity": "police", "operator": "नेपाल प्रहरी", "operator_type": null, "phone": null, "addr_full": null, "addr_city": null, "source": null, "adm0_pcode": "NPL", "adm0_name": "Nepal", "adm1_pcode": "NP03", "adm1_name": "Bagmati", "adm2_pcode": "NP0329", "adm2_name": "Rasuwa", "adm3_pcode": "NP0329402", "adm3_name": "Gosaikunda", "adm4_pcode": null, "adm4_name": null, "name_latin": "Police Post Syapru Besi" }, "geometry": { "type": "Point", "coordinates": [ 85.3418735, 28.165547 ] } },
{ "type": "Feature", "properties": { "id": "node/2857847365", "name": "Tourist Police", "name_en": null, "name_ne": null, "status": "Destroyed", "amenity": "police", "operator": null, "operator_type": null, "phone": null, "addr_full": null, "addr_city": null, "source": "GPS", "adm0_pcode": "NPL", "adm0_name": "Nepal", "adm1_pcode": "NP03", "adm1_name": "Bagmati", "adm2_pcode": "NP0329", "adm2_name": "Rasuwa", "adm3_pcode": "NP0329402", "adm3_name": "Gosaikunda", "adm4_pcode": null, "adm4_name": null, "name_latin": "Tourist Police" }, "geometry": { "type": "Point", "coordinates": [ 85.337056, 28.1637681 ] } },
{ "type": "Feature", "properties": { "id": "node/8947843318", "name": "Devighat Police Chowki", "name_en": null, "name_ne": null, "status": "Standing", "amenity": "police", "operator": null, "operator_type": null, "phone": null, "addr_full": null, "addr_city": null, "source": null, "adm0_pcode": "NPL", "adm0_name": "Nepal", "adm1_pcode": "NP03", "adm1_name": "Bagmati", "adm2_pcode": "NP0328", "adm2_name": "Nuwakot", "adm3_pcode": "NP0328301", "adm3_name": "Bidur", "adm4_pcode": null, "adm4_name": null, "name_latin": "Devighat Police Chowki" }, "geometry": { "type": "Point", "coordinates": [ 85.1127869, 27.8623197 ] } },
{ "type": "Feature", "properties": { "id": "node/4367705092", "name": null, "name_en": "Bidur Police Stations", "name_ne": null, "status": "Standing", "amenity": "police", "operator": null, "operator_type": null, "phone": null, "addr_full": null, "addr_city": null, "source": null, "adm0_pcode": "NPL", "adm0_name": "Nepal", "adm1_pcode": "NP03", "adm1_name": "Bagmati", "adm2_pcode": "NP0328", "adm2_name": "Nuwakot", "adm3_pcode": "NP0328301", "adm3_name": "Bidur", "adm4_pcode": null, "adm4_name": null, "name_latin": "Bidur Police Stations" }, "geometry": { "type": "Point", "coordinates": [ 85.1423985, 27.9147352 ] } },
{ "type": "Feature", "properties": { "id": "node/9519235220", "name": "Temporary Police Post Aadhamghat", "name_en": null, "name_ne": null, "status": "Standing", "amenity": "police", "operator": null, "operator_type": null, "phone": null, "addr_full": null, "addr_city": null, "source": null, "adm0_pcode": "NPL", "adm0_name": "Nepal", "adm1_pcode": "NP03", "adm1_name": "Bagmati", "adm2_pcode": "NP0330", "adm2_name": "Dhading", "adm3_pcode": "NP0330410", "adm3_name": "Galchhi", "adm4_pcode": null, "adm4_name": null, "name_latin": "Temporary Police Post Aadhamghat" }, "geometry": { "type": "Point", "coordinates": [ 84.9432067, 27.8063716 ] } },
{ "type": "Feature", "properties": { "id": "node/9519234817", "name": "Area Police Office Gajuri", "name_en": null, "name_ne": null, "status": "Standing", "amenity": "police", "operator": null, "operator_type": null, "phone": null, "addr_full": null, "addr_city": null, "source": null, "adm0_pcode": "NPL", "adm0_name": "Nepal", "adm1_pcode": "NP03", "adm1_name": "Bagmati", "adm2_pcode": "NP0330", "adm2_name": "Dhading", "adm3_pcode": "NP0330409", "adm3_name": "Gajuri", "adm4_pcode": null, "adm4_name": null, "name_latin": "Area Police Office Gajuri" }, "geometry": { "type": "Point", "coordinates": [ 84.8770096, 27.8044515 ] } },
{ "type": "Feature", "properties": { "id": "node/9519235919", "name": "Police Station", "name_en": null, "name_ne": null, "status": "Standing", "amenity": "police", "operator": null, "operator_type": null, "phone": null, "addr_full": null, "addr_city": null, "source": null, "adm0_pcode": "NPL", "adm0_name": "Nepal", "adm1_pcode": "NP03", "adm1_name": "Bagmati", "adm2_pcode": "NP0330", "adm2_name": "Dhading", "adm3_pcode": "NP0330410", "adm3_name": "Galchhi", "adm4_pcode": null, "adm4_name": null, "name_latin": "Police Station" }, "geometry": { "type": "Point", "coordinates": [ 85.0006199, 27.7957811 ] } },
{ "type": "Feature", "properties": { "id": "node/4962963958", "name": null, "name_en": "Police Station, Galchi", "name_ne": null, "status": "Standing", "amenity": "police", "operator": null, "operator_type": null, "phone": null, "addr_full": null, "addr_city": null, "source": null, "adm0_pcode": "NPL", "adm0_name": "Nepal", "adm1_pcode": "NP03", "adm1_name": "Bagmati", "adm2_pcode": "NP0330", "adm2_name": "Dhading", "adm3_pcode": "NP0330410", "adm3_name": "Galchhi", "adm4_pcode": null, "adm4_name": null, "name_latin": "Police Station, Galchi" }, "geometry": { "type": "Point", "coordinates": [ 85.0007766, 27.7960238 ] } },
{ "type": "Feature", "properties": { "id": "node/6166941586", "name": null, "name_en": "Betrawati check post बेत्रावती सुरक्षा जाँच", "name_ne": null, "status": "Standing", "amenity": "police", "operator": null, "operator_type": null, "phone": null, "addr_full": null, "addr_city": null, "source": null, "adm0_pcode": "NPL", "adm0_name": "Nepal", "adm1_pcode": "NP03", "adm1_name": "Bagmati", "adm2_pcode": "NP0328", "adm2_name": "Nuwakot", "adm3_pcode": "NP0328301", "adm3_name": "Bidur", "adm4_pcode": null, "adm4_name": null, "name_latin": "Betrawati check post बेत्रावती सुरक्षा जाँच" }, "geometry": { "type": "Point", "coordinates": [ 85.1856149, 27.9747652 ] } },
{ "type": "Feature", "properties": { "id": "node/9510265542", "name": "Area Police Office", "name_en": null, "name_ne": null, "status": "Standing", "amenity": "police", "operator": null, "operator_type": null, "phone": null, "addr_full": null, "addr_city": null, "source": null, "adm0_pcode": "NPL", "adm0_name": "Nepal", "adm1_pcode": "NP03", "adm1_name": "Bagmati", "adm2_pcode": "NP0330", "adm2_name": "Dhading", "adm3_pcode": "NP0330408", "adm3_name": "Benighat Rorang", "adm4_pcode": null, "adm4_name": null, "name_latin": "Area Police Office" }, "geometry": { "type": "Point", "coordinates": [ 84.781588, 27.8118103 ] } }
]
}
