{
"type": "FeatureCollection",
"name": "districts_shown",
"crs": { "type": "name", "properties": { "name": "urn:ogc:def:crs:OGC:1.3:CRS84" } },
"xy_coordinate_resolution": 1e-06,
"features": [
{"type":"Feature","properties":{"adm2_name":"Nuwakot","adm2_pcode":"NP0328","adm1_name":"Bagmati","adm1_pcode":"NP03"},"geometry":{"type":"Polygon","coordinates":[[[85.140666,28.085976],[85.15446,28.088372],[85.163673,28.085767],[85.168953,28.083771],[85.17039,28.082642],[85.170323,28.081264],[85.166939,28.077359],[85.163263,28.075741],[85.160887,28.073379],[85.158492,28.072468],[85.157526,28.070811],[85.154584,28.069013],[85.148071,28.061357],[85.14196,28.052709],[85.137757,28.048907],[85.133244,28.039939],[85.132928,28.038098],[85.13846,28.030407],[85.14362,28.027493],[85.15649,28.026667],[85.161557,28.024249],[85.165943,28.024192],[85.170458,28.021191],[85.173166,28.021227],[85.175801,28.020381],[85.178631,28.020916],[85.187047,28.01908],[85.187148,28.018163],[85.184301,28.01308],[85.183669,28.009558],[85.183769,28.006006],[85.184532,28.004143],[85.183827,28.002414],[85.184587,28.000706],[85.183436,28.000155],[85.185814,27.997847],[85.186061,27.996818],[85.182303,27.993243],[85.182684,27.989816],[85.180135,27.987548],[85.180229,27.981181],[85.181385,27.979472],[85.183409,27.973177],[85.18412,27.972898],[85.18839,27.976177],[85.194506,27.97588],[85.196894,27.975194],[85.204466,27.975139],[85.210471,27.973959],[85.212719,27.972754],[85.219587,27.975525],[85.222291,27.973922],[85.226946,27.974638],[85.233603,27.973004],[85.23623,27.974438],[85.247911,27.972595],[85.252321,27.971297],[85.253624,27.971628],[85.255365,27.974551],[85.257262,27.971233],[85.25924,27.972111],[85.260945,27.971739],[85.261811,27.970434],[85.265876,27.96815],[85.26889,27.966845],[85.270766,27.967473],[85.276058,27.965076],[85.27983,27.96842],[85.28051,27.972578],[85.282552,27.975306],[85.289807,27.983091],[85.292947,27.982383],[85.295282,27.983015],[85.29839,27.982783],[85.30595,27.986835],[85.317643,27.9892],[85.321806,27.988946],[85.324625,27.987042],[85.329505,27.988484],[85.331898,27.990319],[85.333639,27.993465],[85.336548,28.002248],[85.341924,28.009881],[85.345542,28.01154],[85.350213,28.011194],[85.35486,28.011654],[85.358788,28.013052],[85.363532,28.015998],[85.367628,28.017552],[85.371591,28.02209],[85.372784,28.022579],[85.375045,28.022021],[85.376414,28.022436],[85.380123,28.025397],[85.38972,28.030473],[85.391445,28.033257],[85.391757,28.035742],[85.394545,28.037633],[85.395183,28.037952],[85.397287,28.03685],[85.399013,28.03681],[85.401627,28.038773],[85.403343,28.039075],[85.403909,28.040308],[85.402501,28.044056],[85.404714,28.054861],[85.407989,28.057791],[85.40976,28.060536],[85.412176,28.06196],[85.414587,28.062088],[85.418312,28.059968],[85.419695,28.059809],[85.422437,28.060259],[85.425447,28.06182],[85.427019,28.063958],[85.427656,28.067062],[85.425597,28.072468],[85.42786,28.075797],[85.432744,28.080672],[85.435021,28.080802],[85.439013,28.082531],[85.441681,28.082517],[85.44228,28.078493],[85.444189,28.076594],[85.460305,28.070333],[85.470106,28.063698],[85.473587,28.059625],[85.479099,28.055253],[85.481632,28.051235],[85.482236,28.046981],[85.483909,28.044312],[85.487537,28.042453],[85.494311,28.037577],[85.495714,28.035285],[85.49699,28.030131],[85.496989,28.020303],[85.492699,28.00866],[85.492673,28.006678],[85.494213,28.002711],[85.49125,28.00016],[85.490202,27.997122],[85.487115,27.99245],[85.489412,27.985667],[85.489341,27.983062],[85.49225,27.976016],[85.491646,27.974231],[85.491802,27.971845],[85.490116,27.971151],[85.48519,27.971308],[85.48369,27.970331],[85.481347,27.96672],[85.480393,27.962799],[85.478366,27.959335],[85.48097,27.956582],[85.481382,27.953918],[85.482377,27.952482],[85.481938,27.94749],[85.482781,27.945225],[85.481718,27.940236],[85.48229,27.939075],[85.482363,27.935395],[85.486774,27.926834],[85.487421,27.91976],[85.483843,27.914899],[85.483871,27.910947],[85.481503,27.908116],[85.479504,27.904348],[85.478861,27.897942],[85.476444,27.893986],[85.476475,27.890399],[85.475036,27.8845],[85.47307,27.882243],[85.471123,27.882561],[85.468272,27.88166],[85.467983,27.879759],[85.469781,27.876875],[85.469888,27.875202],[85.469013,27.873127],[85.470074,27.869132],[85.468799,27.867817],[85.465772,27.867791],[85.464988,27.865343],[85.460761,27.863177],[85.460845,27.860419],[85.459881,27.858205],[85.457062,27.856309],[85.453281,27.851884],[85.451141,27.85042],[85.454627,27.846012],[85.452817,27.839947],[85.452594,27.836555],[85.4487,27.829512],[85.447997,27.823548],[85.44918,27.820818],[85.448141,27.816608],[85.447205,27.815145],[85.443879,27.813768],[85.43875,27.813142],[85.436075,27.810998],[85.430947,27.813149],[85.428968,27.811798],[85.420595,27.809484],[85.411315,27.809917],[85.406954,27.811751],[85.404611,27.811517],[85.402052,27.813269],[85.394414,27.81519],[85.391649,27.817185],[85.387529,27.814573],[85.385825,27.812305],[85.381604,27.812013],[85.372583,27.809049],[85.369961,27.809553],[85.361591,27.813967],[85.353184,27.810102],[85.345193,27.808658],[85.34386,27.809018],[85.33913,27.81296],[85.332579,27.815083],[85.324098,27.814643],[85.317802,27.813503],[85.310057,27.813342],[85.306039,27.810455],[85.30268,27.81117],[85.299891,27.81271],[85.297357,27.812156],[85.291624,27.80891],[85.291646,27.805706],[85.290799,27.804396],[85.284185,27.800964],[85.279921,27.794606],[85.267128,27.781204],[85.260588,27.778633],[85.259015,27.778596],[85.25733,27.780131],[85.256298,27.780206],[85.254396,27.778487],[85.252676,27.775675],[85.250254,27.775424],[85.249377,27.774092],[85.247511,27.773595],[85.246753,27.772492],[85.245757,27.773074],[85.245739,27.77468],[85.242353,27.775354],[85.239986,27.773265],[85.239002,27.774727],[85.23662,27.77413],[85.235429,27.77473],[85.233107,27.774475],[85.231893,27.771386],[85.230918,27.773938],[85.230155,27.772785],[85.229094,27.773403],[85.22995,27.775918],[85.2296,27.776431],[85.228151,27.773089],[85.22693,27.772581],[85.224088,27.772726],[85.223298,27.774192],[85.221219,27.775397],[85.217102,27.774134],[85.21543,27.775534],[85.215148,27.773791],[85.213059,27.773944],[85.212302,27.77237],[85.21089,27.771552],[85.209995,27.772748],[85.207649,27.770815],[85.207529,27.772057],[85.206047,27.773744],[85.205161,27.770045],[85.204354,27.768985],[85.204026,27.771488],[85.202131,27.773458],[85.201402,27.773164],[85.200972,27.771131],[85.201401,27.769318],[85.199366,27.770312],[85.197724,27.768804],[85.196909,27.770536],[85.193501,27.76903],[85.193935,27.770716],[85.1921,27.773071],[85.191698,27.770408],[85.189729,27.769335],[85.188307,27.769456],[85.185893,27.771572],[85.181186,27.771301],[85.178555,27.772043],[85.177619,27.770964],[85.17696,27.768046],[85.175978,27.767271],[85.174333,27.768386],[85.171919,27.766794],[85.169211,27.766559],[85.166235,27.767491],[85.164247,27.766267],[85.159427,27.765545],[85.154543,27.766892],[85.151696,27.766251],[85.150085,27.764241],[85.148545,27.763707],[85.143045,27.764454],[85.139492,27.765815],[85.134384,27.761661],[85.131804,27.762465],[85.130804,27.764091],[85.127961,27.760784],[85.126071,27.761248],[85.124662,27.760603],[85.124151,27.762559],[85.121775,27.763036],[85.121354,27.765072],[85.119862,27.767117],[85.11855,27.767389],[85.117475,27.766288],[85.116562,27.768281],[85.115309,27.768839],[85.114347,27.771254],[85.115073,27.772635],[85.114872,27.77439],[85.112695,27.772551],[85.110715,27.775545],[85.109237,27.775394],[85.108103,27.774043],[85.10572,27.774245],[85.101911,27.776317],[85.100034,27.778242],[85.097716,27.778426],[85.096558,27.779691],[85.096296,27.781178],[85.094524,27.782015],[85.093468,27.783549],[85.087714,27.787738],[85.085918,27.787448],[85.084486,27.788405],[85.082878,27.788307],[85.081759,27.789764],[85.079762,27.789626],[85.075016,27.791924],[85.069924,27.791521],[85.067433,27.792679],[85.063583,27.792693],[85.056812,27.795222],[85.056142,27.796845],[85.052458,27.797225],[85.051808,27.798963],[85.050167,27.799365],[85.048569,27.801187],[85.046476,27.801584],[85.045321,27.80529],[85.046872,27.806553],[85.048366,27.810138],[85.046956,27.81085],[85.046988,27.81298],[85.043974,27.811773],[85.041578,27.812227],[85.040907,27.815343],[85.041394,27.817209],[85.037802,27.814594],[85.035794,27.815316],[85.029571,27.815139],[85.027471,27.81626],[85.026333,27.814942],[85.025113,27.814676],[85.024596,27.813441],[85.023181,27.814688],[85.02045,27.813578],[85.019783,27.812285],[85.017794,27.811838],[85.018112,27.81073],[85.017394,27.80997],[85.012314,27.809444],[85.011974,27.811912],[85.015276,27.816251],[85.015375,27.81953],[85.017574,27.824392],[85.01676,27.82697],[85.020641,27.830011],[85.022808,27.832937],[85.020296,27.834262],[85.017277,27.833666],[85.015301,27.832318],[85.013426,27.832733],[85.012194,27.834633],[85.012356,27.836816],[85.008185,27.838615],[85.005751,27.841969],[85.007725,27.844982],[85.005259,27.847604],[85.006399,27.850436],[85.004588,27.850857],[85.003877,27.85246],[85.000783,27.852467],[85.001104,27.854003],[84.998307,27.855681],[84.992434,27.854785],[84.991564,27.857221],[84.989034,27.858115],[84.991367,27.859682],[84.990492,27.860584],[84.990489,27.864263],[84.991601,27.865239],[84.991072,27.866276],[84.991627,27.868298],[84.993968,27.870228],[84.992408,27.872188],[84.994726,27.875066],[84.992844,27.877063],[84.993537,27.878549],[84.991576,27.882161],[84.989247,27.883787],[84.988728,27.885338],[84.991452,27.887324],[84.992076,27.888511],[84.992282,27.895965],[84.997671,27.89941],[84.998143,27.902898],[85.00206,27.910459],[85.003888,27.91272],[85.004996,27.916008],[85.007437,27.919196],[85.010026,27.925584],[85.010501,27.928346],[85.008617,27.933912],[85.008628,27.936091],[85.011198,27.940772],[85.014735,27.94248],[85.016278,27.944068],[85.015435,27.947386],[85.016321,27.948411],[85.015081,27.949544],[85.015495,27.950583],[85.014903,27.951397],[85.013454,27.952143],[85.01172,27.951836],[85.008335,27.94856],[85.007725,27.949164],[85.007932,27.951119],[85.008743,27.95287],[85.009933,27.953649],[85.011535,27.957114],[85.014491,27.958892],[85.014976,27.961833],[85.018752,27.965658],[85.019502,27.96822],[85.021585,27.968148],[85.024719,27.969415],[85.02635,27.969434],[85.028464,27.971587],[85.028794,27.976813],[85.030248,27.980272],[85.029727,27.98486],[85.031071,27.987056],[85.031573,27.989473],[85.029416,27.995517],[85.026449,27.995334],[85.003031,28.000152],[85.002015,28.003007],[85.000043,28.005085],[85.000356,28.007005],[84.99991,28.007996],[84.997863,28.009541],[84.996769,28.011412],[84.994508,28.013145],[84.992178,28.013728],[84.990342,28.015772],[84.990041,28.018673],[84.990736,28.02101],[84.988344,28.025683],[84.989203,28.028635],[84.991022,28.027737],[84.991517,28.026254],[84.995492,28.024923],[85.007101,28.026592],[85.012531,28.026123],[85.014764,28.026497],[85.021042,28.029525],[85.023746,28.029981],[85.02556,28.029582],[85.028764,28.031117],[85.03263,28.031898],[85.033823,28.032678],[85.035333,28.03511],[85.041508,28.036956],[85.054513,28.05037],[85.062127,28.06689],[85.067052,28.066112],[85.074916,28.067596],[85.080532,28.066907],[85.085024,28.068802],[85.089836,28.072157],[85.097536,28.072869],[85.10467,28.076521],[85.11479,28.076766],[85.122362,28.091178],[85.129161,28.086058],[85.13505,28.084067],[85.140666,28.085976]]]}},
{"type":"Feature","properties":{"adm2_name":"Rasuwa","adm2_pcode":"NP0329","adm1_name":"Bagmati","adm1_pcode":"NP03"},"geometry":{"type":"Polygon","coordinates":[[[85.717638,28.375497],[85.720678,28.373516],[85.724206,28.373294],[85.720178,28.36962],[85.718786,28.367268],[85.720443,28.362357],[85.719817,28.359401],[85.7217,28.35562],[85.721919,28.353668],[85.724999,28.352242],[85.726166,28.350602],[85.726643,28.347753],[85.728147,28.344846],[85.728365,28.342499],[85.732149,28.339277],[85.731832,28.336295],[85.728696,28.33313],[85.727417,28.328782],[85.735779,28.323564],[85.735948,28.321427],[85.737127,28.319195],[85.736582,28.31268],[85.737571,28.309651],[85.735854,28.306569],[85.736286,28.305055],[85.735495,28.301089],[85.736233,28.299334],[85.732789,28.294473],[85.73294,28.291221],[85.738104,28.284667],[85.739323,28.276049],[85.742824,28.271656],[85.742223,28.2656],[85.742913,28.256836],[85.748275,28.249031],[85.747967,28.244744],[85.748741,28.238095],[85.754193,28.234855],[85.756903,28.228877],[85.758586,28.227862],[85.763839,28.227289],[85.767739,28.222596],[85.773934,28.218034],[85.775729,28.215634],[85.774529,28.211243],[85.776259,28.208531],[85.778832,28.20808],[85.782016,28.20842],[85.784208,28.205432],[85.790847,28.203723],[85.794452,28.200355],[85.799075,28.198146],[85.800105,28.19617],[85.798469,28.189411],[85.793563,28.188127],[85.793926,28.184968],[85.79216,28.183477],[85.780217,28.17807],[85.778665,28.174302],[85.774964,28.175494],[85.771515,28.175069],[85.766519,28.176341],[85.754778,28.174716],[85.749573,28.175208],[85.747516,28.174569],[85.743124,28.171562],[85.737613,28.17197],[85.736596,28.171297],[85.727564,28.169628],[85.725244,28.16968],[85.724405,28.170264],[85.723366,28.173566],[85.719125,28.174013],[85.713546,28.170873],[85.712469,28.169525],[85.713237,28.165817],[85.713157,28.162538],[85.712227,28.162018],[85.707149,28.16206],[85.70328,28.16395],[85.701735,28.16317],[85.698042,28.158962],[85.688439,28.155997],[85.683294,28.155936],[85.681306,28.157634],[85.677169,28.158158],[85.665942,28.154029],[85.658558,28.153864],[85.654279,28.151977],[85.651558,28.151574],[85.650749,28.151088],[85.648342,28.146219],[85.642364,28.145133],[85.637466,28.141268],[85.635214,28.138013],[85.635551,28.135329],[85.633716,28.133243],[85.632477,28.130284],[85.627085,28.129213],[85.620614,28.131749],[85.617713,28.132123],[85.614836,28.134055],[85.61419,28.139793],[85.615521,28.143346],[85.613692,28.146217],[85.612897,28.150423],[85.611316,28.151517],[85.607131,28.152641],[85.604943,28.155458],[85.601501,28.158044],[85.5987,28.157871],[85.596671,28.156398],[85.588925,28.153695],[85.587405,28.15404],[85.583851,28.153379],[85.578822,28.157197],[85.575805,28.156683],[85.570503,28.161582],[85.56752,28.161751],[85.563823,28.162919],[85.556069,28.167843],[85.547333,28.168516],[85.543818,28.167777],[85.532847,28.1674],[85.531433,28.162341],[85.526721,28.157333],[85.523216,28.15692],[85.519297,28.154746],[85.503167,28.152061],[85.495088,28.141696],[85.490219,28.138641],[85.490828,28.133604],[85.494802,28.125124],[85.495223,28.122264],[85.492337,28.115962],[85.488785,28.11198],[85.48945,28.108055],[85.489126,28.105713],[85.486775,28.105086],[85.480907,28.105603],[85.473344,28.105123],[85.457067,28.092699],[85.455535,28.092052],[85.451405,28.091958],[85.445809,28.090413],[85.444505,28.089313],[85.443892,28.086542],[85.441681,28.082517],[85.439013,28.082531],[85.435021,28.080802],[85.432744,28.080672],[85.42786,28.075797],[85.425597,28.072468],[85.427656,28.067062],[85.427019,28.063958],[85.425447,28.06182],[85.422437,28.060259],[85.419695,28.059809],[85.418312,28.059968],[85.414587,28.062088],[85.412176,28.06196],[85.40976,28.060536],[85.407989,28.057791],[85.404962,28.05521],[85.403951,28.053014],[85.4037,28.048546],[85.402501,28.044056],[85.403909,28.040308],[85.403343,28.039075],[85.401627,28.038773],[85.399013,28.03681],[85.397287,28.03685],[85.395183,28.037952],[85.394545,28.037633],[85.391757,28.035742],[85.391445,28.033257],[85.38972,28.030473],[85.380123,28.025397],[85.376414,28.022436],[85.375045,28.022021],[85.372784,28.022579],[85.371591,28.02209],[85.367628,28.017552],[85.363532,28.015998],[85.358788,28.013052],[85.35486,28.011654],[85.350213,28.011194],[85.345542,28.01154],[85.341924,28.009881],[85.336548,28.002248],[85.333639,27.993465],[85.331898,27.990319],[85.329505,27.988484],[85.324625,27.987042],[85.321806,27.988946],[85.317643,27.9892],[85.30595,27.986835],[85.29839,27.982783],[85.295282,27.983015],[85.292947,27.982383],[85.289807,27.983091],[85.282552,27.975306],[85.28051,27.972578],[85.27983,27.96842],[85.276186,27.965079],[85.270766,27.967473],[85.26889,27.966845],[85.265876,27.96815],[85.261811,27.970434],[85.260945,27.971739],[85.25924,27.972111],[85.257262,27.971233],[85.255365,27.974551],[85.253624,27.971628],[85.252321,27.971297],[85.247911,27.972595],[85.23623,27.974438],[85.233603,27.973004],[85.226946,27.974638],[85.222291,27.973922],[85.219587,27.975525],[85.212719,27.972754],[85.210471,27.973959],[85.204466,27.975139],[85.196894,27.975194],[85.194506,27.97588],[85.18839,27.976177],[85.184864,27.973381],[85.183604,27.973044],[85.182666,27.974449],[85.181385,27.979472],[85.180229,27.981181],[85.180135,27.987548],[85.182684,27.989816],[85.182303,27.993243],[85.186061,27.996818],[85.185814,27.997847],[85.183436,28.000155],[85.184587,28.000706],[85.183827,28.002414],[85.184532,28.004143],[85.183769,28.006006],[85.183669,28.009558],[85.184301,28.01308],[85.187148,28.018163],[85.187047,28.01908],[85.178631,28.020916],[85.175801,28.020381],[85.173166,28.021227],[85.170458,28.021191],[85.165943,28.024192],[85.161557,28.024249],[85.15649,28.026667],[85.14362,28.027493],[85.13846,28.030407],[85.13306,28.037831],[85.133244,28.039939],[85.137757,28.048907],[85.14196,28.052709],[85.148071,28.061357],[85.155262,28.069673],[85.157526,28.070811],[85.158492,28.072468],[85.161228,28.073613],[85.163263,28.075741],[85.166939,28.077359],[85.170613,28.082072],[85.168953,28.083771],[85.155495,28.088309],[85.150329,28.087976],[85.140666,28.085976],[85.135654,28.083997],[85.129161,28.086058],[85.122362,28.091178],[85.122985,28.095552],[85.122621,28.099683],[85.123998,28.105483],[85.126598,28.107431],[85.137722,28.10987],[85.146506,28.114949],[85.150328,28.118094],[85.158149,28.129585],[85.1579,28.131649],[85.156014,28.133808],[85.154709,28.137349],[85.154742,28.140678],[85.158289,28.144966],[85.169241,28.154851],[85.174075,28.16233],[85.177782,28.164936],[85.182533,28.166943],[85.188032,28.167926],[85.193895,28.167726],[85.195353,28.168201],[85.199924,28.176711],[85.200311,28.179699],[85.198814,28.184807],[85.200491,28.187964],[85.201285,28.192564],[85.203507,28.196835],[85.203363,28.200737],[85.204273,28.203386],[85.2011,28.211079],[85.199525,28.212629],[85.188477,28.219425],[85.187386,28.223238],[85.188873,28.224709],[85.188051,28.227834],[85.190815,28.230458],[85.193045,28.234337],[85.192413,28.239258],[85.194022,28.244315],[85.202455,28.250149],[85.201309,28.254159],[85.198297,28.25911],[85.194998,28.261214],[85.192689,28.264275],[85.188402,28.265548],[85.186753,28.267437],[85.184195,28.275959],[85.181783,28.278536],[85.179842,28.282728],[85.179849,28.284891],[85.179,28.286672],[85.179523,28.289059],[85.179195,28.291398],[85.177086,28.295213],[85.179284,28.30179],[85.175804,28.308222],[85.165183,28.323048],[85.159725,28.331849],[85.166711,28.331551],[85.170684,28.328476],[85.174033,28.327842],[85.181748,28.324216],[85.185429,28.327809],[85.193478,28.333133],[85.195429,28.336799],[85.198207,28.339279],[85.200143,28.340385],[85.202336,28.340594],[85.210134,28.336203],[85.215279,28.331968],[85.218794,28.330759],[85.225489,28.326039],[85.228505,28.325019],[85.23003,28.323011],[85.236247,28.321044],[85.241338,28.317752],[85.244495,28.312797],[85.246992,28.303169],[85.252952,28.298425],[85.25466,28.294396],[85.258815,28.294974],[85.266673,28.29812],[85.268301,28.298218],[85.270356,28.297325],[85.273457,28.293737],[85.272793,28.287716],[85.286824,28.287916],[85.292378,28.287394],[85.294364,28.289277],[85.29798,28.290691],[85.303453,28.28984],[85.305808,28.29132],[85.308034,28.291148],[85.31846,28.293998],[85.322784,28.29597],[85.325269,28.299075],[85.331468,28.300161],[85.340255,28.303894],[85.342451,28.302575],[85.34653,28.302357],[85.348079,28.301637],[85.348064,28.293019],[85.34703,28.291348],[85.347211,28.289664],[85.348146,28.288427],[85.352548,28.286645],[85.355168,28.286937],[85.36322,28.285519],[85.366529,28.286066],[85.370061,28.285699],[85.375444,28.282721],[85.377524,28.278509],[85.386404,28.284665],[85.387361,28.286422],[85.391843,28.288458],[85.396637,28.294089],[85.397594,28.29823],[85.404801,28.302417],[85.40839,28.305276],[85.409459,28.307169],[85.41192,28.308287],[85.414001,28.315987],[85.413028,28.32372],[85.413388,28.325025],[85.415269,28.32706],[85.417968,28.32724],[85.421344,28.329203],[85.424489,28.330122],[85.430116,28.330201],[85.437252,28.334718],[85.443871,28.335557],[85.451799,28.335212],[85.457885,28.336954],[85.475274,28.333293],[85.483454,28.333134],[85.48726,28.331121],[85.490657,28.331138],[85.496424,28.332302],[85.497645,28.333563],[85.500104,28.333267],[85.50641,28.333938],[85.511582,28.331883],[85.518313,28.330838],[85.525934,28.328277],[85.535189,28.323146],[85.538702,28.319953],[85.543078,28.319046],[85.547663,28.315075],[85.552147,28.314157],[85.561636,28.309755],[85.565705,28.310265],[85.570321,28.309436],[85.575804,28.310287],[85.578338,28.309136],[85.580658,28.30623],[85.585612,28.307863],[85.591834,28.308597],[85.600482,28.304288],[85.596518,28.298957],[85.596769,28.292434],[85.598359,28.289137],[85.598855,28.279188],[85.603503,28.26458],[85.605301,28.262954],[85.606179,28.261048],[85.606879,28.256945],[85.608571,28.256807],[85.625493,28.266021],[85.630373,28.271042],[85.635315,28.273859],[85.642009,28.282549],[85.644994,28.289727],[85.660606,28.302897],[85.66152,28.30476],[85.66121,28.305819],[85.659608,28.308441],[85.65589,28.312394],[85.653765,28.315899],[85.653642,28.3174],[85.657176,28.324468],[85.658754,28.325623],[85.661223,28.326168],[85.664278,28.331671],[85.664283,28.335591],[85.66561,28.338458],[85.666208,28.345641],[85.665631,28.347961],[85.669567,28.349455],[85.676082,28.350628],[85.681408,28.349615],[85.683649,28.347245],[85.685229,28.346383],[85.686076,28.346881],[85.683802,28.382402],[85.695203,28.385656],[85.700812,28.384548],[85.711364,28.386209],[85.71233,28.383087],[85.717638,28.375497]]]}},
{"type":"Feature","properties":{"adm2_name":"Dhading","adm2_pcode":"NP0330","adm1_name":"Bagmati","adm1_pcode":"NP03"},"geometry":{"type":"Polygon","coordinates":[[[85.120655,28.335695],[85.124027,28.336116],[85.126847,28.33778],[85.128535,28.337998],[85.132232,28.335888],[85.134933,28.332423],[85.136829,28.332407],[85.140264,28.330396],[85.142819,28.331257],[85.154633,28.331035],[85.156313,28.331729],[85.159725,28.331849],[85.177162,28.305808],[85.179284,28.30179],[85.177086,28.295213],[85.179195,28.291398],[85.179523,28.289059],[85.179,28.286672],[85.180495,28.280859],[85.184195,28.275959],[85.184652,28.273266],[85.18743,28.266326],[85.192689,28.264275],[85.194998,28.261214],[85.198297,28.25911],[85.200311,28.256559],[85.202455,28.250149],[85.194022,28.244315],[85.192413,28.239258],[85.193045,28.234337],[85.190815,28.230458],[85.188051,28.227834],[85.188873,28.224709],[85.187386,28.223238],[85.188477,28.219425],[85.199525,28.212629],[85.2011,28.211079],[85.204264,28.203961],[85.203363,28.200737],[85.203507,28.196835],[85.201285,28.192564],[85.200491,28.187964],[85.198814,28.184807],[85.200311,28.179699],[85.199924,28.176711],[85.195096,28.168045],[85.188032,28.167926],[85.182533,28.166943],[85.175095,28.163222],[85.169241,28.154851],[85.156088,28.142607],[85.154742,28.140678],[85.154388,28.138608],[85.156014,28.133808],[85.1579,28.131649],[85.158149,28.129585],[85.149525,28.117203],[85.137722,28.10987],[85.126598,28.107431],[85.124209,28.105792],[85.122621,28.099683],[85.122985,28.095552],[85.122362,28.091178],[85.11479,28.076766],[85.10467,28.076521],[85.097536,28.072869],[85.089836,28.072157],[85.085024,28.068802],[85.080532,28.066907],[85.074916,28.067596],[85.067052,28.066112],[85.062127,28.06689],[85.054513,28.05037],[85.041508,28.036956],[85.035333,28.03511],[85.033823,28.032678],[85.03263,28.031898],[85.028764,28.031117],[85.02556,28.029582],[85.023746,28.029981],[85.021042,28.029525],[85.014764,28.026497],[85.012531,28.026123],[85.007101,28.026592],[84.995492,28.024923],[84.991517,28.026254],[84.991022,28.027737],[84.989203,28.028635],[84.988344,28.025683],[84.990736,28.02101],[84.990041,28.018673],[84.990342,28.015772],[84.992178,28.013728],[84.994508,28.013145],[84.996769,28.011412],[84.997863,28.009541],[84.99991,28.007996],[85.000356,28.007005],[85.000043,28.005085],[85.002015,28.003007],[85.003031,28.000152],[85.026449,27.995334],[85.029416,27.995517],[85.031573,27.989473],[85.031071,27.987056],[85.029727,27.98486],[85.030248,27.980272],[85.028794,27.976813],[85.028464,27.971587],[85.02635,27.969434],[85.024719,27.969415],[85.021585,27.968148],[85.019502,27.96822],[85.018752,27.965658],[85.014976,27.961833],[85.014491,27.958892],[85.011535,27.957114],[85.007767,27.950658],[85.007748,27.949031],[85.008335,27.94856],[85.01172,27.951836],[85.013454,27.952143],[85.014903,27.951397],[85.015495,27.950583],[85.015081,27.949544],[85.016321,27.948411],[85.015435,27.947386],[85.016278,27.944068],[85.014735,27.94248],[85.011198,27.940772],[85.008628,27.936091],[85.008617,27.933912],[85.010501,27.928346],[85.010026,27.925584],[85.007437,27.919196],[85.004996,27.916008],[85.003888,27.91272],[85.00206,27.910459],[84.998143,27.902898],[84.997671,27.89941],[84.992282,27.895965],[84.992076,27.888511],[84.991452,27.887324],[84.988822,27.885642],[84.989247,27.883787],[84.991576,27.882161],[84.993537,27.878549],[84.992844,27.877063],[84.994726,27.875066],[84.992408,27.872188],[84.993968,27.870228],[84.991627,27.868298],[84.991072,27.866276],[84.991601,27.865239],[84.990489,27.864263],[84.990492,27.860584],[84.991367,27.859682],[84.988904,27.858409],[84.991564,27.857221],[84.992434,27.854785],[84.998307,27.855681],[85.001104,27.854003],[85.000783,27.852467],[85.003877,27.85246],[85.004588,27.850857],[85.006399,27.850436],[85.005259,27.847604],[85.007725,27.844982],[85.005751,27.841969],[85.008185,27.838615],[85.012356,27.836816],[85.012194,27.834633],[85.013426,27.832733],[85.015301,27.832318],[85.017277,27.833666],[85.020296,27.834262],[85.022808,27.832937],[85.020641,27.830011],[85.01676,27.82697],[85.017574,27.824392],[85.015375,27.81953],[85.015276,27.816251],[85.011974,27.811912],[85.012314,27.809444],[85.017394,27.80997],[85.018112,27.81073],[85.017794,27.811838],[85.019783,27.812285],[85.02045,27.813578],[85.023181,27.814688],[85.024596,27.813441],[85.025113,27.814676],[85.026333,27.814942],[85.027471,27.81626],[85.029571,27.815139],[85.035794,27.815316],[85.037802,27.814594],[85.041394,27.817209],[85.040907,27.815343],[85.041578,27.812227],[85.043974,27.811773],[85.046988,27.81298],[85.046956,27.81085],[85.048366,27.810138],[85.046872,27.806553],[85.045321,27.80529],[85.046476,27.801584],[85.048569,27.801187],[85.050167,27.799365],[85.051808,27.798963],[85.052458,27.797225],[85.056142,27.796845],[85.056812,27.795222],[85.063583,27.792693],[85.067433,27.792679],[85.069924,27.791521],[85.075016,27.791924],[85.079762,27.789626],[85.081759,27.789764],[85.082878,27.788307],[85.084486,27.788405],[85.085918,27.787448],[85.087714,27.787738],[85.093468,27.783549],[85.094524,27.782015],[85.096296,27.781178],[85.096558,27.779691],[85.097716,27.778426],[85.100034,27.778242],[85.101911,27.776317],[85.10572,27.774245],[85.108103,27.774043],[85.109237,27.775394],[85.110715,27.775545],[85.112695,27.772551],[85.114872,27.77439],[85.115073,27.772635],[85.114347,27.771254],[85.115309,27.768839],[85.116562,27.768281],[85.117475,27.766288],[85.11855,27.767389],[85.119862,27.767117],[85.121354,27.765072],[85.121775,27.763036],[85.124302,27.762386],[85.124468,27.760659],[85.126071,27.761248],[85.127961,27.760784],[85.130804,27.764091],[85.131804,27.762465],[85.134384,27.761661],[85.139492,27.765815],[85.143045,27.764454],[85.148545,27.763707],[85.150085,27.764241],[85.151696,27.766251],[85.154543,27.766892],[85.159427,27.765545],[85.164247,27.766267],[85.166235,27.767491],[85.169211,27.766559],[85.171919,27.766794],[85.174333,27.768386],[85.175978,27.767271],[85.17696,27.768046],[85.177619,27.770964],[85.178555,27.772043],[85.181186,27.771301],[85.185893,27.771572],[85.188307,27.769456],[85.189729,27.769335],[85.191698,27.770408],[85.1921,27.773071],[85.193935,27.770716],[85.193501,27.76903],[85.196909,27.770536],[85.197724,27.768804],[85.199366,27.770312],[85.201401,27.769318],[85.200972,27.771131],[85.201402,27.773164],[85.202131,27.773458],[85.204026,27.771488],[85.204354,27.768985],[85.205161,27.770045],[85.206047,27.773744],[85.207907,27.770818],[85.209995,27.772748],[85.21089,27.771552],[85.212302,27.77237],[85.213059,27.773944],[85.215148,27.773791],[85.21543,27.775534],[85.217102,27.774134],[85.221219,27.775397],[85.223298,27.774192],[85.224088,27.772726],[85.22693,27.772581],[85.228151,27.773089],[85.229003,27.775908],[85.229815,27.776395],[85.229094,27.773403],[85.230155,27.772785],[85.230918,27.773938],[85.231893,27.771386],[85.2333,27.774537],[85.235429,27.77473],[85.23662,27.77413],[85.239002,27.774727],[85.239986,27.773265],[85.242031,27.775255],[85.242999,27.775341],[85.245869,27.774584],[85.245757,27.773074],[85.246753,27.772492],[85.247511,27.773595],[85.249377,27.774092],[85.250254,27.775424],[85.252511,27.775602],[85.25146,27.77494],[85.251577,27.773892],[85.253091,27.774343],[85.254321,27.773005],[85.257741,27.773288],[85.257321,27.772073],[85.257722,27.771668],[85.262898,27.770755],[85.263457,27.768054],[85.262905,27.766398],[85.265339,27.763899],[85.267933,27.763442],[85.270043,27.759588],[85.270125,27.758308],[85.268463,27.754617],[85.26874,27.748223],[85.267055,27.745633],[85.258032,27.744599],[85.256751,27.745208],[85.255041,27.744815],[85.253217,27.745721],[85.252678,27.747779],[85.250978,27.748877],[85.249499,27.746747],[85.246555,27.744513],[85.236893,27.745121],[85.235736,27.743755],[85.235067,27.741178],[85.229779,27.740343],[85.22542,27.737905],[85.223034,27.737484],[85.220606,27.735646],[85.213534,27.737055],[85.213562,27.736157],[85.215323,27.734691],[85.217807,27.734065],[85.220058,27.731999],[85.221431,27.727883],[85.218614,27.724826],[85.217285,27.722153],[85.212521,27.721076],[85.207178,27.7227],[85.20704,27.720305],[85.206107,27.718675],[85.204912,27.718397],[85.201333,27.720028],[85.200012,27.716991],[85.197091,27.716265],[85.198809,27.713667],[85.200875,27.712901],[85.198586,27.710712],[85.199921,27.708009],[85.197585,27.709135],[85.196233,27.709117],[85.196929,27.706316],[85.19525,27.701302],[85.192868,27.697437],[85.194456,27.694256],[85.192216,27.690666],[85.19171,27.685279],[85.188576,27.681342],[85.174825,27.679977],[85.172875,27.679161],[85.16184,27.670733],[85.160601,27.670701],[85.155956,27.672781],[85.152239,27.671436],[85.149653,27.669526],[85.147356,27.670461],[85.141948,27.671065],[85.138541,27.673868],[85.134409,27.674678],[85.133164,27.67608],[85.131097,27.680952],[85.128616,27.680981],[85.122291,27.683282],[85.120136,27.683505],[85.117665,27.69272],[85.115345,27.69631],[85.110026,27.700804],[85.103167,27.70409],[85.101285,27.706061],[85.099921,27.708898],[85.094807,27.711211],[85.088675,27.712191],[85.085984,27.710642],[85.083304,27.70708],[85.080384,27.706539],[85.078651,27.707103],[85.078092,27.708619],[85.076004,27.709041],[85.069668,27.703622],[85.065626,27.703204],[85.065896,27.701679],[85.064578,27.699232],[85.064668,27.69679],[85.061003,27.694479],[85.05815,27.694557],[85.057317,27.695283],[85.057884,27.697102],[85.053977,27.699859],[85.052345,27.699373],[85.042551,27.690136],[85.041094,27.69174],[85.040188,27.694035],[85.041475,27.697508],[85.041794,27.702289],[85.038487,27.70572],[85.0385,27.702747],[85.03683,27.702267],[85.034325,27.703254],[85.034878,27.701233],[85.032799,27.700086],[85.032426,27.698099],[85.030686,27.697684],[85.028492,27.700089],[85.023694,27.701546],[85.021912,27.70386],[85.01698,27.704321],[85.013891,27.707107],[85.011223,27.707706],[85.005994,27.706037],[85.002513,27.705672],[84.990026,27.707801],[84.989005,27.706626],[84.988857,27.704274],[84.986797,27.704417],[84.98485,27.703353],[84.982447,27.703801],[84.978991,27.702706],[84.976772,27.700139],[84.976396,27.695526],[84.975684,27.694676],[84.973531,27.693971],[84.971664,27.692509],[84.966945,27.6911],[84.964627,27.691231],[84.96184,27.689597],[84.958562,27.689029],[84.958493,27.686083],[84.951383,27.683413],[84.948903,27.683942],[84.944498,27.686925],[84.937259,27.686176],[84.933862,27.687221],[84.929312,27.686694],[84.924813,27.688412],[84.922312,27.688627],[84.921306,27.689491],[84.921063,27.691514],[84.91946,27.694097],[84.914912,27.69498],[84.908219,27.698476],[84.907145,27.69851],[84.900233,27.694176],[84.898865,27.690638],[84.897106,27.688984],[84.896309,27.686679],[84.891766,27.682109],[84.887559,27.674686],[84.885635,27.672659],[84.883855,27.672056],[84.882097,27.669965],[84.879735,27.668705],[84.875764,27.670745],[84.871418,27.675986],[84.865623,27.679754],[84.863367,27.68022],[84.858908,27.68286],[84.850508,27.686524],[84.846076,27.687219],[84.836224,27.690893],[84.833797,27.69093],[84.82873,27.692395],[84.826015,27.68993],[84.823315,27.68847],[84.822743,27.6868],[84.819455,27.685317],[84.818065,27.682992],[84.81471,27.682231],[84.812366,27.67986],[84.808516,27.678883],[84.806484,27.675542],[84.80091,27.673086],[84.799999,27.671366],[84.798599,27.672111],[84.79747,27.674737],[84.796585,27.684229],[84.795242,27.685916],[84.789242,27.688425],[84.785957,27.6919],[84.790654,27.695018],[84.791981,27.697242],[84.793673,27.702679],[84.796032,27.706056],[84.79636,27.709154],[84.790897,27.711985],[84.78726,27.716124],[84.782618,27.717677],[84.778608,27.720123],[84.77469,27.720664],[84.769975,27.722585],[84.761176,27.731232],[84.758339,27.732922],[84.757371,27.73561],[84.751605,27.735296],[84.737373,27.732726],[84.728485,27.727246],[84.725869,27.728951],[84.723463,27.729661],[84.720814,27.728387],[84.717643,27.728137],[84.715065,27.7261],[84.708427,27.727943],[84.704684,27.727161],[84.699976,27.727339],[84.69578,27.724966],[84.692536,27.721199],[84.689104,27.725175],[84.683549,27.726139],[84.680393,27.730421],[84.676025,27.730113],[84.674522,27.730603],[84.673411,27.733386],[84.670911,27.735645],[84.670038,27.737971],[84.674416,27.742803],[84.675195,27.744311],[84.67545,27.747227],[84.679081,27.750205],[84.679502,27.753488],[84.681371,27.758208],[84.681125,27.759409],[84.67935,27.76125],[84.673476,27.763113],[84.668475,27.765842],[84.674641,27.777271],[84.674673,27.778535],[84.672404,27.780312],[84.664886,27.781186],[84.657065,27.781058],[84.652514,27.779616],[84.649558,27.779404],[84.64748,27.784152],[84.637763,27.782942],[84.638688,27.78727],[84.637036,27.794448],[84.640196,27.793377],[84.644564,27.793808],[84.645195,27.795073],[84.645469,27.800006],[84.634942,27.80699],[84.63286,27.807282],[84.631517,27.806566],[84.629299,27.807697],[84.627116,27.80734],[84.623816,27.809401],[84.618201,27.809207],[84.620799,27.812079],[84.621594,27.815288],[84.623572,27.816815],[84.630117,27.818329],[84.631713,27.819506],[84.640751,27.822314],[84.650653,27.822085],[84.653197,27.822673],[84.654365,27.82373],[84.66149,27.822647],[84.665579,27.825231],[84.667336,27.823007],[84.667178,27.819473],[84.667916,27.818465],[84.671016,27.816938],[84.677006,27.815677],[84.678672,27.814027],[84.684511,27.810453],[84.707295,27.806614],[84.708103,27.804861],[84.707844,27.802489],[84.711052,27.800428],[84.713709,27.80041],[84.718631,27.803674],[84.721433,27.801264],[84.727331,27.799847],[84.729393,27.796057],[84.730724,27.795529],[84.732008,27.795692],[84.736907,27.798991],[84.737103,27.801594],[84.73867,27.803993],[84.744449,27.804259],[84.746859,27.805555],[84.751389,27.805237],[84.753731,27.806393],[84.756141,27.808936],[84.756835,27.814442],[84.762525,27.818162],[84.764855,27.818431],[84.768873,27.815551],[84.769369,27.814817],[84.768398,27.811628],[84.772967,27.808577],[84.775311,27.808748],[84.778965,27.812498],[84.782265,27.813797],[84.781819,27.815701],[84.776916,27.818822],[84.773601,27.824124],[84.772999,27.829398],[84.775841,27.835268],[84.77408,27.837273],[84.770556,27.838829],[84.769815,27.842795],[84.767443,27.843715],[84.767922,27.851653],[84.765233,27.85371],[84.765629,27.857246],[84.764977,27.859235],[84.763616,27.860016],[84.759227,27.859316],[84.755916,27.861698],[84.754115,27.865284],[84.754998,27.869257],[84.753287,27.873494],[84.752222,27.875246],[84.746838,27.878515],[84.745837,27.880172],[84.745977,27.881302],[84.748348,27.88375],[84.749124,27.886036],[84.743321,27.888436],[84.7418,27.889748],[84.737401,27.890661],[84.735648,27.892802],[84.737509,27.896971],[84.736297,27.900352],[84.733891,27.904031],[84.733106,27.906977],[84.734982,27.915367],[84.734036,27.917181],[84.733297,27.924669],[84.731893,27.925761],[84.732531,27.927258],[84.736316,27.928472],[84.736295,27.930721],[84.734021,27.931176],[84.733779,27.933092],[84.73926,27.936513],[84.739695,27.943624],[84.740957,27.947333],[84.745451,27.953025],[84.746419,27.955233],[84.745764,27.96002],[84.75709,27.963383],[84.760594,27.967147],[84.769033,27.967222],[84.772124,27.970063],[84.774604,27.971317],[84.775042,27.973047],[84.771344,27.975912],[84.771513,27.977279],[84.775246,27.977012],[84.776776,27.977529],[84.777369,27.979985],[84.778459,27.981321],[84.783949,27.983223],[84.784898,27.986963],[84.787863,27.989276],[84.787951,27.995216],[84.790035,27.997916],[84.796789,27.998068],[84.797667,27.999295],[84.796327,28.001322],[84.797298,28.002293],[84.801413,28.000435],[84.803735,28.000352],[84.809724,28.001889],[84.811212,28.002868],[84.813166,28.009255],[84.810305,28.013238],[84.809428,28.016787],[84.810255,28.018754],[84.812707,28.021235],[84.812984,28.022731],[84.812259,28.025016],[84.813452,28.02836],[84.812499,28.031447],[84.80935,28.034583],[84.809383,28.037913],[84.812013,28.042881],[84.81826,28.047625],[84.818368,28.054245],[84.82053,28.056299],[84.821145,28.058181],[84.820808,28.063074],[84.824279,28.066636],[84.825417,28.070782],[84.827758,28.075057],[84.829248,28.081426],[84.831517,28.084744],[84.831692,28.089492],[84.83715,28.094882],[84.836924,28.09794],[84.837729,28.101128],[84.837032,28.104067],[84.838067,28.106414],[84.842341,28.11064],[84.842015,28.114502],[84.84362,28.116245],[84.84948,28.118463],[84.854575,28.122584],[84.858925,28.119997],[84.859985,28.120928],[84.862214,28.121492],[84.86925,28.120394],[84.872683,28.116648],[84.880878,28.112692],[84.883813,28.109743],[84.885283,28.106812],[84.885264,28.105436],[84.890134,28.102548],[84.892332,28.099895],[84.896861,28.104467],[84.900313,28.106615],[84.902831,28.105344],[84.909217,28.104542],[84.913465,28.102833],[84.915836,28.102593],[84.918018,28.103346],[84.92145,28.106524],[84.920059,28.115235],[84.921758,28.116557],[84.92393,28.120562],[84.92525,28.121419],[84.928699,28.126244],[84.930693,28.125389],[84.935321,28.126551],[84.939079,28.125677],[84.941076,28.124666],[84.94266,28.122503],[84.944873,28.123984],[84.948303,28.124826],[84.951713,28.124139],[84.956795,28.126685],[84.957206,28.130709],[84.9568,28.131968],[84.958366,28.133708],[84.958202,28.136003],[84.954082,28.14342],[84.955218,28.145154],[84.957773,28.147099],[84.957048,28.149387],[84.957127,28.155473],[84.960683,28.159533],[84.960474,28.161942],[84.961792,28.168883],[84.963428,28.172114],[84.96555,28.174433],[84.963952,28.177856],[84.967347,28.184778],[84.973235,28.189052],[84.973736,28.190205],[84.970748,28.194416],[84.970512,28.19904],[84.967413,28.201873],[84.967293,28.204357],[84.962144,28.2121],[84.961963,28.212672],[84.963913,28.215101],[84.964615,28.217289],[84.967136,28.218925],[84.968098,28.221039],[84.970307,28.22336],[84.976944,28.226647],[84.979364,28.22935],[84.982442,28.234433],[84.984751,28.235797],[84.989485,28.242811],[84.991487,28.24463],[84.993997,28.243892],[84.997664,28.240396],[84.99855,28.24117],[84.999012,28.244397],[85.002573,28.248003],[85.000536,28.251584],[85.00163,28.253178],[85.003776,28.254092],[85.004816,28.255241],[85.010873,28.256054],[85.021285,28.260238],[85.026824,28.261446],[85.027826,28.26233],[85.027603,28.26343],[85.028698,28.267106],[85.031119,28.272826],[85.031707,28.279188],[85.033911,28.282907],[85.034973,28.287309],[85.037153,28.289526],[85.037875,28.291815],[85.036964,28.29542],[85.033857,28.299529],[85.032601,28.302768],[85.033127,28.303784],[85.034451,28.304419],[85.0346,28.305645],[85.041089,28.311791],[85.042534,28.315317],[85.042017,28.317678],[85.042717,28.319629],[85.044877,28.321917],[85.04654,28.325792],[85.050024,28.325907],[85.052875,28.326938],[85.065938,28.337491],[85.067253,28.339209],[85.071043,28.340607],[85.080431,28.345807],[85.08406,28.345567],[85.08825,28.346296],[85.092881,28.344596],[85.103001,28.345489],[85.107837,28.346528],[85.108324,28.345335],[85.120655,28.335695]]]}},
{"type":"Feature","properties":{"adm2_name":"Gorkha","adm2_pcode":"NP0436","adm1_name":"Gandaki","adm1_pcode":"NP04"},"geometry":{"type":"Polygon","coordinates":[[[84.558995,28.745262],[84.567234,28.741467],[84.571563,28.735148],[84.586693,28.734553],[84.592256,28.73657],[84.597295,28.735673],[84.600306,28.734184],[84.605657,28.733405],[84.61524,28.736657],[84.61765,28.735805],[84.626223,28.736451],[84.629298,28.732645],[84.632604,28.731874],[84.638896,28.728787],[84.641237,28.726322],[84.643431,28.725213],[84.644353,28.719921],[84.647617,28.718669],[84.650629,28.714398],[84.649846,28.707501],[84.650515,28.702381],[84.653756,28.700701],[84.65833,28.700284],[84.661396,28.69874],[84.664194,28.694708],[84.666391,28.694217],[84.668778,28.689966],[84.667607,28.686417],[84.66823,28.683375],[84.675931,28.679013],[84.681241,28.678334],[84.688096,28.678796],[84.691529,28.676856],[84.692955,28.674737],[84.696323,28.671767],[84.704838,28.671069],[84.701339,28.665132],[84.700462,28.659077],[84.697116,28.653464],[84.698634,28.650571],[84.701422,28.648273],[84.701649,28.647363],[84.700814,28.644672],[84.698162,28.640961],[84.697977,28.639518],[84.694669,28.636411],[84.700687,28.63444],[84.713676,28.632948],[84.715724,28.630912],[84.719894,28.628984],[84.72148,28.62743],[84.722616,28.625863],[84.72297,28.62344],[84.725071,28.620596],[84.730808,28.62017],[84.732741,28.618461],[84.736679,28.616858],[84.741425,28.616765],[84.744705,28.618274],[84.746767,28.618281],[84.755197,28.613535],[84.758996,28.613491],[84.760945,28.612513],[84.763696,28.612691],[84.767637,28.61049],[84.780576,28.609466],[84.837001,28.580817],[84.838278,28.579345],[84.839122,28.579732],[84.856966,28.570572],[84.857238,28.572547],[84.861438,28.577237],[84.863872,28.578343],[84.865157,28.580367],[84.86694,28.581603],[84.86909,28.582456],[84.870562,28.581478],[84.875205,28.580677],[84.879398,28.582466],[84.885946,28.582626],[84.890169,28.588662],[84.891996,28.589447],[84.899042,28.589876],[84.900854,28.593243],[84.905247,28.588766],[84.906856,28.588137],[84.910278,28.588583],[84.912632,28.589641],[84.917615,28.593029],[84.918225,28.594706],[84.919558,28.595225],[84.931897,28.593746],[84.935753,28.594236],[84.938683,28.595664],[84.944779,28.594785],[84.945552,28.594281],[84.947339,28.590224],[84.946905,28.587965],[84.948766,28.580147],[84.964658,28.586757],[84.967792,28.586152],[84.971801,28.586719],[84.972542,28.588334],[84.974422,28.589669],[84.98048,28.590225],[84.983286,28.591369],[84.98831,28.59473],[84.992728,28.599775],[84.992692,28.600958],[84.987861,28.603197],[84.985967,28.605076],[84.98584,28.606852],[84.988715,28.61287],[84.990751,28.614982],[84.992775,28.615775],[84.99432,28.617997],[85.000094,28.622841],[85.003496,28.629894],[85.004986,28.630267],[85.008801,28.637053],[85.011018,28.637129],[85.012726,28.63823],[85.017007,28.639416],[85.022888,28.648903],[85.026135,28.650631],[85.030754,28.656061],[85.032637,28.656859],[85.040221,28.657963],[85.041467,28.666868],[85.041067,28.668403],[85.043866,28.669263],[85.049184,28.669326],[85.051921,28.670013],[85.054419,28.676993],[85.053591,28.680376],[85.058475,28.682393],[85.06166,28.680431],[85.068377,28.679599],[85.071176,28.678486],[85.080305,28.671508],[85.083818,28.670923],[85.088689,28.671603],[85.091945,28.67658],[85.094332,28.6783],[85.101765,28.681759],[85.110456,28.683382],[85.1132,28.685924],[85.11526,28.686512],[85.125792,28.679924],[85.128985,28.67883],[85.13229,28.675888],[85.134297,28.671518],[85.134322,28.667746],[85.134927,28.666534],[85.139688,28.665635],[85.142669,28.66265],[85.145545,28.660954],[85.145023,28.656479],[85.149127,28.653264],[85.152117,28.649954],[85.154248,28.648718],[85.157086,28.644746],[85.157066,28.642935],[85.158972,28.643372],[85.163432,28.642765],[85.166161,28.643868],[85.170954,28.643594],[85.177838,28.645043],[85.179113,28.644847],[85.179459,28.644147],[85.181055,28.644424],[85.182938,28.642781],[85.187249,28.641873],[85.188371,28.641017],[85.184694,28.632228],[85.186678,28.630852],[85.191157,28.630766],[85.197898,28.626668],[85.197213,28.620801],[85.194928,28.618164],[85.194283,28.614698],[85.193091,28.612214],[85.19157,28.61146],[85.189591,28.609181],[85.188846,28.604963],[85.183755,28.603033],[85.178488,28.598936],[85.173546,28.597411],[85.175111,28.592128],[85.178328,28.590521],[85.181226,28.587421],[85.18245,28.583359],[85.181247,28.581094],[85.181414,28.578922],[85.184289,28.575022],[85.189088,28.572032],[85.189527,28.570738],[85.191439,28.568982],[85.191485,28.568284],[85.189792,28.566905],[85.187529,28.563165],[85.184609,28.561345],[85.184919,28.55966],[85.188253,28.553863],[85.187882,28.551903],[85.188828,28.547217],[85.18866,28.54455],[85.186298,28.540147],[85.186889,28.535466],[85.186394,28.533544],[85.178175,28.532546],[85.168814,28.533428],[85.166006,28.532049],[85.164917,28.526254],[85.165984,28.521269],[85.163221,28.519298],[85.161993,28.514955],[85.156882,28.509486],[85.157345,28.503897],[85.156199,28.500913],[85.156907,28.497878],[85.154587,28.494602],[85.154106,28.492485],[85.152774,28.490505],[85.14439,28.485561],[85.141216,28.486366],[85.133835,28.485553],[85.130607,28.485837],[85.129179,28.486261],[85.128619,28.487477],[85.126465,28.487802],[85.123548,28.487587],[85.12186,28.486141],[85.118383,28.485516],[85.117357,28.484275],[85.116564,28.481234],[85.113185,28.479588],[85.112506,28.471323],[85.106412,28.463785],[85.104186,28.46002],[85.10091,28.458348],[85.099391,28.456826],[85.100138,28.451589],[85.102694,28.447788],[85.10748,28.445042],[85.112814,28.443956],[85.114182,28.443144],[85.112558,28.433288],[85.114063,28.425478],[85.117356,28.415742],[85.117443,28.413237],[85.115712,28.40878],[85.116397,28.406208],[85.118838,28.402123],[85.124761,28.396843],[85.126518,28.392362],[85.126309,28.390949],[85.121874,28.385883],[85.121989,28.383067],[85.12104,28.379617],[85.12213,28.374726],[85.121761,28.372638],[85.120771,28.371284],[85.118109,28.370493],[85.116221,28.369122],[85.115073,28.367105],[85.112897,28.357134],[85.107837,28.346528],[85.103001,28.345489],[85.092881,28.344596],[85.08825,28.346296],[85.08406,28.345567],[85.080431,28.345807],[85.071043,28.340607],[85.067253,28.339209],[85.065938,28.337491],[85.052875,28.326938],[85.050024,28.325907],[85.04654,28.325792],[85.044877,28.321917],[85.042717,28.319629],[85.042017,28.317678],[85.042534,28.315317],[85.041089,28.311791],[85.0346,28.305645],[85.034451,28.304419],[85.033127,28.303784],[85.032601,28.302768],[85.033857,28.299529],[85.036964,28.29542],[85.037875,28.291815],[85.037153,28.289526],[85.034973,28.287309],[85.033911,28.282907],[85.031707,28.279188],[85.031119,28.272826],[85.028698,28.267106],[85.027603,28.26343],[85.027826,28.26233],[85.026824,28.261446],[85.021285,28.260238],[85.010873,28.256054],[85.004816,28.255241],[85.003776,28.254092],[85.00163,28.253178],[85.000536,28.251584],[85.002573,28.248003],[84.999012,28.244397],[84.99855,28.24117],[84.997664,28.240396],[84.993997,28.243892],[84.991487,28.24463],[84.989485,28.242811],[84.984751,28.235797],[84.982442,28.234433],[84.979364,28.22935],[84.976944,28.226647],[84.970307,28.22336],[84.968098,28.221039],[84.967136,28.218925],[84.964615,28.217289],[84.963913,28.215101],[84.961963,28.212672],[84.962144,28.2121],[84.967293,28.204357],[84.967413,28.201873],[84.970512,28.19904],[84.970748,28.194416],[84.973736,28.190205],[84.973235,28.189052],[84.967347,28.184778],[84.963952,28.177856],[84.96555,28.174433],[84.963428,28.172114],[84.961792,28.168883],[84.960474,28.161942],[84.960683,28.159533],[84.957127,28.155473],[84.957048,28.149387],[84.957773,28.147099],[84.955218,28.145154],[84.954082,28.14342],[84.958202,28.136003],[84.958366,28.133708],[84.9568,28.131968],[84.957206,28.130709],[84.956795,28.126685],[84.951713,28.124139],[84.948303,28.124826],[84.944873,28.123984],[84.94266,28.122503],[84.941076,28.124666],[84.939079,28.125677],[84.935321,28.126551],[84.930693,28.125389],[84.928699,28.126244],[84.92525,28.121419],[84.92393,28.120562],[84.921758,28.116557],[84.920059,28.115235],[84.92145,28.106524],[84.918018,28.103346],[84.915836,28.102593],[84.913465,28.102833],[84.909217,28.104542],[84.902831,28.105344],[84.900313,28.106615],[84.896861,28.104467],[84.892332,28.099895],[84.890134,28.102548],[84.885264,28.105436],[84.885283,28.106812],[84.883813,28.109743],[84.880878,28.112692],[84.872683,28.116648],[84.86925,28.120394],[84.862214,28.121492],[84.859985,28.120928],[84.858925,28.119997],[84.854575,28.122584],[84.84948,28.118463],[84.84362,28.116245],[84.842015,28.114502],[84.842341,28.11064],[84.838067,28.106414],[84.837032,28.104067],[84.837729,28.101128],[84.836924,28.09794],[84.83715,28.094882],[84.831692,28.089492],[84.831517,28.084744],[84.829248,28.081426],[84.827758,28.075057],[84.825417,28.070782],[84.824279,28.066636],[84.820808,28.063074],[84.821145,28.058181],[84.82053,28.056299],[84.818368,28.054245],[84.81826,28.047625],[84.812013,28.042881],[84.809383,28.037913],[84.80935,28.034583],[84.812499,28.031447],[84.813452,28.02836],[84.812259,28.025016],[84.812984,28.022731],[84.812707,28.021235],[84.810255,28.018754],[84.809428,28.016787],[84.810305,28.013238],[84.813166,28.009255],[84.811212,28.002868],[84.809724,28.001889],[84.803735,28.000352],[84.801413,28.000435],[84.797298,28.002293],[84.796327,28.001322],[84.797667,27.999295],[84.796789,27.998068],[84.790035,27.997916],[84.787951,27.995216],[84.787863,27.989276],[84.784898,27.986963],[84.783949,27.983223],[84.778459,27.981321],[84.777369,27.979985],[84.776776,27.977529],[84.775246,27.977012],[84.771513,27.977279],[84.771344,27.975912],[84.775042,27.973047],[84.774604,27.971317],[84.772124,27.970063],[84.769033,27.967222],[84.760594,27.967147],[84.75709,27.963383],[84.745764,27.96002],[84.746419,27.955233],[84.745451,27.953025],[84.740957,27.947333],[84.739695,27.943624],[84.73926,27.936513],[84.733779,27.933092],[84.734021,27.931176],[84.736295,27.930721],[84.736316,27.928472],[84.732531,27.927258],[84.731893,27.925761],[84.733297,27.924669],[84.734036,27.917181],[84.734982,27.915367],[84.733106,27.906977],[84.733891,27.904031],[84.736297,27.900352],[84.737509,27.896971],[84.735648,27.892802],[84.737401,27.890661],[84.7418,27.889748],[84.743321,27.888436],[84.749124,27.886036],[84.748348,27.88375],[84.745977,27.881302],[84.745837,27.880172],[84.746838,27.878515],[84.752222,27.875246],[84.753287,27.873494],[84.754998,27.869257],[84.754115,27.865284],[84.755916,27.861698],[84.759227,27.859316],[84.763616,27.860016],[84.764977,27.859235],[84.765629,27.857246],[84.765233,27.85371],[84.767922,27.851653],[84.767443,27.843715],[84.769815,27.842795],[84.770556,27.838829],[84.77408,27.837273],[84.775841,27.835268],[84.772999,27.829398],[84.773601,27.824124],[84.776916,27.818822],[84.781819,27.815701],[84.782274,27.813862],[84.778965,27.812498],[84.775311,27.808748],[84.772967,27.808577],[84.768398,27.811628],[84.769369,27.814817],[84.768873,27.815551],[84.764855,27.818431],[84.762525,27.818162],[84.756835,27.814442],[84.756141,27.808936],[84.753731,27.806393],[84.751389,27.805237],[84.746859,27.805555],[84.744449,27.804259],[84.73867,27.803993],[84.737103,27.801594],[84.736907,27.798991],[84.731751,27.795612],[84.729393,27.796057],[84.728194,27.798974],[84.727159,27.799961],[84.721433,27.801264],[84.718631,27.803674],[84.713709,27.80041],[84.710709,27.800502],[84.707844,27.802489],[84.708103,27.804861],[84.707295,27.806614],[84.692968,27.809382],[84.684942,27.810266],[84.678672,27.814027],[84.677006,27.815677],[84.671016,27.816938],[84.667916,27.818465],[84.667178,27.819473],[84.667336,27.823007],[84.665579,27.825231],[84.660891,27.829118],[84.66098,27.830934],[84.66316,27.83607],[84.663869,27.840518],[84.660272,27.849451],[84.658607,27.85103],[84.655683,27.852156],[84.64953,27.852553],[84.647188,27.853319],[84.646764,27.855059],[84.649817,27.858489],[84.648863,27.859669],[84.645511,27.860621],[84.640592,27.859647],[84.635379,27.860301],[84.633773,27.862395],[84.633734,27.868748],[84.627857,27.871557],[84.626616,27.873539],[84.627482,27.874943],[84.627061,27.877675],[84.624279,27.879792],[84.621642,27.880407],[84.618571,27.880181],[84.614541,27.87668],[84.613633,27.873015],[84.608019,27.871502],[84.604848,27.87212],[84.603295,27.875389],[84.601225,27.876123],[84.595923,27.876227],[84.591044,27.879675],[84.589425,27.879522],[84.584285,27.876013],[84.58042,27.874319],[84.577259,27.871611],[84.576678,27.869473],[84.57726,27.865007],[84.576418,27.863707],[84.573311,27.861362],[84.567311,27.85886],[84.55867,27.857889],[84.558271,27.859048],[84.555142,27.859632],[84.547973,27.862568],[84.54716,27.863201],[84.547665,27.864977],[84.551212,27.867661],[84.552308,27.869809],[84.550146,27.871063],[84.545233,27.86954],[84.544474,27.869791],[84.540623,27.875755],[84.541095,27.878055],[84.544196,27.879572],[84.544981,27.880582],[84.544586,27.881757],[84.541907,27.883568],[84.540443,27.885503],[84.540731,27.893772],[84.540198,27.896893],[84.54107,27.901776],[84.544846,27.903634],[84.545285,27.904828],[84.540356,27.906781],[84.537537,27.909091],[84.53741,27.909813],[84.539766,27.911958],[84.54005,27.91334],[84.5384,27.917392],[84.53637,27.917409],[84.534289,27.913839],[84.532733,27.912911],[84.522949,27.915243],[84.517063,27.912476],[84.516146,27.913204],[84.515029,27.916541],[84.513032,27.917687],[84.511645,27.916837],[84.511095,27.914346],[84.510004,27.913601],[84.50134,27.915551],[84.499948,27.916458],[84.50058,27.91758],[84.505428,27.918419],[84.507936,27.919671],[84.507998,27.921352],[84.506437,27.922966],[84.499775,27.925951],[84.494414,27.926755],[84.488714,27.926374],[84.483639,27.927978],[84.482139,27.929454],[84.481647,27.932281],[84.476448,27.934974],[84.473292,27.935642],[84.473853,27.939575],[84.470987,27.940859],[84.467513,27.941295],[84.463431,27.943676],[84.459949,27.941889],[84.458233,27.942157],[84.456819,27.943574],[84.456292,27.947244],[84.45369,27.949229],[84.449154,27.950203],[84.447414,27.949037],[84.446315,27.94671],[84.444671,27.946294],[84.438913,27.948711],[84.436151,27.948494],[84.427841,27.950945],[84.425118,27.952434],[84.420521,27.958575],[84.422119,27.961082],[84.422373,27.963059],[84.421968,27.964665],[84.418736,27.969564],[84.421276,27.973825],[84.420278,27.976576],[84.421368,27.978598],[84.426106,27.981979],[84.427686,27.98604],[84.432557,27.986835],[84.435702,27.988474],[84.439686,27.988287],[84.440099,27.989473],[84.437927,27.991792],[84.43791,27.993013],[84.438696,27.993419],[84.441408,27.992365],[84.44301,27.99266],[84.450123,27.998621],[84.452418,27.999856],[84.452807,28.000516],[84.45222,28.002151],[84.453058,28.003234],[84.456339,28.003223],[84.457184,28.003829],[84.456414,28.007218],[84.46009,28.013277],[84.459286,28.018616],[84.461081,28.021071],[84.459427,28.023682],[84.464052,28.028208],[84.461508,28.030385],[84.463614,28.034586],[84.461483,28.038561],[84.465133,28.040024],[84.46439,28.044198],[84.468087,28.045436],[84.466076,28.050977],[84.467707,28.051765],[84.471843,28.051402],[84.478126,28.058302],[84.479414,28.058033],[84.482007,28.05556],[84.486983,28.062106],[84.487077,28.062798],[84.485314,28.06442],[84.487993,28.066662],[84.487205,28.069925],[84.487991,28.071488],[84.485196,28.073248],[84.483852,28.076542],[84.484731,28.077609],[84.487683,28.076655],[84.485823,28.080001],[84.481975,28.079638],[84.479789,28.08087],[84.477764,28.087235],[84.478073,28.089041],[84.479589,28.089331],[84.482283,28.088451],[84.483361,28.086936],[84.485173,28.086234],[84.491358,28.085425],[84.494033,28.08669],[84.497735,28.085154],[84.501849,28.086766],[84.51122,28.088118],[84.51308,28.087735],[84.51717,28.090266],[84.51901,28.094244],[84.524979,28.095665],[84.530137,28.099377],[84.535727,28.100379],[84.538764,28.099366],[84.540716,28.099672],[84.545881,28.10431],[84.546661,28.106734],[84.549397,28.10763],[84.550968,28.10944],[84.55085,28.110758],[84.549293,28.111854],[84.549504,28.113771],[84.550361,28.114801],[84.552599,28.114961],[84.553882,28.11623],[84.55435,28.119107],[84.551996,28.120168],[84.555871,28.121222],[84.555472,28.122573],[84.556174,28.12467],[84.558583,28.124872],[84.559126,28.126483],[84.560588,28.127461],[84.563066,28.127997],[84.564708,28.127354],[84.566665,28.128246],[84.56965,28.128141],[84.570794,28.128865],[84.570315,28.130365],[84.574046,28.130482],[84.574692,28.132573],[84.575801,28.132916],[84.574696,28.134597],[84.576682,28.136233],[84.576002,28.138113],[84.580231,28.140243],[84.58271,28.140567],[84.586777,28.14292],[84.58717,28.143652],[84.585345,28.146164],[84.586386,28.14662],[84.588108,28.146168],[84.589118,28.148207],[84.594511,28.148403],[84.596533,28.151356],[84.599576,28.151248],[84.60104,28.151977],[84.602073,28.155125],[84.60559,28.156039],[84.607555,28.158588],[84.609397,28.159704],[84.608516,28.162173],[84.60929,28.164304],[84.610429,28.165238],[84.609722,28.166391],[84.612119,28.167556],[84.612953,28.169822],[84.612987,28.171313],[84.611872,28.172482],[84.615638,28.174888],[84.618393,28.178997],[84.622777,28.180451],[84.623374,28.183895],[84.63309,28.189306],[84.636332,28.198017],[84.639906,28.203239],[84.640175,28.205056],[84.637579,28.208933],[84.637033,28.215577],[84.633601,28.221837],[84.633846,28.223828],[84.632822,28.229929],[84.633573,28.232384],[84.63511,28.233974],[84.636054,28.237656],[84.640032,28.243061],[84.640468,28.245227],[84.646269,28.250125],[84.649713,28.258526],[84.649723,28.260184],[84.651364,28.264388],[84.651472,28.268153],[84.650142,28.273127],[84.650498,28.275758],[84.648576,28.280448],[84.646436,28.281448],[84.647219,28.290088],[84.646315,28.293038],[84.65009,28.297404],[84.650723,28.301452],[84.652394,28.30521],[84.652151,28.307189],[84.654813,28.310996],[84.654842,28.312476],[84.657664,28.313734],[84.658791,28.313327],[84.659722,28.314559],[84.659888,28.316963],[84.658405,28.320515],[84.658478,28.323185],[84.659566,28.323952],[84.663252,28.321797],[84.665657,28.3263],[84.667553,28.327743],[84.666701,28.331425],[84.667182,28.33297],[84.669369,28.335547],[84.66927,28.342184],[84.67251,28.342861],[84.677557,28.342333],[84.680355,28.342786],[84.684613,28.349945],[84.687603,28.352204],[84.68781,28.354125],[84.694715,28.360915],[84.691357,28.36446],[84.687917,28.366564],[84.682821,28.372151],[84.67619,28.376409],[84.674184,28.382553],[84.674443,28.383964],[84.676208,28.38613],[84.6757,28.387132],[84.670758,28.392965],[84.666434,28.400882],[84.661574,28.406077],[84.660232,28.409039],[84.654532,28.414083],[84.649186,28.416608],[84.646902,28.418546],[84.645173,28.423294],[84.643298,28.426145],[84.640536,28.434377],[84.637299,28.439109],[84.634286,28.441805],[84.630727,28.443624],[84.630247,28.444926],[84.624484,28.446259],[84.621406,28.449253],[84.619023,28.449399],[84.612761,28.447512],[84.604343,28.449382],[84.59844,28.451991],[84.596375,28.457554],[84.593149,28.462367],[84.592113,28.466078],[84.588077,28.469098],[84.582941,28.477027],[84.577591,28.478419],[84.570681,28.482031],[84.568017,28.482757],[84.565273,28.4856],[84.564617,28.487369],[84.566912,28.495124],[84.565253,28.498747],[84.564894,28.501138],[84.56646,28.504102],[84.566375,28.506147],[84.570437,28.510003],[84.56938,28.512728],[84.567284,28.515616],[84.566923,28.52354],[84.564077,28.528646],[84.559901,28.53278],[84.559534,28.534591],[84.560312,28.537498],[84.55878,28.539532],[84.559309,28.550101],[84.556667,28.552602],[84.551443,28.552342],[84.547363,28.554567],[84.551041,28.557749],[84.551674,28.559188],[84.547416,28.562273],[84.550655,28.569928],[84.550034,28.57337],[84.548207,28.577572],[84.548975,28.583653],[84.547487,28.585917],[84.54648,28.589481],[84.541308,28.59834],[84.54183,28.604251],[84.54043,28.611654],[84.541152,28.614049],[84.540576,28.623045],[84.54253,28.626117],[84.542623,28.627247],[84.538783,28.629227],[84.536145,28.633045],[84.533767,28.638099],[84.533778,28.641954],[84.532183,28.643925],[84.5313,28.646313],[84.528385,28.647608],[84.520523,28.64917],[84.51865,28.651824],[84.518377,28.653266],[84.520128,28.654234],[84.521332,28.656596],[84.522067,28.663234],[84.512519,28.673562],[84.513905,28.678865],[84.514304,28.685164],[84.520188,28.689676],[84.520619,28.69161],[84.519905,28.694428],[84.519259,28.695143],[84.515236,28.696366],[84.509296,28.696573],[84.500871,28.698773],[84.492197,28.708067],[84.489134,28.713831],[84.483762,28.717707],[84.481742,28.718387],[84.483906,28.719807],[84.484555,28.724053],[84.491764,28.734706],[84.494204,28.735726],[84.497337,28.740643],[84.50216,28.74423],[84.510054,28.74525],[84.514609,28.748544],[84.523759,28.743652],[84.524785,28.742171],[84.52883,28.742929],[84.533585,28.745346],[84.539647,28.744086],[84.545687,28.746347],[84.551407,28.750511],[84.554584,28.750859],[84.556597,28.752138],[84.557134,28.746934],[84.558995,28.745262]]]}}
]
}
