{"type":"FeatureCollection","name":"collapse_origin","description":"UNOSAT FL20260826NPL: detachment zone (Landsat-9 26 Aug 2026), its centroid, and barrier lakes (Cartosat-3 28 Aug 2026). CC BY-SA.","features":[{"type":"Feature","properties":{"kind":"detachment_zone","label":"Glacier / rock detachment zone","source":"UNOSAT, Landsat-9 26 Aug 2026","area_km2":1.96},"geometry":{"type":"MultiPolygon","coordinates":[[[[85.528844,28.285397],[85.527317,28.285345],[85.526025,28.284932],[85.524851,28.284415],[85.524406,28.283891],[85.523368,28.283066],[85.522231,28.282932],[85.521334,28.282986],[85.519391,28.282191],[85.518634,28.283207],[85.516296,28.283399],[85.514283,28.283639],[85.512343,28.284821],[85.510878,28.286431],[85.511974,28.287473],[85.512992,28.288344],[85.51399,28.289378],[85.514812,28.29067],[85.515182,28.292336],[85.515591,28.293709],[85.516749,28.294392],[85.518334,28.29522],[85.520224,28.295762],[85.521651,28.295748],[85.523164,28.295798],[85.524915,28.295466],[85.526681,28.294848],[85.52836,28.294171],[85.529518,28.293422],[85.529777,28.291549],[85.529932,28.289657],[85.529812,28.286577],[85.529241,28.28601],[85.528844,28.285397]]]]}},{"type":"Feature","properties":{"kind":"origin","label":"Collapse origin (approx.)","source":"centroid of the UNOSAT detachment zone"},"geometry":{"type":"Point","coordinates":[85.521319,28.289125]}},{"type":"Feature","properties":{"kind":"barrier_lake","label":"Barrier lake 1","source":"UNOSAT, Cartosat-3 28 Aug 2026","area_km2":0.2},"geometry":{"type":"MultiPolygon","coordinates":[[[[85.510999,28.295527],[85.511011,28.295467],[85.511019,28.295436],[85.51103,28.295408],[85.511044,28.295385],[85.51106,28.295367],[85.511099,28.295335],[85.511115,28.29532],[85.511135,28.295292],[85.511173,28.295226],[85.511192,28.295201],[85.511205,28.295189],[85.51122,28.295178],[85.511294,28.295134],[85.511309,28.295121],[85.511321,28.295108],[85.511331,28.295091],[85.511349,28.295052],[85.51136,28.295037],[85.511369,28.295027],[85.511393,28.295007],[85.511402,28.294998],[85.511407,28.294988],[85.511411,28.294976],[85.511422,28.29492],[85.511427,28.294909],[85.511434,28.294901],[85.511449,28.294893],[85.511491,28.294883],[85.511508,28.294875],[85.511517,28.294867],[85.511544,28.29484],[85.511559,28.29483],[85.511603,28.294809],[85.511621,28.294798],[85.511649,28.294773],[85.511669,28.294751],[85.511685,28.294743],[85.511702,28.294729],[85.511735,28.29469],[85.51175,28.294679],[85.511764,28.294674],[85.511781,28.294672],[85.511802,28.294674],[85.511837,28.29468],[85.511848,28.294698],[85.51186,28.294714],[85.511885,28.294743],[85.511914,28.294765],[85.511929,28.294773],[85.511943,28.294779],[85.51196,28.294783],[85.511979,28.294784],[85.511999,28.294784],[85.512021,28.294782],[85.51204,28.294778],[85.51206,28.294771],[85.512108,28.294746],[85.512129,28.294732],[85.512172,28.294695],[85.512192,28.294682],[85.512206,28.294676],[85.51224,28.294664],[85.512256,28.294656],[85.512275,28.294641],[85.512289,28.294627],[85.512294,28.294616],[85.512301,28.294589],[85.512308,28.294579],[85.512317,28.294573],[85.512341,28.294566],[85.51235,28.294562],[85.512371,28.294546],[85.512389,28.294527],[85.512395,28.294517],[85.5124,28.294504],[85.512411,28.294462],[85.512417,28.294433],[85.51242,28.294399],[85.512421,28.294292],[85.512421,28.29428],[85.512433,28.29427],[85.512443,28.294259],[85.51246,28.294233],[85.512476,28.294192],[85.512487,28.294139],[85.512492,28.294124],[85.5125,28.294107],[85.512512,28.294089],[85.512562,28.294033],[85.512579,28.294011],[85.51261,28.293961],[85.512627,28.293927],[85.512634,28.293901],[85.512637,28.29387],[85.512635,28.293837],[85.512625,28.293746],[85.512624,28.293719],[85.512627,28.293695],[85.512641,28.293634],[85.512648,28.293612],[85.512656,28.293592],[85.512669,28.293568],[85.512685,28.293544],[85.512706,28.293519],[85.51273,28.293492],[85.51275,28.293476],[85.512805,28.29344],[85.512818,28.293428],[85.512827,28.293414],[85.51284,28.293372],[85.512848,28.293359],[85.512859,28.293346],[85.512874,28.293332],[85.512892,28.293318],[85.512917,28.293301],[85.512943,28.293289],[85.512995,28.293276],[85.513026,28.293265],[85.513055,28.293253],[85.513081,28.29324],[85.513106,28.293225],[85.513127,28.29321],[85.513146,28.293194],[85.513162,28.293177],[85.513175,28.29316],[85.513197,28.293123],[85.513204,28.293107],[85.513208,28.293092],[85.513209,28.29308],[85.513207,28.293048],[85.513208,28.293034],[85.513214,28.293012],[85.513224,28.292989],[85.513232,28.292976],[85.513254,28.292947],[85.513263,28.292934],[85.513269,28.292917],[85.513278,28.292872],[85.513282,28.292862],[85.513288,28.292853],[85.513324,28.292846],[85.513332,28.292842],[85.513337,28.292837],[85.513339,28.292828],[85.51334,28.292814],[85.513339,28.292805],[85.513336,28.292796],[85.513314,28.292753],[85.513308,28.292731],[85.513305,28.292706],[85.513304,28.292599],[85.513302,28.292575],[85.513298,28.292553],[85.513288,28.292504],[85.513282,28.292483],[85.513274,28.292464],[85.513263,28.29245],[85.513245,28.292438],[85.513217,28.292424],[85.513202,28.292419],[85.513185,28.292415],[85.513099,28.292411],[85.513079,28.292407],[85.513063,28.292402],[85.51302,28.292385],[85.513,28.292374],[85.512985,28.292361],[85.512981,28.292354],[85.512979,28.292347],[85.512978,28.292334],[85.512979,28.292324],[85.512981,28.292319],[85.512986,28.292315],[85.513012,28.2923],[85.513017,28.292292],[85.513019,28.292282],[85.513017,28.292269],[85.513014,28.292258],[85.513008,28.292247],[85.512999,28.292239],[85.512976,28.292225],[85.512969,28.292218],[85.512965,28.292208],[85.512962,28.292196],[85.512961,28.292184],[85.512963,28.292173],[85.512967,28.292165],[85.512977,28.292158],[85.513022,28.292144],[85.513035,28.292139],[85.513043,28.292132],[85.513046,28.292124],[85.513046,28.29211],[85.513043,28.292099],[85.513036,28.29209],[85.51301,28.292077],[85.513005,28.292069],[85.513002,28.292055],[85.513005,28.292044],[85.51301,28.29204],[85.51302,28.292038],[85.513033,28.29204],[85.513046,28.292044],[85.513066,28.292057],[85.513084,28.292062],[85.513103,28.292063],[85.513121,28.29206],[85.513134,28.292053],[85.513141,28.292046],[85.513146,28.292037],[85.51315,28.292026],[85.513151,28.292014],[85.51315,28.292001],[85.513146,28.291992],[85.513142,28.291987],[85.513134,28.291982],[85.513104,28.291973],[85.513072,28.291965],[85.513037,28.291962],[85.513,28.291965],[85.512966,28.291973],[85.512948,28.291981],[85.51291,28.292004],[85.512892,28.292011],[85.512874,28.292014],[85.512856,28.292015],[85.512838,28.292014],[85.512821,28.292011],[85.512792,28.292002],[85.512779,28.291993],[85.512752,28.291969],[85.512752,28.291949],[85.512749,28.291933],[85.512744,28.29192],[85.512737,28.291908],[85.512724,28.291895],[85.512716,28.291891],[85.512706,28.291888],[85.512667,28.291888],[85.512653,28.291886],[85.512624,28.291877],[85.512607,28.29187],[85.512594,28.291862],[85.512585,28.291853],[85.512583,28.291846],[85.512584,28.291835],[85.512596,28.291795],[85.512599,28.291783],[85.512599,28.291773],[85.512595,28.291766],[85.512588,28.291762],[85.512567,28.291754],[85.512559,28.29175],[85.512553,28.291743],[85.512547,28.291733],[85.512543,28.291718],[85.512536,28.291672],[85.512531,28.291661],[85.512524,28.291653],[85.512515,28.29165],[85.512504,28.291649],[85.512462,28.291655],[85.512447,28.291656],[85.512436,28.291654],[85.512427,28.29165],[85.512414,28.291635],[85.512408,28.291631],[85.5124,28.291629],[85.512385,28.291628],[85.512359,28.291626],[85.512337,28.291628],[85.512324,28.291631],[85.512282,28.291644],[85.512254,28.291647],[85.512223,28.291645],[85.512188,28.29164],[85.512147,28.291631],[85.512105,28.291621],[85.512082,28.291613],[85.512062,28.291604],[85.512047,28.291592],[85.512038,28.29158],[85.512028,28.291561],[85.512038,28.291554],[85.512043,28.291544],[85.512044,28.291529],[85.512039,28.29149],[85.51204,28.291476],[85.512044,28.291467],[85.512049,28.291457],[85.512084,28.291418],[85.512091,28.291408],[85.512095,28.291399],[85.5121,28.291379],[85.512102,28.291356],[85.512101,28.291333],[85.512098,28.291312],[85.512095,28.291301],[85.512089,28.29129],[85.51208,28.29128],[85.512069,28.291269],[85.512053,28.291231],[85.512046,28.291218],[85.512025,28.29119],[85.512018,28.291176],[85.512015,28.291164],[85.512012,28.291134],[85.512008,28.291121],[85.512001,28.291112],[85.511978,28.291093],[85.511972,28.291083],[85.511971,28.291069],[85.511974,28.291053],[85.51198,28.291037],[85.511989,28.291025],[85.511999,28.291017],[85.512027,28.291007],[85.512037,28.291002],[85.512054,28.290988],[85.512069,28.29097],[85.512082,28.290949],[85.512092,28.290928],[85.512099,28.290902],[85.512102,28.290876],[85.5121,28.290852],[85.512095,28.290831],[85.512088,28.290819],[85.512065,28.290792],[85.512056,28.290779],[85.512053,28.290768],[85.512052,28.290754],[85.512059,28.290707],[85.512059,28.290693],[85.512058,28.29068],[85.512053,28.29067],[85.512042,28.290657],[85.512025,28.290643],[85.512031,28.290614],[85.512035,28.290604],[85.512049,28.290589],[85.512082,28.290568],[85.512093,28.290559],[85.512126,28.290517],[85.512139,28.290505],[85.512164,28.290488],[85.512211,28.290466],[85.512241,28.290453],[85.512312,28.290428],[85.512343,28.290415],[85.512367,28.290412],[85.51239,28.290408],[85.512417,28.2904],[85.512442,28.29039],[85.512464,28.290378],[85.512483,28.290365],[85.512507,28.290344],[85.512518,28.290328],[85.512522,28.29031],[85.512522,28.290276],[85.512522,28.29024],[85.512518,28.290201],[85.512512,28.29016],[85.512502,28.290115],[85.512491,28.290078],[85.512483,28.290057],[85.51247,28.290036],[85.51243,28.289981],[85.512405,28.289947],[85.512397,28.289939],[85.512388,28.289933],[85.512366,28.289925],[85.512344,28.289923],[85.512314,28.289925],[85.512292,28.289929],[85.512277,28.289933],[85.512259,28.289944],[85.512244,28.289958],[85.512237,28.289972],[85.512229,28.290009],[85.512223,28.290024],[85.51219,28.290057],[85.512182,28.290076],[85.512174,28.290116],[85.512169,28.290131],[85.512152,28.290165],[85.512147,28.290177],[85.512143,28.290193],[85.512142,28.290211],[85.512147,28.290262],[85.512148,28.290271],[85.512141,28.29028],[85.512132,28.290289],[85.512099,28.290315],[85.512078,28.290347],[85.512068,28.290356],[85.51206,28.290361],[85.512039,28.290369],[85.512031,28.290375],[85.512027,28.290385],[85.512024,28.290411],[85.512021,28.29042],[85.512011,28.290438],[85.512,28.290451],[85.511987,28.290461],[85.511955,28.290472],[85.511942,28.290478],[85.511912,28.290501],[85.511903,28.29051],[85.511897,28.29052],[85.511893,28.290532],[85.511891,28.290546],[85.511891,28.290561],[85.511893,28.290575],[85.511898,28.29059],[85.511905,28.290604],[85.511907,28.290607],[85.511903,28.290632],[85.511898,28.290644],[85.511893,28.29065],[85.511885,28.290655],[85.511877,28.290657],[85.511866,28.290658],[85.511842,28.290656],[85.511785,28.290644],[85.511761,28.290641],[85.511739,28.290641],[85.511721,28.290647],[85.511707,28.290658],[85.511678,28.290692],[85.511669,28.290698],[85.51166,28.290702],[85.511637,28.290705],[85.51163,28.290709],[85.511623,28.290715],[85.511602,28.290744],[85.511592,28.290754],[85.511574,28.290764],[85.511554,28.290773],[85.511533,28.290779],[85.511511,28.290783],[85.511476,28.290783],[85.511443,28.290779],[85.511421,28.290773],[85.511405,28.290765],[85.511395,28.290754],[85.511389,28.290738],[85.51139,28.290729],[85.5114,28.290707],[85.511402,28.290699],[85.511399,28.290694],[85.511392,28.29069],[85.511354,28.290682],[85.51134,28.290676],[85.511333,28.290668],[85.511317,28.290643],[85.511308,28.290634],[85.511299,28.290629],[85.511288,28.290625],[85.511275,28.290623],[85.51126,28.290624],[85.511227,28.29063],[85.511186,28.290643],[85.511176,28.290631],[85.511168,28.29061],[85.511159,28.290563],[85.511153,28.290544],[85.511141,28.290518],[85.511127,28.290496],[85.511113,28.290478],[85.511099,28.290463],[85.511086,28.290453],[85.511076,28.290447],[85.511067,28.290445],[85.511044,28.290443],[85.511034,28.290441],[85.511025,28.290435],[85.511015,28.290427],[85.510989,28.290392],[85.510952,28.290347],[85.510943,28.29033],[85.510937,28.290315],[85.510936,28.290301],[85.510939,28.290268],[85.510937,28.290254],[85.510933,28.290246],[85.510927,28.290239],[85.510894,28.290214],[85.510882,28.290202],[85.510875,28.290188],[85.510864,28.290154],[85.510857,28.290141],[85.510847,28.29013],[85.510835,28.29012],[85.510802,28.290099],[85.510779,28.290091],[85.510725,28.290081],[85.510705,28.290073],[85.510694,28.290066],[85.510683,28.290056],[85.510643,28.290003],[85.510632,28.289991],[85.510621,28.289983],[85.510587,28.289963],[85.510557,28.289951],[85.510542,28.289949],[85.510503,28.289951],[85.510493,28.289949],[85.510486,28.289944],[85.510475,28.289926],[85.51047,28.289922],[85.510459,28.28992],[85.510444,28.289922],[85.510437,28.289924],[85.510432,28.28991],[85.510424,28.28987],[85.51042,28.28986],[85.510415,28.289854],[85.510406,28.28985],[85.510394,28.289849],[85.510334,28.289856],[85.510324,28.289855],[85.510318,28.289851],[85.510315,28.289844],[85.510313,28.289836],[85.510315,28.289789],[85.510312,28.289773],[85.510304,28.289763],[85.510292,28.289756],[85.510277,28.289751],[85.510257,28.289749],[85.510235,28.28975],[85.510208,28.289753],[85.510131,28.289767],[85.510097,28.289774],[85.510073,28.289783],[85.510054,28.289794],[85.510028,28.289812],[85.510004,28.289831],[85.509979,28.289854],[85.509954,28.28988],[85.509928,28.289912],[85.509906,28.28994],[85.509886,28.28997],[85.509864,28.290005],[85.50985,28.290031],[85.509841,28.290058],[85.509821,28.290128],[85.509783,28.290234],[85.509766,28.290273],[85.509749,28.290308],[85.509731,28.29034],[85.509712,28.290369],[85.509691,28.290395],[85.50967,28.290418],[85.509638,28.290447],[85.509615,28.290473],[85.509593,28.290504],[85.509574,28.290538],[85.509526,28.290632],[85.509509,28.29066],[85.509492,28.290683],[85.509442,28.290734],[85.509432,28.290747],[85.509425,28.29076],[85.509415,28.290782],[85.509409,28.290792],[85.5094,28.290801],[85.509389,28.290809],[85.509338,28.290836],[85.509318,28.29085],[85.509292,28.29088],[85.509269,28.290913],[85.509252,28.290948],[85.509241,28.290983],[85.509233,28.291021],[85.509233,28.291035],[85.509234,28.291047],[85.509241,28.291066],[85.509247,28.291075],[85.509257,28.291083],[85.509268,28.291087],[85.509297,28.291089],[85.509309,28.291092],[85.509323,28.291102],[85.509334,28.291115],[85.509344,28.291132],[85.509351,28.291154],[85.509352,28.291174],[85.509351,28.291192],[85.509348,28.2912],[85.509343,28.291208],[85.509315,28.291238],[85.509309,28.29125],[85.50931,28.291265],[85.509322,28.291301],[85.509323,28.291309],[85.509321,28.291315],[85.509313,28.291323],[85.509284,28.291336],[85.509273,28.291344],[85.509257,28.291366],[85.509247,28.291371],[85.509223,28.291373],[85.509215,28.291376],[85.50921,28.29138],[85.509207,28.291385],[85.509205,28.291399],[85.509208,28.291418],[85.509221,28.291464],[85.509225,28.291484],[85.509224,28.291502],[85.509222,28.291509],[85.509218,28.291515],[85.509207,28.291524],[85.509178,28.291539],[85.509167,28.291547],[85.509147,28.291566],[85.509134,28.29158],[85.509125,28.291595],[85.509122,28.291608],[85.509122,28.291628],[85.509126,28.291637],[85.509142,28.291653],[85.509147,28.29166],[85.50915,28.291667],[85.50915,28.291677],[85.509144,28.291717],[85.509147,28.291731],[85.509149,28.291733],[85.509138,28.291748],[85.509131,28.291763],[85.509129,28.291776],[85.509127,28.291806],[85.509125,28.291818],[85.509115,28.291833],[85.509081,28.291866],[85.509074,28.291874],[85.50907,28.291882],[85.509067,28.291897],[85.509065,28.291932],[85.50906,28.291947],[85.509047,28.291963],[85.509041,28.291979],[85.509039,28.291999],[85.509042,28.292019],[85.509052,28.292068],[85.509054,28.292092],[85.50905,28.29213],[85.509044,28.292169],[85.509034,28.29221],[85.509022,28.292253],[85.509015,28.292273],[85.509007,28.292282],[85.509005,28.292282],[85.508986,28.292286],[85.508979,28.292289],[85.508973,28.292294],[85.508968,28.292301],[85.508965,28.29231],[85.508963,28.292333],[85.508966,28.292365],[85.508964,28.292369],[85.508957,28.292375],[85.50894,28.292386],[85.508934,28.292392],[85.50893,28.292402],[85.50893,28.292415],[85.508938,28.29246],[85.508945,28.292492],[85.508957,28.292527],[85.508989,28.292592],[85.508999,28.292624],[85.50901,28.292696],[85.509018,28.292727],[85.509027,28.292747],[85.509052,28.292796],[85.509057,28.292811],[85.50906,28.292824],[85.509061,28.29284],[85.509058,28.292876],[85.50906,28.292892],[85.509064,28.292901],[85.509069,28.29291],[85.509104,28.29295],[85.509111,28.29296],[85.509115,28.292969],[85.509117,28.292983],[85.509116,28.293002],[85.509092,28.293048],[85.50908,28.293066],[85.509067,28.29308],[85.50905,28.293093],[85.508973,28.293141],[85.508959,28.293153],[85.508947,28.293166],[85.508924,28.293199],[85.508912,28.293224],[85.508908,28.293242],[85.508906,28.29326],[85.508906,28.293278],[85.508909,28.293295],[85.508914,28.293308],[85.508923,28.293322],[85.508963,28.293363],[85.508976,28.293379],[85.509005,28.29342],[85.509011,28.293434],[85.509015,28.293447],[85.509017,28.29347],[85.509015,28.293489],[85.509011,28.293499],[85.509002,28.293514],[85.508989,28.293535],[85.508976,28.29355],[85.508962,28.293559],[85.508926,28.293574],[85.508912,28.293582],[85.5089,28.293593],[85.508888,28.293606],[85.508869,28.293636],[85.508854,28.293671],[85.50885,28.293688],[85.508847,28.293705],[85.508844,28.293743],[85.508846,28.293753],[85.508851,28.293759],[85.508873,28.293766],[85.50888,28.293771],[85.508887,28.293778],[85.508905,28.293814],[85.508915,28.293827],[85.508921,28.293832],[85.508887,28.293886],[85.508874,28.2939],[85.50886,28.293911],[85.508849,28.293917],[85.508821,28.293927],[85.508809,28.293934],[85.5088,28.293943],[85.508791,28.293956],[85.508773,28.293998],[85.508764,28.29403],[85.508759,28.294067],[85.508758,28.294109],[85.50876,28.294169],[85.508763,28.294191],[85.508776,28.294248],[85.508777,28.294264],[85.508776,28.294279],[85.508772,28.294296],[85.508763,28.294316],[85.508724,28.294376],[85.508712,28.294398],[85.508693,28.294449],[85.508657,28.294586],[85.508646,28.294618],[85.508635,28.294646],[85.508623,28.294667],[85.508593,28.294709],[85.508582,28.294727],[85.508573,28.294747],[85.50857,28.294766],[85.50857,28.294789],[85.508573,28.294806],[85.508571,28.29482],[85.508571,28.294837],[85.508581,28.294911],[85.50858,28.294927],[85.508577,28.29494],[85.508571,28.294951],[85.508564,28.294962],[85.508521,28.29501],[85.508506,28.295033],[85.508497,28.295055],[85.508489,28.295078],[85.508487,28.295091],[85.508486,28.295107],[85.50849,28.295174],[85.508488,28.29519],[85.508483,28.295204],[85.508481,28.295208],[85.508473,28.295214],[85.508436,28.295232],[85.508415,28.295251],[85.508398,28.295273],[85.50838,28.29531],[85.508364,28.295348],[85.508341,28.295384],[85.508327,28.29541],[85.50832,28.295429],[85.508316,28.295458],[85.508316,28.295494],[85.508318,28.295519],[85.508323,28.295532],[85.508333,28.295542],[85.508355,28.295554],[85.508381,28.295566],[85.508405,28.295572],[85.508426,28.295574],[85.50845,28.295573],[85.508479,28.295569],[85.508498,28.295561],[85.508524,28.295544],[85.508547,28.295525],[85.508574,28.295495],[85.508615,28.295453],[85.508633,28.295438],[85.50865,28.295426],[85.508675,28.295414],[85.508683,28.295417],[85.508707,28.295424],[85.508738,28.29543],[85.508785,28.295437],[85.508815,28.295438],[85.508841,28.295433],[85.508851,28.295429],[85.50886,28.295424],[85.508875,28.295412],[85.508883,28.295401],[85.508889,28.295378],[85.508897,28.295369],[85.508917,28.295354],[85.508925,28.295346],[85.508932,28.29533],[85.508941,28.295289],[85.508947,28.295275],[85.508959,28.295262],[85.508973,28.295249],[85.508987,28.295241],[85.509005,28.295234],[85.509025,28.295229],[85.509054,28.295224],[85.50907,28.295223],[85.509098,28.295223],[85.509119,28.295219],[85.509142,28.29521],[85.509149,28.295203],[85.509164,28.295179],[85.509169,28.295175],[85.509187,28.295172],[85.509236,28.295168],[85.509248,28.295165],[85.509257,28.295161],[85.509272,28.295159],[85.509281,28.295156],[85.50929,28.295147],[85.509298,28.295133],[85.509299,28.295126],[85.509298,28.295107],[85.509299,28.295099],[85.509304,28.295087],[85.50931,28.295081],[85.509318,28.295078],[85.509321,28.295076],[85.509337,28.29507],[85.509345,28.295064],[85.50935,28.295057],[85.509354,28.295049],[85.509358,28.295026],[85.509367,28.295024],[85.509388,28.295017],[85.509411,28.295012],[85.509433,28.29501],[85.509454,28.295009],[85.509473,28.29501],[85.50949,28.295014],[85.509505,28.295019],[85.509518,28.295027],[85.50954,28.295046],[85.509557,28.295069],[85.509566,28.295085],[85.50957,28.295098],[85.509572,28.295114],[85.50957,28.295127],[85.509563,28.295136],[85.509542,28.29515],[85.509534,28.295156],[85.509518,28.295184],[85.509512,28.295191],[85.509504,28.295197],[85.509492,28.295201],[85.50944,28.295208],[85.509431,28.295212],[85.509425,28.295217],[85.509417,28.295227],[85.509411,28.295241],[85.509406,28.295256],[85.509402,28.295272],[85.509399,28.295293],[85.509398,28.295303],[85.509399,28.295314],[85.509402,28.295326],[85.509407,28.295336],[85.50941,28.29534],[85.509419,28.295345],[85.509427,28.295349],[85.509436,28.295351],[85.509461,28.295351],[85.509473,28.295356],[85.509491,28.295361],[85.509511,28.295363],[85.509588,28.29536],[85.509618,28.295362],[85.509652,28.295371],[85.509726,28.295397],[85.509757,28.295404],[85.509804,28.295416],[85.509816,28.295415],[85.509825,28.295411],[85.509838,28.295388],[85.509848,28.29538],[85.509864,28.295378],[85.509881,28.295379],[85.509924,28.295388],[85.509944,28.295388],[85.509974,28.295382],[85.51004,28.295361],[85.51007,28.295356],[85.510105,28.295357],[85.510118,28.295356],[85.510128,28.295352],[85.510149,28.295339],[85.51016,28.295336],[85.510168,28.295339],[85.510177,28.295345],[85.510195,28.295366],[85.5102,28.295374],[85.510207,28.295396],[85.510212,28.295404],[85.510217,28.295408],[85.510224,28.29541],[85.510243,28.295411],[85.510242,28.295432],[85.510239,28.29545],[85.510234,28.295465],[85.510228,28.295478],[85.51022,28.295492],[85.510215,28.295498],[85.510207,28.295501],[85.510192,28.295504],[85.51018,28.295505],[85.510147,28.2955],[85.510139,28.295501],[85.510134,28.295504],[85.510131,28.295509],[85.510129,28.295517],[85.510128,28.295546],[85.510128,28.295575],[85.510134,28.295597],[85.510147,28.295627],[85.510163,28.295655],[85.510179,28.295675],[85.510197,28.29569],[85.510218,28.295704],[85.510242,28.295714],[85.51027,28.29572],[85.5103,28.295723],[85.510366,28.295723],[85.510392,28.295723],[85.510459,28.295717],[85.510479,28.295718],[85.510495,28.29572],[85.510509,28.295725],[85.510523,28.295732],[85.510583,28.295772],[85.510598,28.295778],[85.510612,28.295782],[85.510643,28.295785],[85.510654,28.295784],[85.510663,28.295782],[85.510675,28.295773],[85.510695,28.295746],[85.510705,28.295736],[85.510728,28.295727],[85.510755,28.295724],[85.510785,28.295726],[85.510811,28.295733],[85.510825,28.295741],[85.510852,28.295769],[85.510866,28.295778],[85.510893,28.295789],[85.510918,28.295794],[85.510943,28.295795],[85.51096,28.295791],[85.510969,28.295785],[85.510982,28.295772],[85.510992,28.29576],[85.511,28.295745],[85.511005,28.295729],[85.511007,28.29571],[85.511006,28.295672],[85.510995,28.295575],[85.510995,28.295549],[85.510999,28.295527]]]]}},{"type":"Feature","properties":{"kind":"barrier_lake","label":"Barrier lake 2","source":"UNOSAT, Cartosat-3 28 Aug 2026","area_km2":0.12},"geometry":{"type":"MultiPolygon","coordinates":[[[[85.483317,28.334103],[85.483331,28.334111],[85.483354,28.334123],[85.483376,28.334131],[85.483391,28.334134],[85.483408,28.334136],[85.483443,28.334134],[85.483482,28.334126],[85.483521,28.334111],[85.483542,28.334101],[85.483556,28.334092],[85.483565,28.334083],[85.483581,28.334056],[85.483586,28.33405],[85.483592,28.334047],[85.483609,28.334044],[85.483634,28.334047],[85.483644,28.33405],[85.483654,28.334055],[85.483693,28.334086],[85.483711,28.334095],[85.483742,28.334104],[85.483766,28.334105],[85.483795,28.334099],[85.483816,28.334089],[85.483859,28.334058],[85.483879,28.334047],[85.483892,28.334043],[85.483908,28.334042],[85.48396,28.334044],[85.483978,28.334043],[85.483994,28.33404],[85.484008,28.334034],[85.484026,28.334022],[85.484037,28.334011],[85.484041,28.334004],[85.484046,28.333984],[85.48405,28.333976],[85.484055,28.333971],[85.484063,28.333967],[85.484109,28.333959],[85.484118,28.333955],[85.484124,28.33395],[85.48413,28.333937],[85.484136,28.333903],[85.48414,28.333889],[85.484156,28.333867],[85.484182,28.333841],[85.484195,28.33383],[85.48421,28.333821],[85.484271,28.33379],[85.484295,28.333776],[85.484349,28.333729],[85.484369,28.333715],[85.484397,28.3337],[85.48443,28.333688],[85.484468,28.333678],[85.484527,28.333666],[85.484566,28.333662],[85.48466,28.333659],[85.484683,28.333655],[85.484705,28.33365],[85.484756,28.333631],[85.484782,28.333618],[85.484808,28.333602],[85.484908,28.333527],[85.484931,28.333511],[85.484953,28.333499],[85.485007,28.333474],[85.485027,28.333463],[85.485043,28.333451],[85.485077,28.333422],[85.485092,28.333412],[85.485108,28.333403],[85.485153,28.333386],[85.485172,28.333376],[85.485193,28.333361],[85.485235,28.33332],[85.485256,28.333305],[85.485301,28.333286],[85.485315,28.333276],[85.485329,28.333264],[85.485359,28.333231],[85.485376,28.333208],[85.485391,28.333182],[85.485405,28.333152],[85.485417,28.333118],[85.485424,28.33309],[85.485433,28.333026],[85.485439,28.333001],[85.485485,28.33301],[85.485506,28.333013],[85.485526,28.333011],[85.485543,28.333005],[85.485555,28.332998],[85.485562,28.332992],[85.485569,28.33298],[85.485575,28.332957],[85.485579,28.332934],[85.485607,28.332907],[85.485643,28.332863],[85.485672,28.332818],[85.485685,28.332802],[85.485698,28.332791],[85.485715,28.332781],[85.485787,28.332753],[85.485814,28.332738],[85.485848,28.332714],[85.485866,28.332696],[85.485879,28.332677],[85.485886,28.332662],[85.485941,28.332636],[85.485961,28.332624],[85.485978,28.332612],[85.486004,28.332589],[85.486027,28.332563],[85.486041,28.332544],[85.486054,28.332523],[85.486064,28.332503],[85.486072,28.332483],[85.48608,28.332451],[85.486085,28.332409],[85.486083,28.332351],[85.486085,28.332331],[85.48609,28.332309],[85.486098,28.332283],[85.486114,28.332244],[85.486127,28.332224],[85.486166,28.332181],[85.486173,28.332169],[85.486178,28.332157],[85.486186,28.332131],[85.48619,28.332112],[85.486189,28.332096],[85.486185,28.332083],[85.486178,28.332073],[85.486169,28.332064],[85.486154,28.332055],[85.48612,28.332046],[85.486107,28.332041],[85.486098,28.332034],[85.486089,28.332025],[85.486052,28.331978],[85.486041,28.331969],[85.48603,28.331964],[85.486014,28.33196],[85.485999,28.331958],[85.485984,28.331958],[85.485972,28.33196],[85.485958,28.331967],[85.485947,28.331956],[85.485931,28.331945],[85.485914,28.331931],[85.485888,28.331919],[85.48585,28.331907],[85.485843,28.331893],[85.485833,28.331867],[85.485824,28.331857],[85.485804,28.331844],[85.48578,28.331831],[85.485746,28.331818],[85.485726,28.331813],[85.485703,28.331809],[85.485619,28.331804],[85.485585,28.331799],[85.48555,28.331792],[85.48553,28.331786],[85.485496,28.331772],[85.485486,28.331765],[85.485479,28.331757],[85.485473,28.331745],[85.48547,28.33173],[85.48547,28.33171],[85.485472,28.331683],[85.485475,28.331667],[85.48548,28.33165],[85.485498,28.331609],[85.485505,28.331598],[85.485515,28.331587],[85.485557,28.33155],[85.485571,28.331535],[85.48558,28.331519],[85.485582,28.331511],[85.485582,28.331502],[85.485579,28.331488],[85.485575,28.33148],[85.485569,28.331476],[85.48556,28.331475],[85.48552,28.331483],[85.485503,28.331487],[85.485487,28.331494],[85.485471,28.331504],[85.485455,28.331517],[85.485439,28.331534],[85.485423,28.331554],[85.485361,28.331644],[85.485332,28.33168],[85.485315,28.331697],[85.485298,28.331709],[85.485281,28.331719],[85.485262,28.331725],[85.485248,28.331727],[85.485208,28.331729],[85.485197,28.331731],[85.485188,28.331735],[85.485168,28.331749],[85.485153,28.331767],[85.48514,28.331796],[85.485132,28.331825],[85.485129,28.331858],[85.485131,28.331893],[85.485141,28.331994],[85.485141,28.332024],[85.485137,28.332051],[85.485128,28.332084],[85.485118,28.332116],[85.485107,28.332146],[85.485095,28.332173],[85.485082,28.332195],[85.485063,28.332217],[85.485042,28.332237],[85.484989,28.332282],[85.484965,28.332307],[85.484947,28.332334],[85.484941,28.332347],[85.484937,28.33236],[85.484931,28.332392],[85.484899,28.332395],[85.484869,28.332402],[85.484853,28.332408],[85.484837,28.332416],[85.484773,28.332458],[85.484743,28.332473],[85.484709,28.332485],[85.484678,28.332494],[85.484648,28.332499],[85.484621,28.332502],[85.484588,28.332502],[85.484571,28.332495],[85.48454,28.332474],[85.484527,28.332467],[85.484506,28.332459],[85.484483,28.332453],[85.48446,28.332448],[85.484437,28.332445],[85.484415,28.332445],[85.484394,28.332446],[85.484374,28.332449],[85.484356,28.332454],[85.484353,28.332418],[85.484347,28.332396],[85.484334,28.332373],[85.484325,28.332366],[85.484313,28.332361],[85.484262,28.332353],[85.484243,28.332347],[85.484231,28.332339],[85.484202,28.332313],[85.484193,28.332308],[85.484185,28.332305],[85.484175,28.332304],[85.484162,28.332305],[85.484121,28.332315],[85.484099,28.332322],[85.484076,28.332332],[85.484052,28.332346],[85.484024,28.332364],[85.484011,28.33236],[85.483995,28.332358],[85.483959,28.332357],[85.483943,28.332354],[85.483923,28.332346],[85.483911,28.332338],[85.483905,28.332329],[85.483898,28.332312],[85.483895,28.332301],[85.483894,28.332289],[85.483896,28.332232],[85.483894,28.332219],[85.483889,28.332209],[85.483878,28.332197],[85.483863,28.332183],[85.483845,28.332172],[85.483802,28.332155],[85.483785,28.332144],[85.483776,28.332135],[85.483772,28.332124],[85.483772,28.332099],[85.483769,28.332089],[85.483761,28.332079],[85.483736,28.33206],[85.483727,28.332051],[85.483723,28.33204],[85.483721,28.332027],[85.483725,28.33198],[85.483725,28.331967],[85.483723,28.331956],[85.483718,28.331947],[85.483712,28.331943],[85.483703,28.331939],[85.48366,28.331927],[85.483652,28.331923],[85.483647,28.331918],[85.483643,28.331912],[85.48364,28.331903],[85.483634,28.331861],[85.483627,28.331847],[85.483614,28.331836],[85.483596,28.331826],[85.483577,28.33182],[85.48356,28.331818],[85.483542,28.331821],[85.483524,28.331828],[85.483511,28.331839],[85.483492,28.331866],[85.483482,28.331877],[85.483463,28.331891],[85.483444,28.331902],[85.483425,28.331908],[85.483403,28.33191],[85.483381,28.331909],[85.483323,28.331902],[85.483292,28.331902],[85.483233,28.331911],[85.483193,28.331921],[85.483158,28.331934],[85.483131,28.331951],[85.483103,28.331976],[85.483076,28.332009],[85.483057,28.332045],[85.483047,28.332057],[85.48304,28.332061],[85.483031,28.332062],[85.482989,28.332061],[85.482973,28.332064],[85.482943,28.332082],[85.482934,28.332086],[85.482915,28.332089],[85.482879,28.332089],[85.482831,28.332091],[85.482817,28.332089],[85.482805,28.332086],[85.482766,28.332064],[85.482753,28.33206],[85.482738,28.332059],[85.482689,28.332064],[85.482646,28.332069],[85.482611,28.332076],[85.482583,28.332087],[85.48255,28.332102],[85.482523,28.332117],[85.482518,28.332112],[85.4825,28.332098],[85.482455,28.332078],[85.482437,28.332067],[85.482423,28.332054],[85.482389,28.332015],[85.482353,28.331984],[85.482311,28.331954],[85.482262,28.331924],[85.482199,28.331889],[85.482174,28.331875],[85.48216,28.33187],[85.482143,28.331868],[85.482124,28.33187],[85.482099,28.331875],[85.482092,28.331878],[85.482089,28.331883],[85.482089,28.331899],[85.482087,28.331906],[85.482082,28.331913],[85.482066,28.331928],[85.482056,28.331933],[85.482026,28.331937],[85.482015,28.331941],[85.482009,28.331946],[85.482004,28.331954],[85.481988,28.331989],[85.481979,28.332002],[85.481964,28.332015],[85.481931,28.332031],[85.481926,28.332023],[85.481924,28.332012],[85.481925,28.331959],[85.481924,28.331947],[85.481921,28.331938],[85.481913,28.331922],[85.481902,28.331906],[85.481887,28.33189],[85.48187,28.331873],[85.481847,28.331855],[85.481828,28.331844],[85.481805,28.331836],[85.481785,28.331831],[85.481769,28.331831],[85.481757,28.331835],[85.481749,28.331844],[85.481736,28.331877],[85.481728,28.331889],[85.481714,28.331896],[85.48168,28.331903],[85.481667,28.331909],[85.481659,28.331915],[85.481642,28.331932],[85.481631,28.331938],[85.481617,28.33194],[85.481605,28.331938],[85.481599,28.331934],[85.481594,28.331928],[85.481583,28.331909],[85.481581,28.331902],[85.481581,28.331894],[85.481587,28.331858],[85.481586,28.33185],[85.481583,28.331844],[85.48157,28.331835],[85.48156,28.331833],[85.481541,28.331835],[85.481523,28.331837],[85.481504,28.331842],[85.481444,28.331864],[85.481369,28.331892],[85.481315,28.331918],[85.481283,28.331938],[85.48126,28.331954],[85.481249,28.331965],[85.481223,28.331994],[85.481209,28.332006],[85.48119,28.332013],[85.481148,28.33202],[85.481131,28.332025],[85.481115,28.332034],[85.481098,28.332047],[85.48105,28.332096],[85.481034,28.33211],[85.48102,28.332121],[85.481005,28.332128],[85.480986,28.332133],[85.480933,28.332137],[85.480921,28.332141],[85.480912,28.332147],[85.480908,28.332153],[85.480905,28.332161],[85.480899,28.332206],[85.480896,28.332215],[85.480893,28.332222],[85.480885,28.332228],[85.480876,28.332232],[85.480864,28.332235],[85.48085,28.332235],[85.480815,28.332232],[85.480767,28.332222],[85.480743,28.332215],[85.480728,28.332209],[85.48071,28.332191],[85.480702,28.332186],[85.480691,28.332185],[85.480673,28.332186],[85.480631,28.332199],[85.48061,28.3322],[85.480563,28.332197],[85.480544,28.332199],[85.480525,28.332206],[85.480487,28.33223],[85.48047,28.332238],[85.480455,28.332241],[85.480414,28.332246],[85.480404,28.332249],[85.480396,28.332254],[85.480387,28.332265],[85.480381,28.332281],[85.480357,28.33228],[85.480338,28.332276],[85.480321,28.332269],[85.480303,28.332258],[85.48024,28.332205],[85.480212,28.332186],[85.480168,28.332167],[85.480112,28.332147],[85.48006,28.332132],[85.480022,28.332125],[85.479968,28.332121],[85.479945,28.332122],[85.479925,28.332125],[85.479907,28.33213],[85.479887,28.332137],[85.479835,28.332164],[85.479829,28.332167],[85.479814,28.332166],[85.479797,28.332168],[85.479737,28.332182],[85.479716,28.332186],[85.479696,28.332186],[85.47968,28.332183],[85.479664,28.332175],[85.47963,28.332154],[85.479615,28.332147],[85.479592,28.332142],[85.479566,28.332139],[85.479536,28.33214],[85.479486,28.332144],[85.479386,28.33216],[85.479345,28.332162],[85.47925,28.332157],[85.479227,28.332158],[85.479206,28.33216],[85.479188,28.332164],[85.479174,28.332162],[85.479148,28.33216],[85.479124,28.332162],[85.479089,28.332169],[85.479048,28.332184],[85.479025,28.332196],[85.479001,28.33221],[85.478977,28.332228],[85.478953,28.332248],[85.478935,28.332267],[85.4789,28.332281],[85.478824,28.332319],[85.478793,28.332331],[85.478765,28.332338],[85.478718,28.332345],[85.478715,28.332343],[85.478699,28.332339],[85.478676,28.332338],[85.478629,28.332347],[85.478608,28.332347],[85.478577,28.332343],[85.478564,28.332337],[85.478539,28.332319],[85.478528,28.332314],[85.478512,28.332311],[85.478498,28.33231],[85.478485,28.332311],[85.478474,28.332314],[85.478471,28.332315],[85.47847,28.332315],[85.478433,28.332307],[85.478396,28.332302],[85.47836,28.3323],[85.478325,28.332302],[85.478278,28.332311],[85.478229,28.332328],[85.478181,28.332353],[85.478164,28.33236],[85.478147,28.332365],[85.478096,28.332373],[85.478069,28.332382],[85.478,28.332412],[85.477967,28.332422],[85.477889,28.332441],[85.477851,28.332454],[85.477801,28.332476],[85.477784,28.332486],[85.477771,28.332496],[85.477743,28.332522],[85.477733,28.332535],[85.477726,28.332547],[85.477721,28.332558],[85.477719,28.33257],[85.477716,28.33262],[85.477713,28.332641],[85.477697,28.332681],[85.477677,28.332715],[85.47766,28.332737],[85.477643,28.332756],[85.477609,28.332765],[85.47758,28.332776],[85.477548,28.332796],[85.477521,28.332796],[85.477503,28.332799],[85.477476,28.332809],[85.477442,28.332809],[85.477415,28.332808],[85.477392,28.332805],[85.477371,28.332799],[85.477339,28.332786],[85.477319,28.332773],[85.477311,28.332763],[85.477293,28.332731],[85.477267,28.332702],[85.477234,28.332676],[85.477197,28.332655],[85.477158,28.332641],[85.477113,28.332632],[85.477094,28.33263],[85.477077,28.332631],[85.477058,28.332636],[85.477038,28.332647],[85.47702,28.332661],[85.476976,28.332699],[85.476951,28.332715],[85.476924,28.332727],[85.476849,28.332751],[85.476829,28.332761],[85.476813,28.332773],[85.476798,28.332788],[85.476784,28.332805],[85.476774,28.332823],[85.476756,28.332868],[85.476745,28.332886],[85.476735,28.332894],[85.476709,28.332911],[85.4767,28.332921],[85.476693,28.332937],[85.476688,28.332956],[85.476687,28.332977],[85.47669,28.332995],[85.476682,28.333011],[85.476677,28.333025],[85.476672,28.333053],[85.476672,28.333062],[85.476674,28.33307],[85.476678,28.333075],[85.476685,28.33308],[85.47671,28.333092],[85.476735,28.333101],[85.476781,28.333108],[85.476858,28.333118],[85.476921,28.333124],[85.476957,28.333125],[85.47699,28.333123],[85.477019,28.333118],[85.477032,28.333115],[85.477052,28.333115],[85.477069,28.333113],[85.477084,28.333109],[85.477097,28.333102],[85.477109,28.333091],[85.477131,28.333062],[85.477142,28.33305],[85.477164,28.333034],[85.477192,28.333019],[85.477225,28.333006],[85.477271,28.332992],[85.47732,28.332981],[85.477387,28.332973],[85.477419,28.332971],[85.477456,28.332973],[85.47757,28.332988],[85.477609,28.332991],[85.477643,28.332992],[85.477674,28.332989],[85.477732,28.332978],[85.477814,28.333011],[85.477845,28.333021],[85.477909,28.333034],[85.477941,28.333038],[85.477977,28.333039],[85.478074,28.333034],[85.478129,28.333028],[85.478251,28.333006],[85.478306,28.332999],[85.478372,28.332994],[85.478438,28.332992],[85.478503,28.332993],[85.478567,28.332996],[85.47858,28.332996],[85.478588,28.333003],[85.478597,28.333006],[85.478609,28.333008],[85.478638,28.33301],[85.478651,28.333013],[85.478667,28.33302],[85.478685,28.333023],[85.478724,28.33302],[85.478771,28.333021],[85.478774,28.333021],[85.478822,28.333038],[85.47887,28.33305],[85.478924,28.333061],[85.478983,28.333071],[85.479044,28.333078],[85.47909,28.333087],[85.479141,28.333095],[85.479197,28.333101],[85.479264,28.333105],[85.479362,28.33311],[85.479397,28.333109],[85.479428,28.333105],[85.479467,28.333096],[85.47952,28.333078],[85.479558,28.333077],[85.479596,28.333075],[85.479634,28.33307],[85.479672,28.333064],[85.47971,28.333055],[85.479742,28.333045],[85.479763,28.333042],[85.479786,28.333041],[85.479886,28.333045],[85.47995,28.333043],[85.479992,28.33304],[85.480033,28.333041],[85.480041,28.333039],[85.480047,28.333036],[85.480067,28.333047],[85.480098,28.333059],[85.480136,28.333066],[85.480172,28.333069],[85.48027,28.33307],[85.480308,28.333071],[85.48035,28.333074],[85.480383,28.333073],[85.480398,28.333071],[85.480425,28.333073],[85.480469,28.33308],[85.480509,28.333089],[85.480535,28.333098],[85.480595,28.333126],[85.480625,28.333134],[85.480654,28.333137],[85.480721,28.333133],[85.480751,28.333134],[85.480775,28.33314],[85.480828,28.333156],[85.480851,28.33316],[85.480891,28.333162],[85.480939,28.33316],[85.480993,28.333171],[85.481025,28.333183],[85.481056,28.333199],[85.48108,28.333215],[85.481104,28.333242],[85.481115,28.33325],[85.481128,28.333254],[85.481154,28.333257],[85.481186,28.333259],[85.481222,28.333258],[85.481258,28.333253],[85.481349,28.333238],[85.481396,28.333234],[85.48142,28.333235],[85.481443,28.333238],[85.481463,28.333243],[85.481483,28.33325],[85.481502,28.33326],[85.481535,28.333273],[85.481574,28.333281],[85.481617,28.333286],[85.481678,28.333288],[85.481683,28.333289],[85.481766,28.33331],[85.481794,28.33332],[85.481818,28.333331],[85.481841,28.333344],[85.481848,28.333354],[85.48186,28.333381],[85.481866,28.333389],[85.481874,28.333393],[85.481902,28.333402],[85.481914,28.333411],[85.481934,28.333431],[85.481937,28.333434],[85.481937,28.333434],[85.481948,28.333452],[85.481963,28.333473],[85.481974,28.333485],[85.481988,28.333497],[85.482003,28.333516],[85.482018,28.333531],[85.482035,28.333545],[85.482041,28.333566],[85.482052,28.333602],[85.482059,28.333618],[85.482068,28.333629],[85.482079,28.333634],[85.482088,28.333635],[85.482092,28.333634],[85.482093,28.333633],[85.48212,28.333701],[85.482137,28.333734],[85.48215,28.333751],[85.482182,28.333788],[85.482195,28.333808],[85.482204,28.333833],[85.482212,28.333904],[85.482216,28.33392],[85.482221,28.333934],[85.482232,28.333955],[85.482241,28.333966],[85.48225,28.333973],[85.482263,28.333979],[85.48228,28.333985],[85.482286,28.333993],[85.482292,28.333999],[85.482302,28.334003],[85.482315,28.334006],[85.48233,28.334006],[85.482347,28.334005],[85.482363,28.334001],[85.482379,28.333995],[85.482388,28.33399],[85.482395,28.333983],[85.48241,28.33396],[85.482438,28.33396],[85.482473,28.333966],[85.482488,28.333971],[85.482531,28.333989],[85.48255,28.333993],[85.482597,28.334],[85.482618,28.334005],[85.482639,28.334012],[85.482661,28.334023],[85.482742,28.334069],[85.482776,28.334086],[85.482819,28.334102],[85.482879,28.334121],[85.482976,28.334153],[85.483006,28.33416],[85.483034,28.334163],[85.483076,28.334164],[85.483124,28.33416],[85.483188,28.334151],[85.483239,28.334139],[85.483282,28.334123],[85.4833,28.334113],[85.483317,28.334103]]]]}}]}